station,valid,tmpf,dwpf,relh,drct,sknt,p01i,alti,mslp,vsby,gust,skyc1,skyc2,skyc3,skyc4,skyl1,skyl2,skyl3,skyl4,wxcodes,ice_accretion_1hr,ice_accretion_3hr,ice_accretion_6hr,peak_wind_gust,peak_wind_drct,peak_wind_time,feel,metar,snowdepth
EHBK,2022-06-15 23:55,64.40,50.00,59.50,50.00,9.00,0.00,30.06,M,6.21,M,NSC,M,M,M,M,M,M,M,M,M,M,M,M,M,M,64.40,EHBK 152355Z AUTO 05009KT 9999 NSC 18/10 Q1018,M
EHBK,2022-06-16 00:25,62.60,51.80,67.75,40.00,8.00,0.00,30.06,M,6.21,M,NSC,M,M,M,M,M,M,M,M,M,M,M,M,M,M,62.60,EHBK 160025Z AUTO 04008KT 9999 NSC 17/11 Q1018,M
EHBK,2022-06-16 00:55,60.80,51.80,72.20,50.00,7.00,0.00,30.06,M,6.21,M,NSC,M,M,M,M,M,M,M,M,M,M,M,M,M,M,60.80,EHBK 160055Z AUTO 05007KT 9999 NSC 16/11 Q1018,M
EHBK,2022-06-16 01:25,60.80,51.80,72.20,40.00,7.00,0.00,30.06,M,6.21,M,NSC,M,M,M,M,M,M,M,M,M,M,M,M,M,M,60.80,EHBK 160125Z AUTO 04007KT 9999 NSC 16/11 Q1018,M
EHBK,2022-06-16 01:55,60.80,51.80,72.20,40.00,6.00,0.00,30.06,M,6.21,M,NSC,M,M,M,M,M,M,M,M,M,M,M,M,M,M,60.80,EHBK 160155Z AUTO 04006KT 9999 NSC 16/11 Q1018,M
EHBK,2022-06-16 02:25,57.20,50.00,76.82,30.00,6.00,0.00,30.06,M,6.21,M,NSC,M,M,M,M,M,M,M,M,M,M,M,M,M,M,57.20,EHBK 160225Z AUTO 03006KT 9999 NSC 14/10 Q1018,M
EHBK,2022-06-16 02:55,57.20,50.00,76.82,20.00,7.00,0.00,30.09,M,6.21,M,NSC,M,M,M,M,M,M,M,M,M,M,M,M,M,M,57.20,EHBK 160255Z AUTO 02007KT 9999 NSC 14/10 Q1019 NOSIG,M
EHBK,2022-06-16 03:25,57.20,50.00,76.82,30.00,8.00,0.00,30.09,M,6.21,M,NCD,M,M,M,M,M,M,M,M,M,M,M,M,M,M,57.20,EHBK 160325Z AUTO 03008KT 9999 NCD 14/10 Q1019 NOSIG,M
EHBK,2022-06-16 03:55,57.20,50.00,76.82,20.00,8.00,0.00,30.09,M,6.21,M,NCD,M,M,M,M,M,M,M,M,M,M,M,M,M,M,57.20,EHBK 160355Z AUTO 02008KT 9999 NCD 14/10 Q1019 NOSIG,M
EHBK,2022-06-16 04:25,59.00,48.20,67.33,30.00,7.00,0.00,30.09,M,6.21,M,NCD,M,M,M,M,M,M,M,M,M,M,M,M,M,M,59.00,EHBK 160425Z AUTO 03007KT 9999 NCD 15/09 Q1019 NOSIG,M
EHBK,2022-06-16 04:55,59.00,48.20,67.33,30.00,7.00,0.00,30.12,M,6.21,M,NSC,M,M,M,M,M,M,M,M,M,M,M,M,M,M,59.00,EHBK 160455Z AUTO 03007KT 9999 NSC 15/09 Q1020 NOSIG,M
EHBK,2022-06-16 05:25,60.80,48.20,63.15,30.00,8.00,0.00,30.12,M,6.21,M,NSC,M,M,M,M,M,M,M,M,M,M,M,M,M,M,60.80,EHBK 160525Z AUTO 03008KT 9999 NSC 16/09 Q1020 NOSIG,M
EHBK,2022-06-16 05:55,60.80,48.20,63.15,40.00,7.00,0.00,30.12,M,6.21,M,NSC,M,M,M,M,M,M,M,M,M,M,M,M,M,M,60.80,EHBK 160555Z AUTO 04007KT 9999 NSC 16/09 Q1020 NOSIG,M
EHBK,2022-06-16 06:25,62.60,48.20,59.26,60.00,8.00,0.00,30.15,M,6.21,M,NSC,M,M,M,M,M,M,M,M,M,M,M,M,M,M,62.60,EHBK 160625Z AUTO 06008KT 020V080 9999 NSC 17/09 Q1021 NOSIG,M
EHBK,2022-06-16 06:55,64.40,48.20,55.63,50.00,7.00,0.00,30.15,M,6.21,M,NSC,M,M,M,M,M,M,M,M,M,M,M,M,M,M,64.40,EHBK 160655Z AUTO 05007KT 020V090 9999 NSC 18/09 Q1021 NOSIG,M
EHBK,2022-06-16 07:25,66.20,50.00,55.88,40.00,6.00,0.00,30.15,M,6.21,M,NSC,M,M,M,M,M,M,M,M,M,M,M,M,M,M,66.20,EHBK 160725Z AUTO 04006KT 360V090 9999 NSC 19/10 Q1021 NOSIG,M
EHBK,2022-06-16 07:55,66.20,51.80,59.74,20.00,6.00,0.00,30.18,M,6.21,M,NCD,M,M,M,M,M,M,M,M,M,M,M,M,M,M,66.20,EHBK 160755Z AUTO 02006KT 320V070 9999 NCD 19/11 Q1022 NOSIG,M
EHBK,2022-06-16 08:25,66.20,50.00,55.88,350.00,6.00,0.00,30.18,M,6.21,M,NCD,M,M,M,M,M,M,M,M,M,M,M,M,M,M,66.20,EHBK 160825Z AUTO 35006KT 270V060 9999 NCD 19/10 Q1022 NOSIG,M
EHBK,2022-06-16 08:55,68.00,48.20,49.10,360.00,6.00,0.00,30.18,M,6.21,M,NCD,M,M,M,M,M,M,M,M,M,M,M,M,M,M,68.00,EHBK 160855Z AUTO 36006KT 320V050 9999 NCD 20/09 Q1022 NOSIG,M
EHBK,2022-06-16 09:25,69.80,46.40,43.13,350.00,8.00,0.00,30.18,M,6.21,M,NCD,M,M,M,M,M,M,M,M,M,M,M,M,M,M,69.80,EHBK 160925Z AUTO 35008KT 310V050 9999 NCD 21/08 Q1022 NOSIG,M
EHBK,2022-06-16 09:55,69.80,46.40,43.13,360.00,7.00,0.00,30.21,M,6.21,M,NCD,M,M,M,M,M,M,M,M,M,M,M,M,M,M,69.80,EHBK 160955Z AUTO 36007KT 300V050 9999 NCD 21/08 Q1023 NOSIG,M
EHBK,2022-06-16 10:25,71.60,46.40,40.57,40.00,9.00,0.00,30.21,M,6.21,M,NCD,M,M,M,M,M,M,M,M,M,M,M,M,M,M,71.60,EHBK 161025Z AUTO 04009KT 320V090 9999 NCD 22/08 Q1023 NOSIG,M
EHBK,2022-06-16 10:55,71.60,46.40,40.57,30.00,8.00,0.00,30.21,M,6.21,M,NCD,M,M,M,M,M,M,M,M,M,M,M,M,M,M,71.60,EHBK 161055Z AUTO 03008KT 330V090 9999 NCD 22/08 Q1023 NOSIG,M
EHBK,2022-06-16 11:25,71.60,46.40,40.57,60.00,9.00,0.00,30.21,M,6.21,M,NCD,M,M,M,M,M,M,M,M,M,M,M,M,M,M,71.60,EHBK 161125Z AUTO 06009KT 010V100 9999 NCD 22/08 Q1023 NOSIG,M
EHBK,2022-06-16 11:55,73.40,48.20,40.85,60.00,6.00,0.00,30.21,M,6.21,M,NCD,M,M,M,M,M,M,M,M,M,M,M,M,M,M,73.40,EHBK 161155Z AUTO 06006KT 350V110 9999 NCD 23/09 Q1023 NOSIG,M
EHBK,2022-06-16 12:25,75.20,50.00,41.14,M,6.00,0.00,30.21,M,6.21,M,NCD,M,M,M,M,M,M,M,M,M,M,M,M,M,M,75.20,EHBK 161225Z AUTO VRB06KT 9999 NCD 24/10 Q1023 NOSIG,M
EHBK,2022-06-16 12:55,75.20,48.20,38.46,40.00,7.00,0.00,30.21,M,6.21,M,NCD,M,M,M,M,M,M,M,M,M,M,M,M,M,M,75.20,EHBK 161255Z AUTO 04007KT 340V080 9999 NCD 24/09 Q1023 NOSIG,M
EHBK,2022-06-16 13:25,75.20,48.20,38.46,350.00,8.00,0.00,30.21,M,6.21,M,NSC,M,M,M,M,M,M,M,M,M,M,M,M,M,M,75.20,EHBK 161325Z AUTO 35008KT 310V040 9999 NSC 24/09 Q1023 NOSIG,M
EHBK,2022-06-16 13:55,75.20,50.00,41.14,30.00,7.00,0.00,30.21,M,6.21,M,NSC,M,M,M,M,M,M,M,M,M,M,M,M,M,M,75.20,EHBK 161355Z AUTO 03007KT 330V080 9999 NSC 24/10 Q1023 NOSIG,M
EHBK,2022-06-16 14:25,75.20,48.20,38.46,30.00,8.00,0.00,30.21,M,6.21,M,NSC,M,M,M,M,M,M,M,M,M,M,M,M,M,M,75.20,EHBK 161425Z AUTO 03008KT 350V080 9999 NSC 24/09 Q1023 NOSIG,M
EHBK,2022-06-16 14:55,75.20,50.00,41.14,60.00,9.00,0.00,30.21,M,6.21,M,NSC,M,M,M,M,M,M,M,M,M,M,M,M,M,M,75.20,EHBK 161455Z AUTO 06009KT 010V100 9999 NSC 24/10 Q1023 NOSIG,M
EHBK,2022-06-16 15:25,77.00,50.00,38.74,30.00,10.00,0.00,30.21,M,6.21,M,NSC,M,M,M,M,M,M,M,M,M,M,M,M,M,M,77.00,EHBK 161525Z AUTO 03010KT 350V070 9999 NSC 25/10 Q1023 NOSIG,M
EHBK,2022-06-16 15:55,75.20,48.20,38.46,30.00,9.00,0.00,30.21,M,6.21,M,NSC,M,M,M,M,M,M,M,M,M,M,M,M,M,M,75.20,EHBK 161555Z AUTO 03009KT 9999 NSC 24/09 Q1023 NOSIG,M
EHBK,2022-06-16 16:25,73.40,48.20,40.85,30.00,6.00,0.00,30.21,M,6.21,M,NSC,M,M,M,M,M,M,M,M,M,M,M,M,M,M,73.40,EHBK 161625Z AUTO 03006KT 360V070 9999 NSC 23/09 Q1023 NOSIG,M
EHBK,2022-06-16 16:55,75.20,48.20,38.46,30.00,7.00,0.00,30.21,M,6.21,M,NSC,M,M,M,M,M,M,M,M,M,M,M,M,M,M,75.20,EHBK 161655Z AUTO 03007KT 9999 NSC 24/09 Q1023 NOSIG,M
EHBK,2022-06-16 17:25,75.20,48.20,38.46,40.00,6.00,0.00,30.18,M,6.21,M,NSC,M,M,M,M,M,M,M,M,M,M,M,M,M,M,75.20,EHBK 161725Z AUTO 04006KT 010V070 9999 NSC 24/09 Q1022 NOSIG,M
EHBK,2022-06-16 17:55,71.60,48.20,43.42,50.00,6.00,0.00,30.18,M,6.21,M,NSC,M,M,M,M,M,M,M,M,M,M,M,M,M,M,71.60,EHBK 161755Z AUTO 05006KT 010V080 9999 NSC 22/09 Q1022 NOSIG,M
EHBK,2022-06-16 18:25,73.40,48.20,40.85,50.00,6.00,0.00,30.21,M,6.21,M,NSC,M,M,M,M,M,M,M,M,M,M,M,M,M,M,73.40,EHBK 161825Z AUTO 05006KT 9999 NSC 23/09 Q1023 NOSIG,M
EHBK,2022-06-16 18:55,71.60,48.20,43.42,80.00,6.00,0.00,30.21,M,6.21,M,NSC,M,M,M,M,M,M,M,M,M,M,M,M,M,M,71.60,EHBK 161855Z AUTO 08006KT 050V110 9999 NSC 22/09 Q1023 NOSIG,M
EHBK,2022-06-16 19:25,68.00,50.00,52.51,70.00,6.00,0.00,30.21,M,6.21,M,NSC,M,M,M,M,M,M,M,M,M,M,M,M,M,M,68.00,EHBK 161925Z AUTO 07006KT 9999 NSC 20/10 Q1023 NOSIG,M
EHBK,2022-06-16 19:55,68.00,50.00,52.51,70.00,5.00,0.00,30.21,M,6.21,M,NSC,M,M,M,M,M,M,M,M,M,M,M,M,M,M,68.00,EHBK 161955Z AUTO 07005KT 030V090 9999 NSC 20/10 Q1023 NOSIG,M
EHBK,2022-06-16 20:25,66.20,50.00,55.88,60.00,5.00,0.00,30.21,M,6.21,M,NSC,M,M,M,M,M,M,M,M,M,M,M,M,M,M,66.20,EHBK 162025Z AUTO 06005KT 9999 NSC 19/10 Q1023 NOSIG,M
EHBK,2022-06-16 20:55,66.20,50.00,55.88,80.00,5.00,0.00,30.24,M,6.21,M,NSC,M,M,M,M,M,M,M,M,M,M,M,M,M,M,66.20,EHBK 162055Z AUTO 08005KT 9999 NSC 19/10 Q1024 NOSIG,M
EHBK,2022-06-16 21:25,64.40,50.00,59.50,80.00,4.00,0.00,30.24,M,6.21,M,NSC,M,M,M,M,M,M,M,M,M,M,M,M,M,M,64.40,EHBK 162125Z AUTO 08004KT 9999 NSC 18/10 Q1024 NOSIG,M
EHBK,2022-06-16 21:55,62.60,50.00,63.38,90.00,3.00,0.00,30.24,M,6.21,M,NSC,M,M,M,M,M,M,M,M,M,M,M,M,M,M,62.60,EHBK 162155Z AUTO 09003KT 9999 NSC 17/10 Q1024 NOSIG,M
EHBK,2022-06-16 22:25,62.60,50.00,63.38,100.00,4.00,0.00,30.24,M,6.21,M,NSC,M,M,M,M,M,M,M,M,M,M,M,M,M,M,62.60,EHBK 162225Z AUTO 10004KT 9999 NSC 17/10 Q1024 NOSIG,M
EHBK,2022-06-16 22:55,60.80,50.00,67.54,90.00,4.00,0.00,30.24,M,6.21,M,NSC,M,M,M,M,M,M,M,M,M,M,M,M,M,M,60.80,EHBK 162255Z AUTO 09004KT 9999 NSC 16/10 Q1024 NOSIG,M
EHBK,2022-06-16 23:25,60.80,50.00,67.54,100.00,4.00,0.00,30.24,M,6.21,M,NSC,M,M,M,M,M,M,M,M,M,M,M,M,M,M,60.80,EHBK 162325Z AUTO 10004KT 9999 NSC 16/10 Q1024 NOSIG,M
EHBK,2022-06-16 23:55,60.80,50.00,67.54,110.00,4.00,0.00,30.24,M,6.21,M,NSC,M,M,M,M,M,M,M,M,M,M,M,M,M,M,60.80,EHBK 162355Z AUTO 11004KT 9999 NSC 16/10 Q1024 NOSIG,M
EHBK,2022-06-17 00:25,60.80,50.00,67.54,120.00,5.00,0.00,30.24,M,6.21,M,NSC,M,M,M,M,M,M,M,M,M,M,M,M,M,M,60.80,EHBK 170025Z AUTO 12005KT 9999 NSC 16/10 Q1024 NOSIG,M
EHBK,2022-06-17 00:55,59.00,50.00,72.01,150.00,2.00,0.00,30.24,M,6.21,M,NSC,M,M,M,M,M,M,M,M,M,M,M,M,M,M,59.00,EHBK 170055Z AUTO 15002KT 9999 NSC 15/10 Q1024 NOSIG,M
EHBK,2022-06-17 01:25,57.20,50.00,76.82,M,1.00,0.00,30.24,M,6.21,M,NSC,M,M,M,M,M,M,M,M,M,M,M,M,M,M,57.20,EHBK 170125Z AUTO VRB01KT 9999 NSC 14/10 Q1024 NOSIG,M
EHBK,2022-06-17 01:55,57.20,50.00,76.82,160.00,2.00,0.00,30.24,M,6.21,M,NSC,M,M,M,M,M,M,M,M,M,M,M,M,M,M,57.20,EHBK 170155Z AUTO 16002KT 9999 NSC 14/10 Q1024 NOSIG,M
EHBK,2022-06-17 02:25,55.40,50.00,81.99,140.00,3.00,0.00,30.24,M,6.21,M,NSC,M,M,M,M,M,M,M,M,M,M,M,M,M,M,55.40,EHBK 170225Z AUTO 14003KT 9999 NSC 13/10 Q1024 NOSIG,M
EHBK,2022-06-17 02:55,57.20,50.00,76.82,190.00,2.00,0.00,30.24,M,6.21,M,NSC,M,M,M,M,M,M,M,M,M,M,M,M,M,M,57.20,EHBK 170255Z AUTO 19002KT 9999 NSC 14/10 Q1024 NOSIG,M
EHBK,2022-06-17 03:25,57.20,50.00,76.82,170.00,3.00,0.00,30.24,M,6.21,M,NSC,M,M,M,M,M,M,M,M,M,M,M,M,M,M,57.20,EHBK 170325Z AUTO 17003KT 9999 NSC 14/10 Q1024 NOSIG,M
EHBK,2022-06-17 03:55,60.80,50.00,67.54,170.00,4.00,0.00,30.24,M,6.21,M,NSC,M,M,M,M,M,M,M,M,M,M,M,M,M,M,60.80,EHBK 170355Z AUTO 17004KT 9999 NSC 16/10 Q1024 NOSIG,M
EHBK,2022-06-17 04:25,60.80,50.00,67.54,170.00,3.00,0.00,30.24,M,6.21,M,NSC,M,M,M,M,M,M,M,M,M,M,M,M,M,M,60.80,EHBK 170425Z AUTO 17003KT 9999 NSC 16/10 Q1024 NOSIG,M
EHBK,2022-06-17 04:55,62.60,50.00,63.38,170.00,4.00,0.00,30.24,M,6.21,M,NSC,M,M,M,M,M,M,M,M,M,M,M,M,M,M,62.60,EHBK 170455Z AUTO 17004KT 9999 NSC 17/10 Q1024 NOSIG,M
EHBK,2022-06-17 05:25,64.40,50.00,59.50,160.00,5.00,0.00,30.24,M,6.21,M,NSC,M,M,M,M,M,M,M,M,M,M,M,M,M,M,64.40,EHBK 170525Z AUTO 16005KT 140V200 9999 NSC 18/10 Q1024 NOSIG,M
EHBK,2022-06-17 05:55,64.40,51.80,63.60,180.00,4.00,0.00,30.24,M,6.21,M,NSC,M,M,M,M,M,M,M,M,M,M,M,M,M,M,64.40,EHBK 170555Z AUTO 18004KT 150V210 9999 NSC 18/11 Q1024 NOSIG,M
EHBK,2022-06-17 06:25,64.40,53.60,67.95,160.00,5.00,0.00,30.24,M,6.21,M,NSC,M,M,M,M,M,M,M,M,M,M,M,M,M,M,64.40,EHBK 170625Z AUTO 16005KT 9999 NSC 18/12 Q1024 NOSIG,M
EHBK,2022-06-17 06:55,66.20,53.60,63.82,180.00,7.00,0.00,30.21,M,6.21,M,NSC,M,M,M,M,M,M,M,M,M,M,M,M,M,M,66.20,EHBK 170655Z AUTO 18007KT 150V220 9999 NSC 19/12 Q1023 NOSIG,M
EHBK,2022-06-17 07:25,69.80,53.60,56.38,180.00,5.00,0.00,30.24,M,6.21,M,NSC,M,M,M,M,M,M,M,M,M,M,M,M,M,M,69.80,EHBK 170725Z AUTO 18005KT 150V220 9999 NSC 21/12 Q1024 NOSIG,M
EHBK,2022-06-17 07:55,73.40,53.60,49.90,170.00,5.00,0.00,30.24,M,6.21,M,NSC,M,M,M,M,M,M,M,M,M,M,M,M,M,M,73.40,EHBK 170755Z AUTO 17005KT 140V210 9999 NSC 23/12 Q1024 NOSIG,M
EHBK,2022-06-17 08:25,73.40,53.60,49.90,200.00,7.00,0.00,30.24,M,6.21,M,NSC,M,M,M,M,M,M,M,M,M,M,M,M,M,M,73.40,EHBK 170825Z AUTO 20007KT 170V230 9999 NSC 23/12 Q1024 NOSIG,M
EHBK,2022-06-17 08:55,75.20,51.80,43.97,200.00,5.00,0.00,30.24,M,6.21,M,NCD,M,M,M,M,M,M,M,M,M,M,M,M,M,M,75.20,EHBK 170855Z AUTO 20005KT 140V240 9999 NCD 24/11 Q1024 NOSIG,M
EHBK,2022-06-17 09:25,75.20,51.80,43.97,230.00,7.00,0.00,30.24,M,6.21,M,NSC,M,M,M,M,M,M,M,M,M,M,M,M,M,M,75.20,EHBK 170925Z AUTO 23007KT 190V270 9999 NSC 24/11 Q1024 NOSIG,M
EHBK,2022-06-17 09:55,77.00,51.80,41.42,210.00,8.00,0.00,30.21,M,6.21,M,NSC,M,M,M,M,M,M,M,M,M,M,M,M,M,M,77.00,EHBK 170955Z AUTO 21008KT 150V250 9999 NSC 25/11 Q1023 NOSIG,M
EHBK,2022-06-17 10:25,78.80,51.80,39.02,180.00,6.00,0.00,30.21,M,6.21,M,NSC,M,M,M,M,M,M,M,M,M,M,M,M,M,M,78.80,EHBK 171025Z AUTO 18006KT 110V240 9999 NSC 26/11 Q1023 NOSIG,M
EHBK,2022-06-17 10:55,78.80,50.00,36.51,190.00,4.00,0.00,30.21,M,6.21,M,NSC,M,M,M,M,M,M,M,M,M,M,M,M,M,M,78.80,EHBK 171055Z AUTO 19004KT 130V270 9999 NSC 26/10 Q1023 NOSIG,M
EHBK,2022-06-17 11:25,80.60,48.20,32.18,180.00,7.00,0.00,30.21,M,6.21,M,NCD,M,M,M,M,M,M,M,M,M,M,M,M,M,M,79.71,EHBK 171125Z AUTO 18007KT 120V220 9999 NCD 27/09 Q1023 NOSIG,M
EHBK,2022-06-17 11:55,82.40,48.20,30.35,M,6.00,0.00,30.21,M,6.21,M,NSC,M,M,M,M,M,M,M,M,M,M,M,M,M,M,80.80,EHBK 171155Z AUTO VRB06KT 9999 NSC 28/09 Q1023 NOSIG,M
EHBK,2022-06-17 12:25,82.40,50.00,32.46,240.00,5.00,0.00,30.18,M,6.21,M,NSC,M,M,M,M,M,M,M,M,M,M,M,M,M,M,80.99,EHBK 171225Z AUTO 24005KT 170V290 9999 NSC 28/10 Q1022 NOSIG,M
EHBK,2022-06-17 12:55,84.20,50.00,30.62,200.00,7.00,0.00,30.18,M,6.21,M,NSC,M,M,M,M,M,M,M,M,M,M,M,M,M,M,82.24,EHBK 171255Z AUTO 20007KT 120V280 9999 NSC 29/10 Q1022 NOSIG,M
EHBK,2022-06-17 13:25,84.20,50.00,30.62,210.00,8.00,0.00,30.18,M,6.21,M,NSC,M,M,M,M,M,M,M,M,M,M,M,M,M,M,82.24,EHBK 171325Z AUTO 21008KT 160V250 9999 NSC 29/10 Q1022 NOSIG,M
EHBK,2022-06-17 13:55,84.20,50.00,30.62,210.00,8.00,0.00,30.18,M,6.21,M,NSC,M,M,M,M,M,M,M,M,M,M,M,M,M,M,82.24,EHBK 171355Z AUTO 21008KT 160V240 9999 NSC 29/10 Q1022 NOSIG,M
EHBK,2022-06-17 14:25,84.20,55.40,37.35,250.00,8.00,0.00,30.15,M,6.21,M,NSC,M,M,M,M,M,M,M,M,M,M,M,M,M,M,83.09,EHBK 171425Z AUTO 25008KT 230V330 9999 NSC 29/13 Q1021 NOSIG,M
EHBK,2022-06-17 14:55,84.20,53.60,34.97,250.00,8.00,0.00,30.15,M,6.21,M,NSC,M,M,M,M,M,M,M,M,M,M,M,M,M,M,82.76,EHBK 171455Z AUTO 25008KT 210V310 9999 NSC 29/12 Q1021 NOSIG,M
EHBK,2022-06-17 15:25,84.20,53.60,34.97,250.00,8.00,0.00,30.15,M,6.21,M,NSC,M,M,M,M,M,M,M,M,M,M,M,M,M,M,82.76,EHBK 171525Z AUTO 25008KT 220V310 9999 NSC 29/12 Q1021 NOSIG,M
EHBK,2022-06-17 15:55,86.00,55.40,35.25,250.00,8.00,0.00,30.15,M,6.21,M,NSC,M,M,M,M,M,M,M,M,M,M,M,M,M,M,84.54,EHBK 171555Z AUTO 25008KT 210V290 9999 NSC 30/13 Q1021 NOSIG,M
EHBK,2022-06-17 16:25,86.00,55.40,35.25,240.00,9.00,0.00,30.15,M,6.21,M,NSC,M,M,M,M,M,M,M,M,M,M,M,M,M,M,84.54,EHBK 171625Z AUTO 24009KT 200V300 9999 NSC 30/13 Q1021 NOSIG,M
EHBK,2022-06-17 16:55,84.20,53.60,34.97,250.00,8.00,0.00,30.12,M,6.21,M,NSC,M,M,M,M,M,M,M,M,M,M,M,M,M,M,82.76,EHBK 171655Z AUTO 25008KT 220V290 9999 NSC 29/12 Q1020 NOSIG,M
EHBK,2022-06-17 17:25,84.20,51.80,32.73,260.00,6.00,0.00,30.12,M,6.21,M,NSC,M,M,M,M,M,M,M,M,M,M,M,M,M,M,82.48,EHBK 171725Z AUTO 26006KT 220V290 9999 NSC 29/11 Q1020 NOSIG,M
EHBK,2022-06-17 17:55,84.20,51.80,32.73,250.00,6.00,0.00,30.12,M,6.21,M,NSC,M,M,M,M,M,M,M,M,M,M,M,M,M,M,82.48,EHBK 171755Z AUTO 25006KT 210V280 9999 NSC 29/11 Q1020 NOSIG,M
EHBK,2022-06-17 18:25,82.40,55.40,39.58,240.00,6.00,0.00,30.12,M,6.21,M,NSC,M,M,M,M,M,M,M,M,M,M,M,M,M,M,81.75,EHBK 171825Z AUTO 24006KT 9999 NSC 28/13 Q1020 NOSIG,M
EHBK,2022-06-17 18:55,80.60,53.60,39.30,240.00,6.00,0.00,30.12,M,6.21,M,NSC,M,M,M,M,M,M,M,M,M,M,M,M,M,M,80.29,EHBK 171855Z AUTO 24006KT 220V280 9999 NSC 27/12 Q1020 NOSIG,M
EHBK,2022-06-17 19:25,80.60,53.60,39.30,240.00,6.00,0.00,30.12,M,6.21,M,NSC,M,M,M,M,M,M,M,M,M,M,M,M,M,M,80.29,EHBK 171925Z AUTO 24006KT 210V270 9999 NSC 27/12 Q1020 NOSIG,M
EHBK,2022-06-17 19:55,78.80,53.60,41.69,240.00,7.00,0.00,30.12,M,6.21,M,NSC,M,M,M,M,M,M,M,M,M,M,M,M,M,M,78.80,EHBK 171955Z AUTO 24007KT 210V270 9999 NSC 26/12 Q1020 NOSIG,M
EHBK,2022-06-17 20:25,75.20,55.40,50.17,220.00,7.00,0.00,30.12,M,6.21,M,NSC,M,M,M,M,M,M,M,M,M,M,M,M,M,M,75.20,EHBK 172025Z AUTO 22007KT 9999 NSC 24/13 Q1020 NOSIG,M
EHBK,2022-06-17 20:55,73.40,55.40,53.29,210.00,7.00,0.00,30.12,M,6.21,M,NSC,M,M,M,M,M,M,M,M,M,M,M,M,M,M,73.40,EHBK 172055Z AUTO 21007KT 9999 NSC 23/13 Q1020 NOSIG,M
EHBK,2022-06-17 21:25,71.60,55.40,56.63,200.00,7.00,0.00,30.12,M,6.21,M,NSC,M,M,M,M,M,M,M,M,M,M,M,M,M,M,71.60,EHBK 172125Z AUTO 20007KT 9999 NSC 22/13 Q1020,M
EHBK,2022-06-17 21:55,73.40,55.40,53.29,200.00,8.00,0.00,30.12,M,6.21,M,NSC,M,M,M,M,M,M,M,M,M,M,M,M,M,M,73.40,EHBK 172155Z AUTO 20008KT 9999 NSC 23/13 Q1020,M
EHBK,2022-06-17 22:25,73.40,55.40,53.29,190.00,8.00,0.00,30.12,M,6.21,M,NSC,M,M,M,M,M,M,M,M,M,M,M,M,M,M,73.40,EHBK 172225Z AUTO 19008KT 9999 NSC 23/13 Q1020,M
EHBK,2022-06-17 22:55,73.40,55.40,53.29,200.00,9.00,0.00,30.09,M,6.21,M,NSC,M,M,M,M,M,M,M,M,M,M,M,M,M,M,73.40,EHBK 172255Z AUTO 20009KT 9999 NSC 23/13 Q1019,M
EHBK,2022-06-17 23:25,71.60,55.40,56.63,200.00,10.00,0.00,30.09,M,6.21,M,NSC,M,M,M,M,M,M,M,M,M,M,M,M,M,M,71.60,EHBK 172325Z AUTO 20010KT 9999 NSC 22/13 Q1019,M
EHBK,2022-06-17 23:55,71.60,55.40,56.63,200.00,12.00,0.00,30.09,M,6.21,M,NSC,M,M,M,M,M,M,M,M,M,M,M,M,M,M,71.60,EHBK 172355Z AUTO 20012KT 9999 NSC 22/13 Q1019,M
EHBK,2022-06-18 00:25,71.60,55.40,56.63,200.00,12.00,0.00,30.09,M,6.21,M,NSC,M,M,M,M,M,M,M,M,M,M,M,M,M,M,71.60,EHBK 180025Z AUTO 20012KT 9999 NSC 22/13 Q1019,M
EHBK,2022-06-18 00:55,71.60,55.40,56.63,210.00,11.00,0.00,30.09,M,6.21,M,NSC,M,M,M,M,M,M,M,M,M,M,M,M,M,M,71.60,EHBK 180055Z AUTO 21011KT 9999 NSC 22/13 Q1019,M
EHBK,2022-06-18 01:25,69.80,55.40,60.21,210.00,8.00,0.00,30.09,M,6.21,M,NCD,M,M,M,M,M,M,M,M,M,M,M,M,M,M,69.80,EHBK 180125Z AUTO 21008KT 9999 NCD 21/13 Q1019,M
EHBK,2022-06-18 01:55,69.80,55.40,60.21,200.00,9.00,0.00,30.09,M,6.21,M,NSC,M,M,M,M,M,M,M,M,M,M,M,M,M,M,69.80,EHBK 180155Z AUTO 20009KT 9999 NSC 21/13 Q1019,M
EHBK,2022-06-18 02:25,69.80,55.40,60.21,200.00,9.00,0.00,30.09,M,6.21,M,NSC,M,M,M,M,M,M,M,M,M,M,M,M,M,M,69.80,EHBK 180225Z AUTO 20009KT 9999 NSC 21/13 Q1019,M
EHBK,2022-06-18 02:55,69.80,55.40,60.21,210.00,11.00,0.00,30.09,M,6.21,M,NCD,M,M,M,M,M,M,M,M,M,M,M,M,M,M,69.80,EHBK 180255Z AUTO 21011KT 9999 NCD 21/13 Q1019,M
EHBK,2022-06-18 03:25,69.80,55.40,60.21,200.00,10.00,0.00,30.09,M,6.21,M,NSC,M,M,M,M,M,M,M,M,M,M,M,M,M,M,69.80,EHBK 180325Z AUTO 20010KT 9999 NSC 21/13 Q1019,M
EHBK,2022-06-18 03:55,69.80,55.40,60.21,200.00,9.00,0.00,30.09,M,6.21,M,NCD,M,M,M,M,M,M,M,M,M,M,M,M,M,M,69.80,EHBK 180355Z AUTO 20009KT 9999 NCD 21/13 Q1019 NOSIG,M
EHBK,2022-06-18 04:25,68.00,55.40,64.04,210.00,8.00,0.00,30.09,M,6.21,M,NCD,M,M,M,M,M,M,M,M,M,M,M,M,M,M,68.00,EHBK 180425Z AUTO 21008KT 9999 NCD 20/13 Q1019 NOSIG,M
EHBK,2022-06-18 04:55,69.80,57.20,64.26,210.00,9.00,0.00,30.09,M,6.21,M,NCD,M,M,M,M,M,M,M,M,M,M,M,M,M,M,69.80,EHBK 180455Z AUTO 21009KT 9999 NCD 21/14 Q1019 NOSIG,M
EHBK,2022-06-18 05:25,71.60,57.20,60.44,200.00,9.00,0.00,30.06,M,6.21,M,NSC,M,M,M,M,M,M,M,M,M,M,M,M,M,M,71.60,EHBK 180525Z AUTO 20009KT 9999 NSC 22/14 Q1018 NOSIG,M
EHBK,2022-06-18 05:55,71.60,57.20,60.44,210.00,9.00,0.00,30.06,M,6.21,M,NSC,M,M,M,M,M,M,M,M,M,M,M,M,M,M,71.60,EHBK 180555Z AUTO 21009KT 9999 NSC 22/14 Q1018 NOSIG,M
EHBK,2022-06-18 06:25,73.40,57.20,56.88,210.00,9.00,0.00,30.06,M,6.21,M,NCD,M,M,M,M,M,M,M,M,M,M,M,M,M,M,73.40,EHBK 180625Z AUTO 21009KT 9999 NCD 23/14 Q1018 NOSIG,M
EHBK,2022-06-18 06:55,75.20,59.00,57.12,230.00,7.00,0.00,30.06,M,6.21,M,NSC,M,M,M,M,M,M,M,M,M,M,M,M,M,M,75.20,EHBK 180655Z AUTO 23007KT 9999 NSC 24/15 Q1018 NOSIG,M
EHBK,2022-06-18 07:25,78.80,59.00,50.69,230.00,9.00,0.00,30.06,M,6.21,M,NSC,M,M,M,M,M,M,M,M,M,M,M,M,M,M,78.80,EHBK 180725Z AUTO 23009KT 9999 NSC 26/15 Q1018 NOSIG,M
EHBK,2022-06-18 07:55,78.80,59.00,50.69,240.00,9.00,0.00,30.06,M,6.21,M,NCD,M,M,M,M,M,M,M,M,M,M,M,M,M,M,78.80,EHBK 180755Z AUTO 24009KT 200V270 9999 NCD 26/15 Q1018 NOSIG,M
EHBK,2022-06-18 08:25,80.60,59.00,47.79,230.00,9.00,0.00,30.06,M,6.21,M,NCD,M,M,M,M,M,M,M,M,M,M,M,M,M,M,81.11,EHBK 180825Z AUTO 23009KT 200V260 9999 NCD 27/15 Q1018 NOSIG,M
EHBK,2022-06-18 08:55,82.40,59.00,45.07,240.00,9.00,0.00,30.06,M,6.21,M,NCD,M,M,M,M,M,M,M,M,M,M,M,M,M,M,82.46,EHBK 180855Z AUTO 24009KT 180V300 9999 NCD 28/15 Q1018 NOSIG,M
EHBK,2022-06-18 09:25,84.20,59.00,42.52,230.00,10.00,0.00,30.03,M,6.21,M,NCD,M,M,M,M,M,M,M,M,M,M,M,M,M,M,83.92,EHBK 180925Z AUTO 23010KT 170V260 9999 NCD 29/15 Q1017 NOSIG,M
EHBK,2022-06-18 09:55,84.20,60.80,45.34,220.00,10.00,0.00,30.03,M,6.21,M,NCD,M,M,M,M,M,M,M,M,M,M,M,M,M,M,84.43,EHBK 180955Z AUTO 22010KT 190V260 9999 NCD 29/16 Q1017 NOSIG,M
EHBK,2022-06-18 10:25,86.00,62.60,45.61,240.00,10.00,0.00,30.03,M,6.21,M,NCD,M,M,M,M,M,M,M,M,M,M,M,M,M,M,86.72,EHBK 181025Z AUTO 24010KT 210V270 9999 NCD 30/17 Q1017 NOSIG,M
EHBK,2022-06-18 10:55,87.80,62.60,43.07,230.00,8.00,0.00,30.03,M,6.21,M,NCD,M,M,M,M,M,M,M,M,M,M,M,M,M,M,88.48,EHBK 181055Z AUTO 23008KT 200V310 9999 NCD 31/17 Q1017 NOSIG,M
EHBK,2022-06-18 11:25,89.60,62.60,40.69,250.00,8.00,0.00,30.03,M,6.21,M,NCD,M,M,M,M,M,M,M,M,M,M,M,M,M,M,90.32,EHBK 181125Z AUTO 25008KT 210V290 9999 NCD 32/17 Q1017 NOSIG,M
EHBK,2022-06-18 11:55,89.60,62.60,40.69,240.00,7.00,0.00,30.00,M,6.21,M,NCD,M,M,M,M,M,M,M,M,M,M,M,M,M,M,90.32,EHBK 181155Z AUTO 24007KT 190V300 9999 NCD 32/17 Q1016 NOSIG,M
EHBK,2022-06-18 12:25,89.60,60.80,38.18,230.00,9.00,0.00,30.00,M,6.21,M,NCD,M,M,M,M,M,M,M,M,M,M,M,M,M,M,89.54,EHBK 181225Z AUTO 23009KT 180V290 9999 NCD 32/16 Q1016 NOSIG,M
EHBK,2022-06-18 12:55,89.60,59.00,35.81,240.00,9.00,0.00,29.97,M,6.21,M,NCD,M,M,M,M,M,M,M,M,M,M,M,M,M,M,88.86,EHBK 181255Z AUTO 24009KT 190V310 9999 NCD 32/15 Q1015 NOSIG,M
EHBK,2022-06-18 13:25,91.40,60.80,36.08,250.00,8.00,0.00,29.97,M,6.21,M,NCD,M,M,M,M,M,M,M,M,M,M,M,M,M,M,91.40,EHBK 181325Z AUTO 25008KT 220V300 9999 NCD 33/16 Q1015 NOSIG,M
EHBK,2022-06-18 13:55,91.40,59.00,33.84,250.00,8.00,0.00,29.97,M,6.21,M,NCD,M,M,M,M,M,M,M,M,M,M,M,M,M,M,90.68,EHBK 181355Z AUTO 25008KT 210V300 9999 NCD 33/15 Q1015 NOSIG,M
EHBK,2022-06-18 14:25,91.40,59.00,33.84,250.00,6.00,0.00,29.94,M,6.21,M,NCD,M,M,M,M,M,M,M,M,M,M,M,M,M,M,90.68,EHBK 181425Z AUTO 25006KT 200V330 9999 NCD 33/15 Q1014 NOSIG,M
EHBK,2022-06-18 14:55,91.40,59.00,33.84,280.00,5.00,0.00,29.94,M,6.21,M,NSC,M,M,M,M,M,M,M,M,M,M,M,M,M,M,90.68,EHBK 181455Z AUTO 28005KT 200V330 9999 NSC 33/15 Q1014 NOSIG,M
EHBK,2022-06-18 15:25,91.40,62.60,38.45,310.00,4.00,0.00,29.91,M,6.21,M,NSC,M,M,M,M,M,M,M,M,M,M,M,M,M,M,92.23,EHBK 181525Z AUTO 31004KT 230V010 9999 NSC 33/17 Q1013 NOSIG,M
EHBK,2022-06-18 15:55,91.40,60.80,36.08,300.00,5.00,0.00,29.91,M,6.21,M,NSC,M,M,M,M,M,M,M,M,M,M,M,M,M,M,91.40,EHBK 181555Z AUTO 30005KT 9999 NSC 33/16 Q1013 NOSIG,M
EHBK,2022-06-18 16:25,91.40,62.60,38.45,320.00,5.00,0.00,29.91,M,6.21,M,NCD,M,M,M,M,M,M,M,M,M,M,M,M,M,M,92.23,EHBK 181625Z AUTO 32005KT 240V040 9999 NCD 33/17 Q1013 NOSIG,M
EHBK,2022-06-18 16:55,89.60,59.00,35.81,290.00,3.00,0.00,29.88,M,6.21,M,NSC,M,M,M,M,M,M,M,M,M,M,M,M,M,M,88.86,EHBK 181655Z AUTO 29003KT 250V350 9999 NSC 32/15 Q1012 NOSIG,M
EHBK,2022-06-18 17:25,89.60,62.60,40.69,360.00,3.00,0.00,29.88,M,6.21,M,NSC,M,M,M,M,M,M,M,M,M,M,M,M,M,M,90.32,EHBK 181725Z AUTO 36003KT 290V040 9999 NSC 32/17 Q1012 NOSIG,M
EHBK,2022-06-18 17:55,89.60,62.60,40.69,M,2.00,0.00,29.88,M,6.21,M,NSC,M,M,M,M,M,M,M,M,M,M,M,M,M,M,90.32,EHBK 181755Z AUTO VRB02KT 9999 NSC 32/17 Q1012 NOSIG,M
EHBK,2022-06-18 18:25,86.00,62.60,45.61,40.00,4.00,0.00,29.85,M,6.21,M,NSC,M,M,M,M,M,M,M,M,M,M,M,M,M,M,86.72,EHBK 181825Z AUTO 04004KT 010V070 9999 NSC 30/17 Q1011 NOSIG,M
EHBK,2022-06-18 18:55,84.20,64.40,51.47,50.00,4.00,0.00,29.85,M,6.21,M,NSC,M,M,M,M,M,M,M,M,M,M,M,M,M,M,85.71,EHBK 181855Z AUTO 05004KT 010V070 9999 NSC 29/18 Q1011 NOSIG,M
EHBK,2022-06-18 19:25,82.40,64.40,54.55,50.00,8.00,0.00,29.85,M,6.21,M,NSC,M,M,M,M,M,M,M,M,M,M,M,M,M,M,83.98,EHBK 181925Z AUTO 05008KT 020V080 9999 NSC 28/18 Q1011 NOSIG,M
EHBK,2022-06-18 19:55,80.60,64.40,57.84,50.00,9.00,0.00,29.83,M,6.21,M,NSC,M,M,M,M,M,M,M,M,M,M,M,M,M,M,82.27,EHBK 181955Z AUTO 05009KT 9999 NSC 27/18 Q1010 NOSIG,M
EHBK,2022-06-18 20:25,78.80,64.40,61.36,50.00,8.00,0.00,29.83,M,6.21,M,NCD,M,M,M,M,M,M,M,M,M,M,M,M,M,M,78.80,EHBK 182025Z AUTO 05008KT 9999 NCD 26/18 Q1010 NOSIG,M
EHBK,2022-06-18 20:55,77.00,62.60,61.13,50.00,7.00,0.00,29.83,M,6.21,M,NCD,M,M,M,M,M,M,M,M,M,M,M,M,M,M,77.00,EHBK 182055Z AUTO 05007KT 9999 NCD 25/17 Q1010,M
EHBK,2022-06-18 21:25,77.00,64.40,65.12,60.00,8.00,0.00,29.80,M,6.21,M,NSC,M,M,M,M,M,M,M,M,M,M,M,M,M,M,77.00,EHBK 182125Z AUTO 06008KT 9999 NSC 25/18 Q1009,M
EHBK,2022-06-18 21:55,75.20,64.40,69.14,60.00,7.00,0.00,29.80,M,6.21,M,NSC,M,M,M,M,M,M,M,M,M,M,M,M,M,M,75.20,EHBK 182155Z AUTO 06007KT 9999 NSC 24/18 Q1009,M
EHBK,2022-06-18 22:25,73.40,64.40,73.44,40.00,7.00,0.00,29.80,M,6.21,M,NCD,M,M,M,M,M,M,M,M,M,M,M,M,M,M,73.40,EHBK 182225Z AUTO 04007KT 9999 NCD 23/18 Q1009,M
EHBK,2022-06-18 22:55,73.40,64.40,73.44,10.00,9.00,0.00,29.80,M,6.21,M,NCD,M,M,M,M,M,M,M,M,M,M,M,M,M,M,73.40,EHBK 182255Z AUTO 01009KT 330V040 9999 NCD 23/18 Q1009,M
EHBK,2022-06-18 23:25,71.60,64.40,78.04,20.00,10.00,0.00,29.77,M,6.21,M,NCD,M,M,M,M,M,M,M,M,M,M,M,M,M,M,71.60,EHBK 182325Z AUTO 02010KT 360V060 9999 NCD 22/18 Q1008,M
EHBK,2022-06-18 23:55,71.60,64.40,78.04,30.00,12.00,0.00,29.77,M,6.21,M,NCD,M,M,M,M,M,M,M,M,M,M,M,M,M,M,71.60,EHBK 182355Z AUTO 03012KT 9999 NCD 22/18 Q1008,M
EHBK,2022-06-19 00:25,69.80,62.60,77.90,30.00,9.00,0.00,29.74,M,6.21,M,NSC,M,M,M,M,M,M,M,M,M,M,M,M,M,M,69.80,EHBK 190025Z AUTO 03009KT 9999 NSC 21/17 Q1007,M
EHBK,2022-06-19 00:55,68.00,60.80,77.75,40.00,8.00,0.00,29.74,M,6.21,M,NCD,M,M,M,M,M,M,M,M,M,M,M,M,M,M,68.00,EHBK 190055Z AUTO 04008KT 010V080 9999 NCD 20/16 Q1007,M
EHBK,2022-06-19 01:25,66.20,60.80,82.74,50.00,7.00,0.00,29.74,M,6.21,M,NCD,M,M,M,M,M,M,M,M,M,M,M,M,M,M,66.20,EHBK 190125Z AUTO 05007KT 9999 NCD 19/16 Q1007,M
EHBK,2022-06-19 01:55,66.20,60.80,82.74,350.00,7.00,0.00,29.74,M,6.21,M,NCD,M,M,M,M,M,M,M,M,M,M,M,M,M,M,66.20,EHBK 190155Z AUTO 35007KT 320V050 9999 NCD 19/16 Q1007,M
EHBK,2022-06-19 02:25,62.60,57.20,82.50,350.00,13.00,0.00,29.77,M,6.21,23.00,NSC,M,M,M,M,M,M,M,M,M,M,M,M,M,M,62.60,EHBK 190225Z AUTO 35013G23KT 300V040 9999 NSC 17/14 Q1008,M
EHBK,2022-06-19 02:55,60.80,53.60,77.14,350.00,14.00,0.00,29.80,M,6.21,M,FEW,M,M,M,1500.00,M,M,M,M,M,M,M,M,M,M,60.80,EHBK 190255Z AUTO 35014KT 290V040 9999 FEW015 16/12 Q1009,M
EHBK,2022-06-19 03:25,59.00,51.80,76.98,340.00,11.00,0.00,29.83,M,6.21,M,BKN,M,M,M,1600.00,M,M,M,M,M,M,M,M,M,M,59.00,EHBK 190325Z AUTO 34011KT 290V030 9999 BKN016 15/11 Q1010,M
EHBK,2022-06-19 03:55,57.20,50.00,76.82,350.00,9.00,0.00,29.83,M,6.21,M,OVC,M,M,M,1800.00,M,M,M,M,M,M,M,M,M,M,57.20,COR EHBK 190355Z AUTO 35009KT 310V030 9999 OVC018 14/10 Q1010 NOSIG,M
EHBK,2022-06-19 04:25,57.20,48.20,71.83,10.00,10.00,0.00,29.83,M,6.21,M,NSC,M,M,M,M,M,M,M,M,M,M,M,M,M,M,57.20,EHBK 190425Z AUTO 01010KT 340V050 9999 NSC 14/09 Q1010 NOSIG,M
EHBK,2022-06-19 04:55,59.00,46.40,62.92,10.00,9.00,0.00,29.83,M,6.21,M,NSC,M,M,M,M,M,M,M,M,M,M,M,M,M,M,59.00,EHBK 190455Z AUTO 01009KT 340V040 9999 NSC 15/08 Q1010 NOSIG,M
EHBK,2022-06-19 05:25,59.00,46.40,62.92,50.00,9.00,0.00,29.80,M,6.21,M,NSC,M,M,M,M,M,M,M,M,M,M,M,M,M,M,59.00,EHBK 190525Z AUTO 05009KT 020V100 9999 NSC 15/08 Q1009 NOSIG,M
EHBK,2022-06-19 05:55,60.80,46.40,59.01,90.00,9.00,0.00,29.80,M,6.21,M,NSC,M,M,M,M,M,M,M,M,M,M,M,M,M,M,60.80,EHBK 190555Z AUTO 09009KT 030V140 9999 NSC 16/08 Q1009 NOSIG,M
EHBK,2022-06-19 06:25,60.80,46.40,59.01,100.00,6.00,0.00,29.80,M,6.21,M,NSC,M,M,M,M,M,M,M,M,M,M,M,M,M,M,60.80,EHBK 190625Z AUTO 10006KT 360V150 9999 NSC 16/08 Q1009 NOSIG,M
EHBK,2022-06-19 06:55,60.80,46.40,59.01,290.00,8.00,0.00,29.88,M,6.21,M,BKN,BKN,M,M,2500.00,2900.00,M,M,M,M,M,M,M,M,M,60.80,EHBK 190655Z AUTO 29008KT 220V360 9999 BKN025 BKN029 16/08 Q1012 NOSIG,M
EHBK,2022-06-19 07:25,62.60,46.40,55.37,320.00,8.00,0.00,29.88,M,6.21,M,NSC,M,M,M,M,M,M,M,M,M,M,M,M,M,M,62.60,EHBK 190725Z AUTO 32008KT 270V010 9999 NSC 17/08 Q1012 NOSIG,M
EHBK,2022-06-19 07:55,62.60,46.40,55.37,310.00,7.00,0.00,29.88,M,6.21,M,NSC,M,M,M,M,M,M,M,M,M,M,M,M,M,M,62.60,EHBK 190755Z AUTO 31007KT 250V010 9999 NSC 17/08 Q1012 TEMPO 6000 SHRA RA SCT070CB,M
EHBK,2022-06-19 08:25,62.60,46.40,55.37,360.00,6.00,0.00,29.85,M,6.21,M,NSC,M,M,M,M,M,M,M,M,M,M,M,M,M,M,62.60,EHBK 190825Z AUTO 36006KT 300V040 9999 NSC 17/08 Q1011 TEMPO 6000 SHRA RA SCT070CB,M
EHBK,2022-06-19 08:55,62.60,46.40,55.37,50.00,5.00,0.00,29.85,M,6.21,M,NSC,M,M,M,M,M,M,M,M,M,M,M,M,M,M,62.60,EHBK 190855Z AUTO 05005KT 350V080 9999 NSC 17/08 Q1011 TEMPO 6000 SHRA RA SCT070CB,M
EHBK,2022-06-19 09:25,60.80,50.00,67.54,M,8.00,0.00,29.85,M,6.21,M,FEW,FEW,M,M,2000.00,2600.00,M,M,-RA,M,M,M,M,M,M,60.80,EHBK 190925Z AUTO VRB08KT 9999 -RA FEW020 FEW026CB 16/10 Q1011 TEMPO 6000 SHRA RA,M
EHBK,2022-06-19 09:55,60.80,50.00,67.54,340.00,12.00,0.00,29.83,M,6.21,M,NSC,M,M,M,M,M,M,M,M,M,M,M,M,M,M,60.80,EHBK 190955Z AUTO 34012KT 290V010 9999 NSC 16/10 Q1010 TEMPO 6000 SHRA RA,M
EHBK,2022-06-19 10:25,62.60,50.00,63.38,350.00,9.00,0.00,29.85,M,6.21,M,NSC,M,M,M,M,M,M,M,M,M,M,M,M,M,M,62.60,EHBK 191025Z AUTO 35009KT 310V040 9999 NSC 17/10 Q1011 TEMPO 6000 SHRA RA,M
EHBK,2022-06-19 10:55,64.40,51.80,63.60,30.00,8.00,0.00,29.83,M,6.21,M,NSC,M,M,M,M,M,M,M,M,M,M,M,M,M,M,64.40,EHBK 191055Z AUTO 03008KT 350V090 9999 NSC 18/11 Q1010 NOSIG,M
EHBK,2022-06-19 11:25,64.40,51.80,63.60,340.00,10.00,0.00,29.85,M,6.21,M,NSC,M,M,M,M,M,M,M,M,M,M,M,M,M,M,64.40,EHBK 191125Z AUTO 34010KT 300V020 9999 NSC 18/11 Q1011 NOSIG,M
EHBK,2022-06-19 11:55,66.20,51.80,59.74,330.00,10.00,0.00,29.85,M,6.21,M,NSC,M,M,M,M,M,M,M,M,M,M,M,M,M,M,66.20,EHBK 191155Z AUTO 33010KT 280V020 9999 NSC 19/11 Q1011 NOSIG,M
EHBK,2022-06-19 12:25,64.40,51.80,63.60,350.00,9.00,0.00,29.88,M,6.21,M,NSC,M,M,M,M,M,M,M,M,M,M,M,M,M,M,64.40,EHBK 191225Z AUTO 35009KT 310V040 9999 NSC 18/11 Q1012 NOSIG,M
EHBK,2022-06-19 12:55,68.00,53.60,59.97,320.00,8.00,0.00,29.91,M,6.21,M,FEW,M,M,M,3100.00,M,M,M,M,M,M,M,M,M,M,68.00,EHBK 191255Z AUTO 32008KT 270V030 9999 FEW031 20/12 Q1013 NOSIG,M
EHBK,2022-06-19 13:25,66.20,51.80,59.74,330.00,7.00,0.00,29.91,M,6.21,M,NSC,M,M,M,M,M,M,M,M,M,M,M,M,M,M,66.20,EHBK 191325Z AUTO 33007KT 260V040 9999 NSC 19/11 Q1013 NOSIG,M
EHBK,2022-06-19 13:55,68.00,51.80,56.13,340.00,5.00,0.00,29.91,M,6.21,M,NSC,M,M,M,M,M,M,M,M,M,M,M,M,M,M,68.00,EHBK 191355Z AUTO 34005KT 270V070 9999 NSC 20/11 Q1013 NOSIG,M
EHBK,2022-06-19 14:25,69.80,55.40,60.21,330.00,8.00,0.00,29.91,M,6.21,M,FEW,M,M,M,3800.00,M,M,M,M,M,M,M,M,M,M,69.80,EHBK 191425Z AUTO 33008KT 290V040 9999 FEW038 21/13 Q1013 NOSIG,M
EHBK,2022-06-19 14:55,66.20,51.80,59.74,350.00,9.00,0.00,29.91,M,6.21,M,NSC,M,M,M,M,M,M,M,M,M,M,M,M,M,M,66.20,EHBK 191455Z AUTO 35009KT 290V040 9999 NSC 19/11 Q1013 NOSIG,M
EHBK,2022-06-19 15:25,68.00,53.60,59.97,360.00,11.00,0.00,29.91,M,6.21,M,NSC,M,M,M,M,M,M,M,M,M,M,M,M,M,M,68.00,EHBK 191525Z AUTO 36011KT 320V040 9999 NSC 20/12 Q1013 NOSIG,M
EHBK,2022-06-19 15:55,68.00,53.60,59.97,40.00,11.00,0.00,29.88,M,6.21,M,NSC,M,M,M,M,M,M,M,M,M,M,M,M,M,M,68.00,EHBK 191555Z AUTO 04011KT 350V080 9999 NSC 20/12 Q1012 NOSIG,M
EHBK,2022-06-19 16:25,68.00,53.60,59.97,50.00,9.00,0.00,29.85,M,6.21,M,NSC,M,M,M,M,M,M,M,M,M,M,M,M,M,M,68.00,EHBK 191625Z AUTO 05009KT 9999 NSC 20/12 Q1011 NOSIG,M
EHBK,2022-06-19 16:55,66.20,55.40,68.15,20.00,8.00,0.00,29.88,M,6.21,M,NSC,M,M,M,M,M,M,M,M,M,M,M,M,M,M,66.20,EHBK 191655Z AUTO 02008KT 320V060 9999 NSC 19/13 Q1012 NOSIG,M
EHBK,2022-06-19 17:25,64.40,55.40,72.56,340.00,12.00,0.00,29.91,M,6.21,M,BKN,BKN,M,M,2400.00,2800.00,M,M,M,M,M,M,M,M,M,64.40,EHBK 191725Z AUTO 34012KT 310V020 9999 BKN024 BKN028 18/13 Q1013 NOSIG,M
EHBK,2022-06-19 17:55,64.40,55.40,72.56,350.00,10.00,0.00,29.91,M,6.21,M,BKN,OVC,M,M,2200.00,2600.00,M,M,M,M,M,M,M,M,M,64.40,EHBK 191755Z AUTO 35010KT 320V040 9999 BKN022 OVC026 18/13 Q1013 NOSIG,M
EHBK,2022-06-19 18:25,62.60,53.60,72.38,40.00,13.00,0.00,29.85,M,6.21,M,NSC,M,M,M,M,M,M,M,M,M,M,M,M,M,M,62.60,EHBK 191825Z AUTO 04013KT 010V070 9999 NSC 17/12 Q1011 TEMPO 7000 -SHRA FEW110CB,M
EHBK,2022-06-19 18:55,62.60,55.40,77.29,20.00,12.00,0.00,29.88,M,6.21,M,FEW,M,M,M,2000.00,M,M,M,-RA,M,M,M,M,M,M,62.60,EHBK 191855Z AUTO 02012KT 340V050 9999 -RA FEW020 17/13 Q1012 TEMPO 7000 -SHRA FEW110CB,M
EHBK,2022-06-19 19:25,60.80,55.40,82.37,20.00,12.00,0.00,29.88,M,6.21,M,FEW,M,M,M,2500.00,M,M,M,M,M,M,M,M,M,M,60.80,COR EHBK 191925Z AUTO 02012KT 350V050 9999 FEW025/// 16/13 Q1012 TEMPO 8000 SHRA SCT100CB,M
EHBK,2022-06-19 19:55,60.80,53.60,77.14,20.00,13.00,0.00,29.88,M,6.21,M,FEW,FEW,M,M,1400.00,1500.00,M,M,M,M,M,M,M,M,M,60.80,EHBK 191955Z AUTO 02013KT 350V060 9999 FEW014 FEW015CB 16/12 Q1012 NOSIG,M
EHBK,2022-06-19 20:25,59.00,53.60,82.25,20.00,12.00,0.00,29.88,M,6.21,M,NSC,M,M,M,M,M,M,M,M,M,M,M,M,M,M,59.00,EHBK 192025Z AUTO 02012KT 350V050 9999 NSC 15/12 Q1012 NOSIG,M
EHBK,2022-06-19 20:55,59.00,53.60,82.25,20.00,11.00,0.00,29.91,M,6.21,M,FEW,M,M,M,1500.00,M,M,M,M,M,M,M,M,M,M,59.00,COR EHBK 192055Z AUTO 02011KT 350V050 9999 FEW015 15/12 Q1013,M
EHBK,2022-06-19 21:25,59.00,51.80,76.98,30.00,13.00,0.00,29.91,M,6.21,M,NSC,M,M,M,M,M,M,M,M,M,M,M,M,M,M,59.00,EHBK 192125Z AUTO 03013KT 9999 NSC 15/11 Q1013,M
EHBK,2022-06-19 21:55,59.00,51.80,76.98,20.00,10.00,0.00,29.91,M,6.21,M,FEW,M,M,M,1600.00,M,M,M,M,M,M,M,M,M,M,59.00,EHBK 192155Z AUTO 02010KT 350V060 9999 FEW016 15/11 Q1013,M
EHBK,2022-06-19 22:25,57.20,51.80,82.12,30.00,14.00,0.00,29.91,M,6.21,M,FEW,M,M,M,1500.00,M,M,M,M,M,M,M,M,M,M,57.20,EHBK 192225Z AUTO 03014KT 360V060 9999 FEW015 14/11 Q1013,M
EHBK,2022-06-19 22:55,59.00,51.80,76.98,30.00,13.00,0.00,29.91,M,6.21,M,NSC,M,M,M,M,M,M,M,M,M,M,M,M,M,M,59.00,EHBK 192255Z AUTO 03013KT 9999 NSC 15/11 Q1013,M
EHBK,2022-06-19 23:25,57.20,51.80,82.12,30.00,10.00,0.00,29.91,M,6.21,M,FEW,BKN,M,M,1600.00,3700.00,M,M,M,M,M,M,M,M,M,57.20,EHBK 192325Z AUTO 03010KT 360V070 9999 FEW016 BKN037 14/11 Q1013,M
EHBK,2022-06-19 23:55,57.20,51.80,82.12,40.00,9.00,0.00,29.94,M,6.21,M,OVC,M,M,M,3800.00,M,M,M,M,M,M,M,M,M,M,57.20,EHBK 192355Z AUTO 04009KT 360V080 9999 OVC038 14/11 Q1014,M
EHBK,2022-06-20 00:25,57.20,51.80,82.12,70.00,8.00,0.00,29.91,M,6.21,M,OVC,M,M,M,3600.00,M,M,M,M,M,M,M,M,M,M,57.20,EHBK 200025Z AUTO 07008KT 040V120 9999 OVC036/// 14/11 Q1013,M
EHBK,2022-06-20 00:55,57.20,53.60,87.74,M,2.00,0.00,29.97,M,3.11,M,BKN,M,M,M,1500.00,M,M,M,+RA,M,M,M,M,M,M,57.20,EHBK 200055Z AUTO VRB02KT 5000 +RA BKN015CB 14/12 Q1015,M
EHBK,2022-06-20 01:25,55.40,53.60,93.65,80.00,7.00,0.00,29.94,M,6.21,M,BKN,M,M,M,1500.00,M,M,M,SHRA,M,M,M,M,M,M,55.40,EHBK 200125Z AUTO 08007KT 9999 SHRA BKN015CB 13/12 Q1014,M
EHBK,2022-06-20 01:55,55.40,53.60,93.65,40.00,13.00,0.00,29.88,M,6.21,M,FEW,M,M,M,1400.00,M,M,M,-RA,M,M,M,M,M,M,55.40,EHBK 200155Z AUTO 04013KT 9999 -RA FEW014 13/12 Q1012,M
EHBK,2022-06-20 02:25,55.40,51.80,87.65,10.00,12.00,0.00,29.88,M,6.21,M,FEW,M,M,M,1600.00,M,M,M,M,M,M,M,M,M,M,55.40,EHBK 200225Z AUTO 01012KT 340V040 9999 FEW016 13/11 Q1012,M
EHBK,2022-06-20 02:55,55.40,51.80,87.65,10.00,9.00,0.00,29.88,M,6.21,M,NSC,M,M,M,M,M,M,M,M,M,M,M,M,M,M,55.40,EHBK 200255Z AUTO 01009KT 9999 NSC 13/11 Q1012,M
EHBK,2022-06-20 03:25,53.60,51.80,93.60,360.00,10.00,0.00,29.88,M,6.21,M,FEW,M,M,M,800.00,M,M,M,M,M,M,M,M,M,M,53.60,EHBK 200325Z AUTO 36010KT 320V040 9999 FEW008 12/11 Q1012,M
EHBK,2022-06-20 03:55,55.40,51.80,87.65,360.00,3.00,0.00,29.94,M,6.21,M,FEW,BKN,BKN,M,800.00,1600.00,2000.00,M,-RA,M,M,M,M,M,M,55.40,COR EHBK 200355Z AUTO 36003KT 280V050 9999 -RA FEW008 BKN016 BKN020 13/11 Q1014 NOSIG,M
EHBK,2022-06-20 04:25,55.40,53.60,93.65,M,2.00,0.00,29.94,M,6.21,M,OVC,M,M,M,4100.00,M,M,M,-RA,M,M,M,M,M,M,55.40,EHBK 200425Z AUTO VRB02KT 9999 -RA OVC041 13/12 Q1014 NOSIG,M
EHBK,2022-06-20 04:55,55.40,51.80,87.65,30.00,6.00,0.00,29.94,M,6.21,M,OVC,M,M,M,3900.00,M,M,M,M,M,M,M,M,M,M,55.40,EHBK 200455Z AUTO 03006KT 350V050 9999 OVC039 13/11 Q1014 NOSIG,M
EHBK,2022-06-20 05:25,55.40,51.80,87.65,10.00,8.00,0.00,29.94,M,6.21,M,FEW,OVC,M,M,3800.00,4200.00,M,M,M,M,M,M,M,M,M,55.40,EHBK 200525Z AUTO 01008KT 340V040 9999 FEW038 OVC042 13/11 Q1014 NOSIG,M
EHBK,2022-06-20 05:55,55.40,51.80,87.65,360.00,6.00,0.00,29.94,M,6.21,M,FEW,OVC,M,M,3200.00,4800.00,M,M,M,M,M,M,M,M,M,55.40,EHBK 200555Z AUTO 36006KT 320V050 9999 FEW032 OVC048 13/11 Q1014 NOSIG,M
EHBK,2022-06-20 06:25,55.40,51.80,87.65,360.00,6.00,0.00,29.94,M,6.21,M,FEW,M,M,M,1400.00,M,M,M,M,M,M,M,M,M,M,55.40,EHBK 200625Z AUTO 36006KT 320V040 9999 FEW014 13/11 Q1014 NOSIG,M
EHBK,2022-06-20 06:55,55.40,51.80,87.65,360.00,5.00,0.00,29.97,M,6.21,M,FEW,M,M,M,1500.00,M,M,M,M,M,M,M,M,M,M,55.40,EHBK 200655Z AUTO 36005KT 320V040 9999 FEW015CB 13/11 Q1015 NOSIG,M
EHBK,2022-06-20 07:25,55.40,50.00,81.99,10.00,6.00,0.00,29.97,M,6.21,M,NSC,M,M,M,M,M,M,M,M,M,M,M,M,M,M,55.40,EHBK 200725Z AUTO 01006KT 340V040 9999 NSC 13/10 Q1015 NOSIG,M
EHBK,2022-06-20 07:55,57.20,51.80,82.12,10.00,5.00,0.00,30.00,M,6.21,M,NSC,M,M,M,M,M,M,M,M,M,M,M,M,M,M,57.20,EHBK 200755Z AUTO 01005KT 310V080 9999 NSC 14/11 Q1016 NOSIG,M
EHBK,2022-06-20 08:25,59.00,51.80,76.98,350.00,5.00,0.00,30.00,M,6.21,M,FEW,SCT,M,M,1400.00,2400.00,M,M,M,M,M,M,M,M,M,59.00,EHBK 200825Z AUTO 35005KT 310V040 9999 FEW014 SCT024 15/11 Q1016 NOSIG,M
EHBK,2022-06-20 08:55,57.20,51.80,82.12,320.00,4.00,0.00,30.00,M,6.21,M,FEW,SCT,OVC,M,1500.00,1900.00,2500.00,M,M,M,M,M,M,M,M,57.20,EHBK 200855Z AUTO 32004KT 270V010 9999 FEW015 SCT019 OVC025 14/11 Q1016 REDZ NOSIG,M
EHBK,2022-06-20 09:25,59.00,51.80,76.98,M,2.00,0.00,30.00,M,6.21,M,BKN,OVC,M,M,3100.00,3600.00,M,M,M,M,M,M,M,M,M,59.00,EHBK 200925Z AUTO VRB02KT 9999 BKN031 OVC036 15/11 Q1016 NOSIG,M
EHBK,2022-06-20 09:55,62.60,53.60,72.38,110.00,4.00,0.00,30.00,M,6.21,M,FEW,SCT,BKN,M,2400.00,2800.00,3500.00,M,M,M,M,M,M,M,M,62.60,EHBK 200955Z AUTO 11004KT 070V200 9999 FEW024 SCT028 BKN035 17/12 Q1016 NOSIG,M
EHBK,2022-06-20 10:25,60.80,50.00,67.54,360.00,4.00,0.00,30.03,M,6.21,M,FEW,OVC,M,M,2600.00,4000.00,M,M,M,M,M,M,M,M,M,60.80,EHBK 201025Z AUTO 36004KT 260V050 9999 FEW026 OVC040 16/10 Q1017 NOSIG,M
EHBK,2022-06-20 10:55,64.40,50.00,59.50,M,4.00,0.00,30.03,M,6.21,M,M,M,M,M,M,M,M,M,M,M,M,M,M,M,M,64.40,EHBK 201055Z AUTO VRB04KT CAVOK 18/10 Q1017 NOSIG,M
EHBK,2022-06-20 11:25,64.40,50.00,59.50,340.00,6.00,0.00,30.03,M,6.21,M,FEW,M,M,M,4300.00,M,M,M,M,M,M,M,M,M,M,64.40,EHBK 201125Z AUTO 34006KT 270V030 9999 FEW043 18/10 Q1017 NOSIG,M
EHBK,2022-06-20 11:55,66.20,50.00,55.88,350.00,6.00,0.00,30.03,M,6.21,M,SCT,BKN,M,M,3800.00,4300.00,M,M,M,M,M,M,M,M,M,66.20,EHBK 201155Z AUTO 35006KT 250V060 9999 SCT038 BKN043 19/10 Q1017 NOSIG,M
EHBK,2022-06-20 12:25,64.40,48.20,55.63,280.00,6.00,0.00,30.03,M,6.21,M,BKN,BKN,M,M,3700.00,4200.00,M,M,M,M,M,M,M,M,M,64.40,EHBK 201225Z AUTO 28006KT 9999 BKN037 BKN042 18/09 Q1017 NOSIG,M
EHBK,2022-06-20 12:55,68.00,48.20,49.10,360.00,6.00,0.00,30.03,M,6.21,M,FEW,M,M,M,4400.00,M,M,M,M,M,M,M,M,M,M,68.00,EHBK 201255Z AUTO 36006KT 320V080 9999 FEW044 20/09 Q1017 NOSIG,M
EHBK,2022-06-20 13:25,68.00,48.20,49.10,350.00,7.00,0.00,30.03,M,6.21,M,FEW,M,M,M,4600.00,M,M,M,M,M,M,M,M,M,M,68.00,EHBK 201325Z AUTO 35007KT 230V040 9999 FEW046 20/09 Q1017 NOSIG,M
EHBK,2022-06-20 13:55,68.00,46.40,45.88,290.00,5.00,0.00,30.00,M,6.21,M,FEW,M,M,M,4700.00,M,M,M,M,M,M,M,M,M,M,68.00,EHBK 201355Z AUTO 29005KT 230V010 9999 FEW047 20/08 Q1016 NOSIG,M
EHBK,2022-06-20 14:25,69.80,50.00,49.37,M,5.00,0.00,30.00,M,6.21,M,M,M,M,M,M,M,M,M,M,M,M,M,M,M,M,69.80,EHBK 201425Z AUTO VRB05KT CAVOK 21/10 Q1016 NOSIG,M
EHBK,2022-06-20 14:55,69.80,46.40,43.13,330.00,7.00,0.00,30.00,M,6.21,M,M,M,M,M,M,M,M,M,M,M,M,M,M,M,M,69.80,EHBK 201455Z AUTO 33007KT 280V070 CAVOK 21/08 Q1016 NOSIG,M
EHBK,2022-06-20 15:25,69.80,48.20,46.16,350.00,7.00,0.00,30.03,M,6.21,M,M,M,M,M,M,M,M,M,M,M,M,M,M,M,M,69.80,EHBK 201525Z AUTO 35007KT 320V040 CAVOK 21/09 Q1017 NOSIG,M
EHBK,2022-06-20 15:55,69.80,46.40,43.13,320.00,7.00,0.00,30.00,M,6.21,M,M,M,M,M,M,M,M,M,M,M,M,M,M,M,M,69.80,EHBK 201555Z AUTO 32007KT 230V010 CAVOK 21/08 Q1016 NOSIG,M
EHBK,2022-06-20 16:25,68.00,46.40,45.88,340.00,6.00,0.00,30.00,M,6.21,M,M,M,M,M,M,M,M,M,M,M,M,M,M,M,M,68.00,EHBK 201625Z AUTO 34006KT 290V040 CAVOK 20/08 Q1016 NOSIG,M
EHBK,2022-06-20 16:55,68.00,46.40,45.88,350.00,8.00,0.00,30.00,M,6.21,M,M,M,M,M,M,M,M,M,M,M,M,M,M,M,M,68.00,EHBK 201655Z AUTO 35008KT 310V020 CAVOK 20/08 Q1016 NOSIG,M
EHBK,2022-06-20 17:25,68.00,46.40,45.88,340.00,7.00,0.00,30.00,M,6.21,M,M,M,M,M,M,M,M,M,M,M,M,M,M,M,M,68.00,EHBK 201725Z AUTO 34007KT 300V020 CAVOK 20/08 Q1016 NOSIG,M
EHBK,2022-06-20 17:55,68.00,46.40,45.88,10.00,8.00,0.00,30.00,M,6.21,M,M,M,M,M,M,M,M,M,M,M,M,M,M,M,M,68.00,EHBK 201755Z AUTO 01008KT 290V060 CAVOK 20/08 Q1016 NOSIG,M
EHBK,2022-06-20 18:25,66.20,46.40,48.83,340.00,8.00,0.00,30.00,M,6.21,M,M,M,M,M,M,M,M,M,M,M,M,M,M,M,M,66.20,EHBK 201825Z AUTO 34008KT 310V020 CAVOK 19/08 Q1016 NOSIG,M
EHBK,2022-06-20 18:55,64.40,48.20,55.63,10.00,7.00,0.00,30.03,M,6.21,M,FEW,M,M,M,4400.00,M,M,M,M,M,M,M,M,M,M,64.40,EHBK 201855Z AUTO 01007KT 340V040 9999 FEW044 18/09 Q1017 NOSIG,M
EHBK,2022-06-20 19:25,62.60,48.20,59.26,360.00,6.00,0.00,30.03,M,6.21,M,M,M,M,M,M,M,M,M,M,M,M,M,M,M,M,62.60,EHBK 201925Z AUTO 36006KT 330V040 CAVOK 17/09 Q1017 NOSIG,M
EHBK,2022-06-20 19:55,60.80,48.20,63.15,360.00,4.00,0.00,30.03,M,6.21,M,M,M,M,M,M,M,M,M,M,M,M,M,M,M,M,60.80,EHBK 201955Z AUTO 36004KT 320V030 CAVOK 16/09 Q1017 NOSIG,M
EHBK,2022-06-20 20:25,59.00,48.20,67.33,10.00,3.00,0.00,30.03,M,6.21,M,M,M,M,M,M,M,M,M,M,M,M,M,M,M,M,59.00,EHBK 202025Z AUTO 01003KT 340V050 CAVOK 15/09 Q1017 NOSIG,M
EHBK,2022-06-20 20:55,57.20,48.20,71.83,10.00,4.00,0.00,30.03,M,6.21,M,M,M,M,M,M,M,M,M,M,M,M,M,M,M,M,57.20,COR EHBK 202055Z 01004KT 330V030 CAVOK 14/09 Q1017,M
EHBK,2022-06-20 21:25,57.20,48.20,71.83,20.00,4.00,0.00,30.03,M,6.21,M,FEW,M,M,M,4200.00,M,M,M,M,M,M,M,M,M,M,57.20,EHBK 202125Z AUTO 02004KT 340V040 9999 FEW042 14/09 Q1017,M
EHBK,2022-06-20 21:55,57.20,48.20,71.83,10.00,6.00,0.00,30.03,M,6.21,M,M,M,M,M,M,M,M,M,M,M,M,M,M,M,M,57.20,EHBK 202155Z AUTO 01006KT 330V050 CAVOK 14/09 Q1017,M
EHBK,2022-06-20 22:25,55.40,48.20,76.66,40.00,7.00,0.00,30.03,M,6.21,M,FEW,M,M,M,4000.00,M,M,M,M,M,M,M,M,M,M,55.40,EHBK 202225Z AUTO 04007KT 9999 FEW040 13/09 Q1017,M
EHBK,2022-06-20 22:55,55.40,48.20,76.66,40.00,8.00,0.00,30.03,M,6.21,M,FEW,M,M,M,3700.00,M,M,M,M,M,M,M,M,M,M,55.40,EHBK 202255Z AUTO 04008KT 9999 FEW037 13/09 Q1017,M
EHBK,2022-06-20 23:25,55.40,48.20,76.66,50.00,6.00,0.00,30.03,M,6.21,M,M,M,M,M,M,M,M,M,M,M,M,M,M,M,M,55.40,EHBK 202325Z AUTO 05006KT CAVOK 13/09 Q1017,M
EHBK,2022-06-20 23:55,53.60,48.20,81.87,100.00,3.00,0.00,30.03,M,6.21,M,M,M,M,M,M,M,M,M,M,M,M,M,M,M,M,53.60,EHBK 202355Z AUTO 10003KT 060V140 CAVOK 12/09 Q1017,M
EHBK,2022-06-21 00:25,53.60,46.40,76.50,100.00,4.00,0.00,30.03,M,6.21,M,M,M,M,M,M,M,M,M,M,M,M,M,M,M,M,53.60,EHBK 210025Z AUTO 10004KT CAVOK 12/08 Q1017,M
EHBK,2022-06-21 00:55,53.60,46.40,76.50,60.00,5.00,0.00,30.03,M,6.21,M,FEW,M,M,M,3400.00,M,M,M,M,M,M,M,M,M,M,53.60,EHBK 210055Z AUTO 06005KT 040V100 9999 FEW034 12/08 Q1017,M
EHBK,2022-06-21 01:25,51.80,46.40,81.74,60.00,4.00,0.00,30.03,M,6.21,M,FEW,M,M,M,3300.00,M,M,M,M,M,M,M,M,M,M,51.80,EHBK 210125Z AUTO 06004KT 9999 FEW033 11/08 Q1017,M
EHBK,2022-06-21 01:55,51.80,46.40,81.74,50.00,7.00,0.00,30.00,M,6.21,M,M,M,M,M,M,M,M,M,M,M,M,M,M,M,M,51.80,EHBK 210155Z AUTO 05007KT CAVOK 11/08 Q1016,M
EHBK,2022-06-21 02:25,51.80,46.40,81.74,50.00,5.00,0.00,30.00,M,6.21,M,FEW,M,M,M,3000.00,M,M,M,M,M,M,M,M,M,M,51.80,EHBK 210225Z AUTO 05005KT 9999 FEW030 11/08 Q1016,M
EHBK,2022-06-21 02:55,50.00,46.40,87.37,100.00,3.00,0.00,30.00,M,6.21,M,M,M,M,M,M,M,M,M,M,M,M,M,M,M,M,50.00,EHBK 210255Z AUTO 10003KT 060V140 CAVOK 10/08 Q1016,M
EHBK,2022-06-21 03:25,48.20,46.40,93.45,60.00,3.00,0.00,30.00,M,6.21,M,FEW,M,M,M,3200.00,M,M,M,M,M,M,M,M,M,M,47.21,EHBK 210325Z AUTO 06003KT 9999 FEW032 09/08 Q1016,M
EHBK,2022-06-21 03:55,50.00,46.40,87.37,60.00,4.00,0.00,30.00,M,6.21,M,M,M,M,M,M,M,M,M,M,M,M,M,M,M,M,50.00,EHBK 210355Z 06004KT CAVOK 10/08 Q1016 NOSIG,M
EHBK,2022-06-21 04:25,51.80,46.40,81.74,60.00,5.00,0.00,29.97,M,6.21,M,M,M,M,M,M,M,M,M,M,M,M,M,M,M,M,51.80,EHBK 210425Z 06005KT 020V080 CAVOK 11/08 Q1015 NOSIG,M
EHBK,2022-06-21 04:55,53.60,48.20,81.87,70.00,5.00,0.00,29.97,M,6.21,M,M,M,M,M,M,M,M,M,M,M,M,M,M,M,M,53.60,EHBK 210455Z AUTO 07005KT 040V110 CAVOK 12/09 Q1015 NOSIG,M
EHBK,2022-06-21 05:25,55.40,48.20,76.66,80.00,5.00,0.00,30.00,M,6.21,M,M,M,M,M,M,M,M,M,M,M,M,M,M,M,M,55.40,EHBK 210525Z AUTO 08005KT 050V110 CAVOK 13/09 Q1016 NOSIG,M
EHBK,2022-06-21 05:55,57.20,48.20,71.83,90.00,5.00,0.00,30.00,M,6.21,M,M,M,M,M,M,M,M,M,M,M,M,M,M,M,M,57.20,EHBK 210555Z AUTO 09005KT 050V110 CAVOK 14/09 Q1016 NOSIG,M
EHBK,2022-06-21 06:25,59.00,50.00,72.01,90.00,5.00,0.00,30.00,M,6.21,M,M,M,M,M,M,M,M,M,M,M,M,M,M,M,M,59.00,EHBK 210625Z AUTO 09005KT 030V130 CAVOK 15/10 Q1016 NOSIG,M
EHBK,2022-06-21 06:55,60.80,50.00,67.54,80.00,5.00,0.00,30.00,M,6.21,M,M,M,M,M,M,M,M,M,M,M,M,M,M,M,M,60.80,EHBK 210655Z AUTO 08005KT 050V120 CAVOK 16/10 Q1016 NOSIG,M
EHBK,2022-06-21 07:25,60.80,48.20,63.15,70.00,5.00,0.00,30.00,M,6.21,M,M,M,M,M,M,M,M,M,M,M,M,M,M,M,M,60.80,EHBK 210725Z AUTO 07005KT 010V120 CAVOK 16/09 Q1016 NOSIG,M
EHBK,2022-06-21 07:55,60.80,48.20,63.15,60.00,4.00,0.00,30.00,M,6.21,M,M,M,M,M,M,M,M,M,M,M,M,M,M,M,M,60.80,EHBK 210755Z AUTO 06004KT 010V120 CAVOK 16/09 Q1016 NOSIG,M
EHBK,2022-06-21 08:25,62.60,50.00,63.38,40.00,7.00,0.00,29.97,M,6.21,M,M,M,M,M,M,M,M,M,M,M,M,M,M,M,M,62.60,EHBK 210825Z AUTO 04007KT 360V080 CAVOK 17/10 Q1015 NOSIG,M
EHBK,2022-06-21 08:55,64.40,50.00,59.50,40.00,9.00,0.00,29.97,M,6.21,M,M,M,M,M,M,M,M,M,M,M,M,M,M,M,M,64.40,EHBK 210855Z AUTO 04009KT 360V070 CAVOK 18/10 Q1015 NOSIG,M
EHBK,2022-06-21 09:25,64.40,50.00,59.50,60.00,10.00,0.00,29.94,M,6.21,M,M,M,M,M,M,M,M,M,M,M,M,M,M,M,M,64.40,EHBK 210925Z AUTO 06010KT 020V110 CAVOK 18/10 Q1014 NOSIG,M
EHBK,2022-06-21 09:55,64.40,48.20,55.63,50.00,9.00,0.00,29.94,M,6.21,M,M,M,M,M,M,M,M,M,M,M,M,M,M,M,M,64.40,EHBK 210955Z AUTO 05009KT 010V100 CAVOK 18/09 Q1014 NOSIG,M
EHBK,2022-06-21 10:25,66.20,48.20,52.25,50.00,8.00,0.00,29.94,M,6.21,M,M,M,M,M,M,M,M,M,M,M,M,M,M,M,M,66.20,EHBK 211025Z AUTO 05008KT CAVOK 19/09 Q1014 NOSIG,M
EHBK,2022-06-21 10:55,68.00,50.00,52.51,70.00,7.00,0.00,29.94,M,6.21,M,M,M,M,M,M,M,M,M,M,M,M,M,M,M,M,68.00,EHBK 211055Z AUTO 07007KT 040V110 CAVOK 20/10 Q1014 NOSIG,M
EHBK,2022-06-21 11:25,68.00,48.20,49.10,80.00,7.00,0.00,29.94,M,6.21,M,M,M,M,M,M,M,M,M,M,M,M,M,M,M,M,68.00,EHBK 211125Z AUTO 08007KT 030V130 CAVOK 20/09 Q1014 NOSIG,M
EHBK,2022-06-21 11:55,69.80,48.20,46.16,50.00,6.00,0.00,29.94,M,6.21,M,M,M,M,M,M,M,M,M,M,M,M,M,M,M,M,69.80,EHBK 211155Z AUTO 05006KT 320V120 CAVOK 21/09 Q1014 NOSIG,M
EHBK,2022-06-21 12:25,68.00,50.00,52.51,50.00,8.00,0.00,29.94,M,6.21,M,M,M,M,M,M,M,M,M,M,M,M,M,M,M,M,68.00,EHBK 211225Z AUTO 05008KT 360V100 CAVOK 20/10 Q1014 NOSIG,M
EHBK,2022-06-21 12:55,69.80,50.00,49.37,40.00,6.00,0.00,29.94,M,6.21,M,M,M,M,M,M,M,M,M,M,M,M,M,M,M,M,69.80,EHBK 211255Z AUTO 04006KT 350V080 CAVOK 21/10 Q1014 NOSIG,M
EHBK,2022-06-21 13:25,69.80,48.20,46.16,40.00,7.00,0.00,29.94,M,6.21,M,M,M,M,M,M,M,M,M,M,M,M,M,M,M,M,69.80,EHBK 211325Z AUTO 04007KT 360V080 CAVOK 21/09 Q1014 NOSIG,M
EHBK,2022-06-21 13:55,68.00,46.40,45.88,40.00,6.00,0.00,29.94,M,6.21,M,M,M,M,M,M,M,M,M,M,M,M,M,M,M,M,68.00,EHBK 211355Z AUTO 04006KT 350V080 CAVOK 20/08 Q1014 NOSIG,M
EHBK,2022-06-21 14:25,69.80,48.20,46.16,50.00,8.00,0.00,29.91,M,6.21,M,M,M,M,M,M,M,M,M,M,M,M,M,M,M,M,69.80,EHBK 211425Z AUTO 05008KT 010V070 CAVOK 21/09 Q1013 NOSIG,M
EHBK,2022-06-21 14:55,69.80,46.40,43.13,30.00,8.00,0.00,29.91,M,6.21,M,M,M,M,M,M,M,M,M,M,M,M,M,M,M,M,69.80,EHBK 211455Z AUTO 03008KT 360V070 CAVOK 21/08 Q1013 NOSIG,M
EHBK,2022-06-21 15:25,69.80,48.20,46.16,40.00,7.00,0.00,29.91,M,6.21,M,M,M,M,M,M,M,M,M,M,M,M,M,M,M,M,69.80,EHBK 211525Z AUTO 04007KT 350V070 CAVOK 21/09 Q1013 NOSIG,M
EHBK,2022-06-21 15:55,68.00,46.40,45.88,50.00,8.00,0.00,29.91,M,6.21,M,M,M,M,M,M,M,M,M,M,M,M,M,M,M,M,68.00,EHBK 211555Z AUTO 05008KT 020V080 CAVOK 20/08 Q1013 NOSIG,M
EHBK,2022-06-21 16:25,68.00,48.20,49.10,50.00,8.00,0.00,29.88,M,6.21,M,M,M,M,M,M,M,M,M,M,M,M,M,M,M,M,68.00,EHBK 211625Z AUTO 05008KT 010V070 CAVOK 20/09 Q1012 NOSIG,M
EHBK,2022-06-21 16:55,68.00,48.20,49.10,30.00,7.00,0.00,29.88,M,6.21,M,M,M,M,M,M,M,M,M,M,M,M,M,M,M,M,68.00,EHBK 211655Z AUTO 03007KT 360V070 CAVOK 20/09 Q1012 NOSIG,M
EHBK,2022-06-21 17:25,69.80,48.20,46.16,40.00,9.00,0.00,29.88,M,6.21,M,M,M,M,M,M,M,M,M,M,M,M,M,M,M,M,69.80,EHBK 211725Z AUTO 04009KT 010V080 CAVOK 21/09 Q1012 NOSIG,M
EHBK,2022-06-21 17:55,68.00,48.20,49.10,40.00,7.00,0.00,29.91,M,6.21,M,M,M,M,M,M,M,M,M,M,M,M,M,M,M,M,68.00,EHBK 211755Z AUTO 04007KT CAVOK 20/09 Q1013 NOSIG,M
EHBK,2022-06-21 18:25,68.00,46.40,45.88,20.00,8.00,0.00,29.91,M,6.21,M,M,M,M,M,M,M,M,M,M,M,M,M,M,M,M,68.00,EHBK 211825Z AUTO 02008KT 350V050 CAVOK 20/08 Q1013 NOSIG,M
EHBK,2022-06-21 18:55,66.20,48.20,52.25,20.00,7.00,0.00,29.91,M,6.21,M,M,M,M,M,M,M,M,M,M,M,M,M,M,M,M,66.20,EHBK 211855Z AUTO 02007KT 340V050 CAVOK 19/09 Q1013 NOSIG,M
EHBK,2022-06-21 19:25,64.40,50.00,59.50,10.00,7.00,0.00,29.91,M,6.21,M,M,M,M,M,M,M,M,M,M,M,M,M,M,M,M,64.40,EHBK 211925Z AUTO 01007KT 330V030 CAVOK 18/10 Q1013 NOSIG,M
EHBK,2022-06-21 19:55,62.60,50.00,63.38,10.00,7.00,0.00,29.91,M,6.21,M,FEW,M,M,M,4000.00,M,M,M,M,M,M,M,M,M,M,62.60,EHBK 211955Z AUTO 01007KT 330V050 9999 FEW040 17/10 Q1013 NOSIG,M
EHBK,2022-06-21 20:25,62.60,50.00,63.38,10.00,6.00,0.00,29.91,M,6.21,M,M,M,M,M,M,M,M,M,M,M,M,M,M,M,M,62.60,EHBK 212025Z AUTO 01006KT CAVOK 17/10 Q1013 NOSIG,M
EHBK,2022-06-21 20:55,60.80,50.00,67.54,20.00,8.00,0.00,29.91,M,6.21,M,M,M,M,M,M,M,M,M,M,M,M,M,M,M,M,60.80,EHBK 212055Z AUTO 02008KT CAVOK 16/10 Q1013 NOSIG,M
EHBK,2022-06-21 21:25,60.80,48.20,63.15,30.00,10.00,0.00,29.91,M,6.21,M,M,M,M,M,M,M,M,M,M,M,M,M,M,M,M,60.80,EHBK 212125Z AUTO 03010KT CAVOK 16/09 Q1013,M
EHBK,2022-06-21 21:55,59.00,48.20,67.33,30.00,8.00,0.00,29.91,M,6.21,M,M,M,M,M,M,M,M,M,M,M,M,M,M,M,M,59.00,EHBK 212155Z AUTO 03008KT CAVOK 15/09 Q1013,M
EHBK,2022-06-21 22:25,59.00,48.20,67.33,40.00,5.00,0.00,29.91,M,6.21,M,M,M,M,M,M,M,M,M,M,M,M,M,M,M,M,59.00,EHBK 212225Z AUTO 04005KT CAVOK 15/09 Q1013,M
EHBK,2022-06-21 22:55,57.20,48.20,71.83,70.00,3.00,0.00,29.91,M,6.21,M,M,M,M,M,M,M,M,M,M,M,M,M,M,M,M,57.20,EHBK 212255Z AUTO 07003KT CAVOK 14/09 Q1013,M
EHBK,2022-06-21 23:25,55.40,48.20,76.66,40.00,2.00,0.00,29.91,M,6.21,M,M,M,M,M,M,M,M,M,M,M,M,M,M,M,M,55.40,EHBK 212325Z AUTO 04002KT CAVOK 13/09 Q1013,M
EHBK,2022-06-21 23:55,55.40,48.20,76.66,70.00,4.00,0.00,29.91,M,6.21,M,M,M,M,M,M,M,M,M,M,M,M,M,M,M,M,55.40,EHBK 212355Z AUTO 07004KT CAVOK 13/09 Q1013,M
EHBK,2022-06-22 00:25,55.40,48.20,76.66,40.00,5.00,0.00,29.91,M,6.21,M,SCT,M,M,M,3300.00,M,M,M,M,M,M,M,M,M,M,55.40,EHBK 220025Z AUTO 04005KT 9999 SCT033 13/09 Q1013,M
EHBK,2022-06-22 00:55,55.40,48.20,76.66,50.00,4.00,0.00,29.91,M,6.21,M,FEW,M,M,M,3200.00,M,M,M,M,M,M,M,M,M,M,55.40,EHBK 220055Z AUTO 05004KT 030V090 9999 FEW032 13/09 Q1013,M
EHBK,2022-06-22 01:25,51.80,46.40,81.74,50.00,4.00,0.00,29.88,M,6.21,M,FEW,M,M,M,3000.00,M,M,M,M,M,M,M,M,M,M,51.80,EHBK 220125Z AUTO 05004KT 9999 FEW030 11/08 Q1012,M
EHBK,2022-06-22 01:55,51.80,48.20,87.47,30.00,4.00,0.00,29.88,M,6.21,M,M,M,M,M,M,M,M,M,M,M,M,M,M,M,M,51.80,EHBK 220155Z AUTO 03004KT CAVOK 11/09 Q1012,M
EHBK,2022-06-22 02:25,53.60,48.20,81.87,0.00,0.00,0.00,29.91,M,6.21,M,M,M,M,M,M,M,M,M,M,M,M,M,M,M,M,53.60,EHBK 220225Z AUTO 00000KT CAVOK 12/09 Q1013,M
EHBK,2022-06-22 02:55,53.60,48.20,81.87,10.00,5.00,0.00,29.88,M,6.21,M,M,M,M,M,M,M,M,M,M,M,M,M,M,M,M,53.60,EHBK 220255Z AUTO 01005KT 340V040 CAVOK 12/09 Q1012,M
EHBK,2022-06-22 03:25,51.80,48.20,87.47,40.00,6.00,0.00,29.88,M,6.21,M,M,M,M,M,M,M,M,M,M,M,M,M,M,M,M,51.80,EHBK 220325Z AUTO 04006KT CAVOK 11/09 Q1012,M
EHBK,2022-06-22 03:55,51.80,48.20,87.47,50.00,3.00,0.00,29.88,M,6.21,M,M,M,M,M,M,M,M,M,M,M,M,M,M,M,M,51.80,EHBK 220355Z AUTO 05003KT 020V170 CAVOK 11/09 Q1012,M
EHBK,2022-06-22 04:25,53.60,50.00,87.56,30.00,6.00,0.00,29.88,M,6.21,M,M,M,M,M,M,M,M,M,M,M,M,M,M,M,M,53.60,EHBK 220425Z AUTO 03006KT CAVOK 12/10 Q1012 NOSIG,M
EHBK,2022-06-22 04:55,55.40,50.00,81.99,30.00,7.00,0.00,29.88,M,6.21,M,M,M,M,M,M,M,M,M,M,M,M,M,M,M,M,55.40,EHBK 220455Z 03007KT CAVOK 13/10 Q1012 NOSIG,M
EHBK,2022-06-22 05:25,57.20,51.80,82.12,50.00,5.00,0.00,29.88,M,6.21,M,NSC,M,M,M,M,M,M,M,M,M,M,M,M,M,M,57.20,EHBK 220525Z AUTO 05005KT 9999 NSC 14/11 Q1012 NOSIG,M
EHBK,2022-06-22 05:55,59.00,51.80,76.98,40.00,6.00,0.00,29.88,M,6.21,M,NSC,M,M,M,M,M,M,M,M,M,M,M,M,M,M,59.00,EHBK 220555Z AUTO 04006KT 9999 NSC 15/11 Q1012 NOSIG,M
EHBK,2022-06-22 06:25,60.80,51.80,72.20,50.00,5.00,0.00,29.91,M,6.21,M,NSC,M,M,M,M,M,M,M,M,M,M,M,M,M,M,60.80,EHBK 220625Z AUTO 05005KT 010V090 9999 NSC 16/11 Q1013 NOSIG,M
EHBK,2022-06-22 06:55,64.40,51.80,63.60,40.00,7.00,0.00,29.91,M,6.21,M,NSC,M,M,M,M,M,M,M,M,M,M,M,M,M,M,64.40,EHBK 220655Z AUTO 04007KT 9999 NSC 18/11 Q1013 NOSIG,M
EHBK,2022-06-22 07:25,66.20,51.80,59.74,30.00,7.00,0.00,29.88,M,6.21,M,NCD,M,M,M,M,M,M,M,M,M,M,M,M,M,M,66.20,EHBK 220725Z AUTO 03007KT 350V070 9999 NCD 19/11 Q1012 NOSIG,M
EHBK,2022-06-22 07:55,68.00,51.80,56.13,40.00,6.00,0.00,29.91,M,6.21,M,NCD,M,M,M,M,M,M,M,M,M,M,M,M,M,M,68.00,EHBK 220755Z AUTO 04006KT 010V070 9999 NCD 20/11 Q1013 NOSIG,M
EHBK,2022-06-22 08:25,69.80,51.80,52.77,50.00,7.00,0.00,29.88,M,6.21,M,NSC,M,M,M,M,M,M,M,M,M,M,M,M,M,M,69.80,EHBK 220825Z AUTO 05007KT 360V100 9999 NSC 21/11 Q1012 NOSIG,M
EHBK,2022-06-22 08:55,71.60,51.80,49.64,70.00,7.00,0.00,29.91,M,6.21,M,NSC,M,M,M,M,M,M,M,M,M,M,M,M,M,M,71.60,EHBK 220855Z AUTO 07007KT 020V120 9999 NSC 22/11 Q1013 NOSIG,M
EHBK,2022-06-22 09:25,71.60,51.80,49.64,50.00,9.00,0.00,29.88,M,6.21,M,NCD,M,M,M,M,M,M,M,M,M,M,M,M,M,M,71.60,EHBK 220925Z AUTO 05009KT 9999 NCD 22/11 Q1012 NOSIG,M
EHBK,2022-06-22 09:55,73.40,53.60,49.90,40.00,9.00,0.00,29.88,M,6.21,M,NSC,M,M,M,M,M,M,M,M,M,M,M,M,M,M,73.40,EHBK 220955Z AUTO 04009KT 360V080 9999 NSC 23/12 Q1012 NOSIG,M
EHBK,2022-06-22 10:25,75.20,53.60,46.98,40.00,9.00,0.00,29.88,M,6.21,M,NSC,M,M,M,M,M,M,M,M,M,M,M,M,M,M,75.20,EHBK 221025Z AUTO 04009KT 340V080 9999 NSC 24/12 Q1012 NOSIG,M
EHBK,2022-06-22 10:55,77.00,53.60,44.25,40.00,7.00,0.00,29.88,M,6.21,M,NSC,M,M,M,M,M,M,M,M,M,M,M,M,M,M,77.00,EHBK 221055Z AUTO 04007KT 360V080 9999 NSC 25/12 Q1012 NOSIG,M
EHBK,2022-06-22 11:25,77.00,51.80,41.42,30.00,8.00,0.00,29.88,M,6.21,M,NCD,M,M,M,M,M,M,M,M,M,M,M,M,M,M,77.00,EHBK 221125Z AUTO 03008KT 350V090 9999 NCD 25/11 Q1012 NOSIG,M
EHBK,2022-06-22 11:55,77.00,50.00,38.74,30.00,8.00,0.00,29.88,M,6.21,M,NCD,M,M,M,M,M,M,M,M,M,M,M,M,M,M,77.00,EHBK 221155Z AUTO 03008KT 330V100 9999 NCD 25/10 Q1012 NOSIG,M
EHBK,2022-06-22 12:25,78.80,50.00,36.51,50.00,9.00,0.00,29.88,M,6.21,M,NCD,M,M,M,M,M,M,M,M,M,M,M,M,M,M,78.80,EHBK 221225Z AUTO 05009KT 360V090 9999 NCD 26/10 Q1012 NOSIG,M
EHBK,2022-06-22 12:55,80.60,48.20,32.18,50.00,11.00,0.00,29.85,M,6.21,M,NSC,M,M,M,M,M,M,M,M,M,M,M,M,M,M,79.71,EHBK 221255Z AUTO 05011KT 360V090 9999 NSC 27/09 Q1011 NOSIG,M
EHBK,2022-06-22 13:25,80.60,48.20,32.18,60.00,11.00,0.00,29.85,M,6.21,M,NSC,M,M,M,M,M,M,M,M,M,M,M,M,M,M,79.71,EHBK 221325Z AUTO 06011KT 030V090 9999 NSC 27/09 Q1011 NOSIG,M
EHBK,2022-06-22 13:55,80.60,48.20,32.18,60.00,9.00,0.00,29.85,M,6.21,M,NSC,M,M,M,M,M,M,M,M,M,M,M,M,M,M,79.71,EHBK 221355Z AUTO 06009KT 020V110 9999 NSC 27/09 Q1011 NOSIG,M
EHBK,2022-06-22 14:25,80.60,46.40,30.07,60.00,8.00,0.00,29.85,M,6.21,M,NCD,M,M,M,M,M,M,M,M,M,M,M,M,M,M,79.56,EHBK 221425Z AUTO 06008KT 360V110 9999 NCD 27/08 Q1011 NOSIG,M
EHBK,2022-06-22 14:55,80.60,46.40,30.07,50.00,7.00,0.00,29.85,M,6.21,M,NSC,M,M,M,M,M,M,M,M,M,M,M,M,M,M,79.56,EHBK 221455Z AUTO 05007KT 010V110 9999 NSC 27/08 Q1011 NOSIG,M
EHBK,2022-06-22 15:25,80.60,48.20,32.18,50.00,8.00,0.00,29.85,M,6.21,M,NSC,M,M,M,M,M,M,M,M,M,M,M,M,M,M,79.71,EHBK 221525Z AUTO 05008KT 010V110 9999 NSC 27/09 Q1011 NOSIG,M
EHBK,2022-06-22 15:55,80.60,46.40,30.07,50.00,10.00,0.00,29.83,M,6.21,M,NSC,M,M,M,M,M,M,M,M,M,M,M,M,M,M,79.56,EHBK 221555Z AUTO 05010KT 350V080 9999 NSC 27/08 Q1010 NOSIG,M
EHBK,2022-06-22 16:25,80.60,46.40,30.07,50.00,9.00,0.00,29.83,M,6.21,M,NSC,M,M,M,M,M,M,M,M,M,M,M,M,M,M,79.56,EHBK 221625Z AUTO 05009KT 020V080 9999 NSC 27/08 Q1010 NOSIG,M
EHBK,2022-06-22 16:55,80.60,48.20,32.18,50.00,10.00,0.00,29.83,M,6.21,M,NSC,M,M,M,M,M,M,M,M,M,M,M,M,M,M,79.71,EHBK 221655Z AUTO 05010KT 020V080 9999 NSC 27/09 Q1010 NOSIG,M
EHBK,2022-06-22 17:25,80.60,46.40,30.07,50.00,9.00,0.00,29.83,M,6.21,M,NSC,M,M,M,M,M,M,M,M,M,M,M,M,M,M,79.56,EHBK 221725Z AUTO 05009KT 010V080 9999 NSC 27/08 Q1010 NOSIG,M
EHBK,2022-06-22 17:55,78.80,46.40,31.90,50.00,8.00,0.00,29.83,M,6.21,M,NSC,M,M,M,M,M,M,M,M,M,M,M,M,M,M,78.80,EHBK 221755Z AUTO 05008KT 9999 NSC 26/08 Q1010 NOSIG,M
EHBK,2022-06-22 18:25,78.80,46.40,31.90,50.00,9.00,0.00,29.83,M,6.21,M,NSC,M,M,M,M,M,M,M,M,M,M,M,M,M,M,78.80,EHBK 221825Z AUTO 05009KT 9999 NSC 26/08 Q1010 NOSIG,M
EHBK,2022-06-22 18:55,77.00,48.20,36.22,40.00,8.00,0.00,29.85,M,6.21,M,NCD,M,M,M,M,M,M,M,M,M,M,M,M,M,M,77.00,EHBK 221855Z AUTO 04008KT 9999 NCD 25/09 Q1011 NOSIG,M
EHBK,2022-06-22 19:25,75.20,48.20,38.46,50.00,7.00,0.00,29.85,M,6.21,M,NCD,M,M,M,M,M,M,M,M,M,M,M,M,M,M,75.20,EHBK 221925Z AUTO 05007KT 9999 NCD 24/09 Q1011 NOSIG,M
EHBK,2022-06-22 19:55,73.40,48.20,40.85,40.00,7.00,0.00,29.85,M,6.21,M,NSC,M,M,M,M,M,M,M,M,M,M,M,M,M,M,73.40,EHBK 221955Z AUTO 04007KT 9999 NSC 23/09 Q1011 NOSIG,M
EHBK,2022-06-22 20:25,69.80,48.20,46.16,40.00,6.00,0.00,29.85,M,6.21,M,NSC,M,M,M,M,M,M,M,M,M,M,M,M,M,M,69.80,EHBK 222025Z AUTO 04006KT 9999 NSC 21/09 Q1011 NOSIG,M
EHBK,2022-06-22 20:55,69.80,48.20,46.16,30.00,7.00,0.00,29.85,M,6.21,M,NSC,M,M,M,M,M,M,M,M,M,M,M,M,M,M,69.80,EHBK 222055Z AUTO 03007KT 9999 NSC 21/09 Q1011 NOSIG,M
EHBK,2022-06-22 21:25,69.80,48.20,46.16,30.00,8.00,0.00,29.85,M,6.21,M,NSC,M,M,M,M,M,M,M,M,M,M,M,M,M,M,69.80,EHBK 222125Z AUTO 03008KT 9999 NSC 21/09 Q1011,M
EHBK,2022-06-22 21:55,69.80,50.00,49.37,40.00,7.00,0.00,29.88,M,6.21,M,NSC,M,M,M,M,M,M,M,M,M,M,M,M,M,M,69.80,EHBK 222155Z AUTO 04007KT 9999 NSC 21/10 Q1012,M
EHBK,2022-06-22 22:25,68.00,48.20,49.10,50.00,7.00,0.00,29.88,M,6.21,M,NSC,M,M,M,M,M,M,M,M,M,M,M,M,M,M,68.00,EHBK 222225Z AUTO 05007KT 9999 NSC 20/09 Q1012,M
EHBK,2022-06-22 22:55,66.20,48.20,52.25,50.00,6.00,0.00,29.88,M,6.21,M,NSC,M,M,M,M,M,M,M,M,M,M,M,M,M,M,66.20,EHBK 222255Z AUTO 05006KT 9999 NSC 19/09 Q1012,M
EHBK,2022-06-22 23:25,64.40,48.20,55.63,60.00,5.00,0.00,29.88,M,6.21,M,NCD,M,M,M,M,M,M,M,M,M,M,M,M,M,M,64.40,EHBK 222325Z AUTO 06005KT 9999 NCD 18/09 Q1012,M
EHBK,2022-06-22 23:55,64.40,48.20,55.63,60.00,6.00,0.00,29.85,M,6.21,M,NSC,M,M,M,M,M,M,M,M,M,M,M,M,M,M,64.40,EHBK 222355Z AUTO 06006KT 9999 NSC 18/09 Q1011,M
EHBK,2022-06-23 00:25,64.40,48.20,55.63,60.00,5.00,0.00,29.85,M,6.21,M,NCD,M,M,M,M,M,M,M,M,M,M,M,M,M,M,64.40,EHBK 230025Z AUTO 06005KT 9999 NCD 18/09 Q1011,M
EHBK,2022-06-23 00:55,64.40,48.20,55.63,80.00,7.00,0.00,29.85,M,6.21,M,NSC,M,M,M,M,M,M,M,M,M,M,M,M,M,M,64.40,EHBK 230055Z AUTO 08007KT 050V110 9999 NSC 18/09 Q1011,M
EHBK,2022-06-23 01:25,66.20,48.20,52.25,60.00,7.00,0.00,29.85,M,6.21,M,NSC,M,M,M,M,M,M,M,M,M,M,M,M,M,M,66.20,EHBK 230125Z AUTO 06007KT 9999 NSC 19/09 Q1011,M
EHBK,2022-06-23 01:55,66.20,48.20,52.25,170.00,4.00,0.00,29.85,M,6.21,M,NSC,M,M,M,M,M,M,M,M,M,M,M,M,M,M,66.20,EHBK 230155Z AUTO 17004KT 110V210 9999 NSC 19/09 Q1011,M
EHBK,2022-06-23 02:25,64.40,50.00,59.50,110.00,1.00,0.00,29.85,M,6.21,M,NSC,M,M,M,M,M,M,M,M,M,M,M,M,M,M,64.40,EHBK 230225Z AUTO 11001KT 9999 NSC 18/10 Q1011,M
EHBK,2022-06-23 02:55,64.40,50.00,59.50,M,2.00,0.00,29.85,M,6.21,M,NSC,M,M,M,M,M,M,M,M,M,M,M,M,M,M,64.40,EHBK 230255Z AUTO VRB02KT 9999 NSC 18/10 Q1011,M
EHBK,2022-06-23 03:25,62.60,51.80,67.75,100.00,2.00,0.00,29.85,M,6.21,M,NSC,M,M,M,M,M,M,M,M,M,M,M,M,M,M,62.60,EHBK 230325Z AUTO 10002KT 9999 NSC 17/11 Q1011,M
EHBK,2022-06-23 03:55,62.60,51.80,67.75,110.00,5.00,0.00,29.85,M,6.21,M,NCD,M,M,M,M,M,M,M,M,M,M,M,M,M,M,62.60,COR EHBK 230355Z AUTO 11005KT 9999 NCD 17/11 Q1011 NOSIG,M
EHBK,2022-06-23 04:25,64.40,53.60,67.95,110.00,4.00,0.00,29.85,M,6.21,M,NCD,M,M,M,M,M,M,M,M,M,M,M,M,M,M,64.40,EHBK 230425Z AUTO 11004KT 9999 NCD 18/12 Q1011 NOSIG,M
EHBK,2022-06-23 04:55,68.00,55.40,64.04,120.00,3.00,0.00,29.85,M,6.21,M,NSC,M,M,M,M,M,M,M,M,M,M,M,M,M,M,68.00,EHBK 230455Z AUTO 12003KT 9999 NSC 20/13 Q1011 NOSIG,M
EHBK,2022-06-23 05:25,68.00,57.20,68.35,120.00,6.00,0.00,29.85,M,6.21,M,NCD,M,M,M,M,M,M,M,M,M,M,M,M,M,M,68.00,EHBK 230525Z AUTO 12006KT 9999 NCD 20/14 Q1011 NOSIG,M
EHBK,2022-06-23 05:55,69.80,59.00,68.55,120.00,5.00,0.00,29.85,M,6.21,M,NSC,M,M,M,M,M,M,M,M,M,M,M,M,M,M,69.80,EHBK 230555Z AUTO 12005KT 9999 NSC 21/15 Q1011 NOSIG,M
EHBK,2022-06-23 06:25,71.60,60.80,68.75,160.00,4.00,0.00,29.85,M,6.21,M,NCD,M,M,M,M,M,M,M,M,M,M,M,M,M,M,71.60,EHBK 230625Z AUTO 16004KT 100V220 9999 NCD 22/16 Q1011 NOSIG,M
EHBK,2022-06-23 06:55,73.40,62.60,68.94,180.00,4.00,0.00,29.85,M,6.21,M,NCD,M,M,M,M,M,M,M,M,M,M,M,M,M,M,73.40,EHBK 230655Z AUTO 18004KT 140V230 9999 NCD 23/17 Q1011 NOSIG,M
EHBK,2022-06-23 07:25,75.20,64.40,69.14,190.00,6.00,0.00,29.85,M,6.21,M,NCD,M,M,M,M,M,M,M,M,M,M,M,M,M,M,75.20,EHBK 230725Z AUTO 19006KT 140V230 9999 NCD 24/18 Q1011 NOSIG,M
EHBK,2022-06-23 07:55,77.00,62.60,61.13,170.00,7.00,0.00,29.85,M,6.21,M,NCD,M,M,M,M,M,M,M,M,M,M,M,M,M,M,77.00,EHBK 230755Z AUTO 17007KT 110V210 9999 NCD 25/17 Q1011 NOSIG,M
EHBK,2022-06-23 08:25,77.00,62.60,61.13,180.00,8.00,0.00,29.88,M,6.21,M,NCD,M,M,M,M,M,M,M,M,M,M,M,M,M,M,77.00,EHBK 230825Z AUTO 18008KT 130V250 9999 NCD 25/17 Q1012 NOSIG,M
EHBK,2022-06-23 08:55,78.80,62.60,57.60,200.00,7.00,0.00,29.88,M,6.21,M,SCT,M,M,M,3000.00,M,M,M,M,M,M,M,M,M,M,78.80,EHBK 230855Z AUTO 20007KT 150V230 9999 SCT030 26/17 Q1012 NOSIG,M
EHBK,2022-06-23 09:25,80.60,64.40,57.84,200.00,8.00,0.00,29.85,M,6.21,M,BKN,BKN,M,M,3300.00,3900.00,M,M,M,M,M,M,M,M,M,82.27,EHBK 230925Z AUTO 20008KT 150V250 9999 BKN033 BKN039 27/18 Q1011 NOSIG,M
EHBK,2022-06-23 09:55,80.60,64.40,57.84,230.00,6.00,0.00,29.85,M,6.21,M,BKN,M,M,M,3500.00,M,M,M,M,M,M,M,M,M,M,82.27,EHBK 230955Z AUTO 23006KT 180V300 9999 BKN035 27/18 Q1011 NOSIG,M
EHBK,2022-06-23 10:25,80.60,62.60,54.30,220.00,6.00,0.00,29.85,M,6.21,M,NCD,M,M,M,M,M,M,M,M,M,M,M,M,M,M,81.84,EHBK 231025Z AUTO 22006KT 190V290 9999 NCD 27/17 Q1011 NOSIG,M
EHBK,2022-06-23 10:55,82.40,62.60,51.21,210.00,5.00,0.00,29.85,M,6.21,M,NCD,M,M,M,M,M,M,M,M,M,M,M,M,M,M,83.41,EHBK 231055Z AUTO 21005KT 170V290 9999 NCD 28/17 Q1011 NOSIG,M
EHBK,2022-06-23 11:25,82.40,60.80,48.05,210.00,5.00,0.00,29.85,M,6.21,M,SCT,M,M,M,4300.00,M,M,M,M,M,M,M,M,M,M,82.90,EHBK 231125Z AUTO 21005KT 130V280 9999 SCT043 28/16 Q1011 NOSIG,M
EHBK,2022-06-23 11:55,84.20,59.00,42.52,M,4.00,0.00,29.85,M,6.21,M,NCD,M,M,M,M,M,M,M,M,M,M,M,M,M,M,83.92,EHBK 231155Z AUTO VRB04KT 9999 NCD 29/15 Q1011 NOSIG,M
EHBK,2022-06-23 12:25,82.40,60.80,48.05,180.00,5.00,0.00,29.83,M,6.21,M,BKN,M,M,M,4800.00,M,M,M,M,M,M,M,M,M,M,82.90,EHBK 231225Z AUTO 18005KT 120V220 9999 BKN048 28/16 Q1010 NOSIG,M
EHBK,2022-06-23 12:55,82.40,60.80,48.05,250.00,5.00,0.00,29.83,M,6.21,M,NSC,M,M,M,M,M,M,M,M,M,M,M,M,M,M,82.90,EHBK 231255Z AUTO 25005KT 200V280 9999 NSC 28/16 Q1010 TEMPO -SHRA FEW070CB,M
EHBK,2022-06-23 13:25,86.00,60.80,42.80,M,3.00,0.00,29.83,M,6.21,M,NSC,M,M,M,M,M,M,M,M,M,M,M,M,M,M,86.05,EHBK 231325Z AUTO VRB03KT 9999 NSC 30/16 Q1010 TEMPO -SHRA FEW070CB,M
EHBK,2022-06-23 13:55,84.20,59.00,42.52,190.00,6.00,0.00,29.83,M,6.21,M,NSC,M,M,M,M,M,M,M,M,M,M,M,M,M,M,83.92,EHBK 231355Z AUTO 19006KT 160V240 9999 NSC 29/15 Q1010 TEMPO -SHRA FEW070CB,M
EHBK,2022-06-23 14:25,86.00,60.80,42.80,200.00,5.00,0.00,29.80,M,6.21,M,NSC,M,M,M,M,M,M,M,M,M,M,M,M,M,M,86.05,EHBK 231425Z AUTO 20005KT 150V230 9999 NSC 30/16 Q1009 TEMPO -SHRA FEW070CB,M
EHBK,2022-06-23 14:55,87.80,59.00,37.90,210.00,7.00,0.00,29.80,M,6.21,M,NCD,M,M,M,M,M,M,M,M,M,M,M,M,M,M,87.12,EHBK 231455Z AUTO 21007KT 140V260 9999 NCD 31/15 Q1009 TEMPO -SHRA FEW070CB,M
EHBK,2022-06-23 15:25,86.00,62.60,45.61,210.00,6.00,0.00,29.80,M,6.21,M,NCD,M,M,M,M,M,M,M,M,M,M,M,M,M,M,86.72,EHBK 231525Z AUTO 21006KT 150V320 9999 NCD 30/17 Q1009 TEMPO -SHRA FEW070CB,M
EHBK,2022-06-23 15:55,84.20,60.80,45.34,260.00,9.00,0.00,29.80,M,6.21,M,NSC,M,M,M,M,M,M,M,M,M,M,M,M,M,M,84.43,EHBK 231555Z AUTO 26009KT 220V310 9999 NSC 29/16 Q1009 TEMPO -SHRA FEW070CB,M
EHBK,2022-06-23 16:25,82.40,62.60,51.21,260.00,6.00,0.00,29.80,M,6.21,M,FEW,M,M,M,4400.00,M,M,M,M,M,M,M,M,M,M,83.41,EHBK 231625Z AUTO 26006KT 220V290 9999 FEW044CB 28/17 Q1009 TEMPO -SHRA FEW070CB,M
EHBK,2022-06-23 16:55,84.20,62.60,48.32,270.00,5.00,0.00,29.77,M,6.21,M,FEW,M,M,M,4800.00,M,M,M,M,M,M,M,M,M,M,85.03,EHBK 231655Z AUTO 27005KT 210V320 9999 FEW048CB 29/17 Q1008 RETS TEMPO 5000 TSRA SCT060CB,M
EHBK,2022-06-23 17:25,80.60,57.20,44.80,280.00,4.00,0.00,29.80,M,6.21,M,FEW,M,M,M,5200.00,M,M,M,M,M,M,M,M,M,M,80.81,EHBK 231725Z AUTO 28004KT 230V320 9999 FEW052CB 27/14 Q1009 RETS TEMPO 5000 TSRA SCT060CB,M
EHBK,2022-06-23 17:55,80.60,62.60,54.30,80.00,8.00,0.00,29.80,M,6.21,M,FEW,M,M,M,3900.00,M,M,M,M,M,M,M,M,M,M,81.84,EHBK 231755Z AUTO 08008KT 050V110 9999 FEW039CB 27/17 Q1009 TEMPO 5000 TSRA SCT060CB,M
EHBK,2022-06-23 18:25,80.60,64.40,57.84,60.00,5.00,0.00,29.80,M,6.21,M,FEW,M,M,M,3600.00,M,M,M,TS,M,M,M,M,M,M,82.27,EHBK 231825Z AUTO 06005KT 020V090 9999 TS FEW036CB 27/18 Q1009 TEMPO 4000 TSRA SCT060CB,M
EHBK,2022-06-23 18:55,75.20,68.00,78.34,M,1.00,0.00,29.80,M,6.21,M,FEW,M,M,M,3300.00,M,M,M,M,M,M,M,M,M,M,75.20,EHBK 231855Z AUTO VRB01KT 9999 FEW033/// 24/20 Q1009 NOSIG,M
EHBK,2022-06-23 19:25,71.60,66.20,83.09,180.00,3.00,0.00,29.77,M,6.21,M,NSC,M,M,M,M,M,M,M,M,M,M,M,M,M,M,71.60,EHBK 231925Z AUTO 18003KT 080V220 9999 NSC 22/19 Q1008 NOSIG,M
EHBK,2022-06-23 19:55,73.40,66.20,78.19,260.00,1.00,0.00,29.77,M,6.21,M,NSC,M,M,M,M,M,M,M,M,M,M,M,M,M,M,73.40,EHBK 231955Z AUTO 26001KT 9999 NSC 23/19 Q1008 TEMPO 4000 TSRA SCT070CB,M
EHBK,2022-06-23 20:25,71.60,68.00,88.43,M,1.00,0.00,29.77,M,6.21,M,NSC,M,M,M,M,M,M,M,M,M,M,M,M,M,M,71.60,EHBK 232025Z AUTO VRB01KT 9999 NSC 22/20 Q1008 TEMPO 4000 TSRA SCT070CB,M
EHBK,2022-06-23 20:55,71.60,64.40,78.04,40.00,4.00,0.00,29.77,M,6.21,M,NSC,M,M,M,M,M,M,M,TS,M,M,M,M,M,M,71.60,EHBK 232055Z AUTO 04004KT 9999 TS NSC 22/18 Q1008 TEMPO 4000 TSRA SCT070CB,M
EHBK,2022-06-23 21:25,71.60,66.20,83.09,80.00,7.00,0.00,29.77,M,6.21,M,NSC,M,M,M,M,M,M,M,TS,M,M,M,M,M,M,71.60,EHBK 232125Z AUTO 08007KT 9999 TS NSC 22/19 Q1008,M
EHBK,2022-06-23 21:55,69.80,64.40,82.98,60.00,5.00,0.00,29.74,M,6.21,M,FEW,M,M,M,1500.00,M,M,M,M,M,M,M,M,M,M,69.80,EHBK 232155Z AUTO 06005KT 9999 FEW015CB 21/18 Q1007,M
EHBK,2022-06-23 22:25,69.80,66.20,88.34,10.00,4.00,0.00,29.74,M,6.21,M,FEW,FEW,M,M,200.00,1500.00,M,M,TSRA,M,M,M,M,M,M,69.80,EHBK 232225Z AUTO 01004KT 320V040 9999 TSRA FEW002 FEW015CB 21/19 Q1007,M
EHBK,2022-06-23 22:55,69.80,66.20,88.34,200.00,6.00,0.00,29.74,M,1.62,M,FEW,M,M,M,1500.00,M,M,M,+RADZ,M,M,M,M,M,M,69.80,EHBK 232255Z AUTO 20006KT 150V240 2600 +RADZ FEW015CB 21/19 Q1007 RETS,M
EHBK,2022-06-23 23:25,66.20,64.40,93.92,190.00,17.00,0.00,29.77,M,6.21,M,SCT,SCT,M,M,1500.00,4300.00,M,M,TSRA,M,M,M,M,M,M,66.20,EHBK 232325Z AUTO 19017KT 150V230 9999 TSRA SCT015CB SCT043 19/18 Q1008,M
EHBK,2022-06-23 23:55,66.20,64.40,93.92,200.00,9.00,0.00,29.80,M,6.21,M,FEW,SCT,BKN,M,0.00,500.00,1500.00,M,-TSRA,M,M,M,M,M,M,66.20,EHBK 232355Z AUTO 20009KT 170V230 9999 -TSRA FEW000 SCT005 BKN015CB 19/18 Q1009 RERA,M
EHBK,2022-06-24 00:25,66.20,64.40,93.92,260.00,9.00,0.00,29.77,M,6.21,M,FEW,SCT,M,M,500.00,800.00,M,M,-DZ,M,M,M,M,M,M,66.20,EHBK 240025Z AUTO 26009KT 220V300 9999 -DZ FEW005/// SCT008/// 19/18 Q1008 RETS,M
EHBK,2022-06-24 00:55,64.40,64.40,100.00,250.00,7.00,0.00,29.77,M,6.21,M,SCT,BKN,OVC,M,400.00,500.00,700.00,M,M,M,M,M,M,M,M,64.40,EHBK 240055Z AUTO 25007KT 200V280 9999 SCT004 BKN005 OVC007 18/18 Q1008,M
EHBK,2022-06-24 01:25,64.40,64.40,100.00,250.00,7.00,0.00,29.77,M,6.21,M,SCT,BKN,OVC,M,600.00,700.00,800.00,M,M,M,M,M,M,M,M,64.40,EHBK 240125Z AUTO 25007KT 220V290 9999 SCT006 BKN007 OVC008 18/18 Q1008,M
EHBK,2022-06-24 01:55,64.40,64.40,100.00,230.00,5.00,0.00,29.77,M,6.21,M,FEW,SCT,BKN,M,400.00,500.00,700.00,M,M,M,M,M,M,M,M,64.40,EHBK 240155Z AUTO 23005KT 210V280 9999 FEW004/// SCT005/// BKN007/// 18/18 Q1008,M
EHBK,2022-06-24 02:25,64.40,64.40,100.00,220.00,7.00,0.00,29.77,M,6.21,M,FEW,BKN,OVC,M,400.00,500.00,600.00,M,M,M,M,M,M,M,M,64.40,EHBK 240225Z AUTO 22007KT 9999 FEW004/// BKN005/// OVC006/// 18/18 Q1008,M
EHBK,2022-06-24 02:55,64.40,64.40,100.00,180.00,3.00,0.00,29.74,M,6.21,M,SCT,BKN,OVC,M,500.00,600.00,800.00,M,M,M,M,M,M,M,M,64.40,EHBK 240255Z AUTO 18003KT 150V210 9999 SCT005 BKN006 OVC008 18/18 Q1007,M
EHBK,2022-06-24 03:25,64.40,62.60,93.88,200.00,2.00,0.00,29.74,M,6.21,M,SCT,M,M,M,1300.00,M,M,M,M,M,M,M,M,M,M,64.40,EHBK 240325Z AUTO 20002KT 9999 SCT013 18/17 Q1007,M
EHBK,2022-06-24 03:55,64.40,62.60,93.88,220.00,6.00,0.00,29.74,M,4.97,M,NSC,M,M,M,M,M,M,M,M,M,M,M,M,M,M,64.40,EHBK 240355Z AUTO 22006KT 8000 NSC 18/17 Q1007,M
EHBK,2022-06-24 04:25,64.40,64.40,100.00,190.00,6.00,0.00,29.74,M,4.97,M,FEW,SCT,OVC,M,400.00,500.00,600.00,M,M,M,M,M,M,M,M,64.40,EHBK 240425Z AUTO 19006KT 160V220 8000 FEW004 SCT005 OVC006 18/18 Q1007 TEMPO 7000 RA BKN005,M
EHBK,2022-06-24 04:55,64.40,62.60,93.88,230.00,10.00,0.00,29.74,M,6.21,M,FEW,BKN,BKN,FEW,600.00,700.00,800.00,1500.00,M,M,M,M,M,M,M,64.40,EHBK 240455Z AUTO 23010KT 9999 FEW006 BKN007 BKN008 FEW015CB 18/17 Q1007 TEMPO 7000 RA BKN004,M
EHBK,2022-06-24 05:25,64.40,62.60,93.88,250.00,8.00,0.00,29.77,M,3.73,M,FEW,SCT,M,M,700.00,1500.00,M,M,RA,M,M,M,M,M,M,64.40,EHBK 240525Z AUTO 25008KT 200V290 6000 RA FEW007 SCT015CB 18/17 Q1008 TEMPO 4000 RA SHRA BKN004 FEW040CB,M
EHBK,2022-06-24 05:55,64.40,62.60,93.88,240.00,5.00,0.00,29.74,M,4.35,M,FEW,M,M,M,1500.00,M,M,M,-SHRA,M,M,M,M,M,M,64.40,EHBK 240555Z AUTO 24005KT 210V280 7000 -SHRA FEW015CB 18/17 Q1007 RERA TEMPO 4000 RA SHRA BKN004 FEW040CB,M
EHBK,2022-06-24 06:25,64.40,62.60,93.88,240.00,6.00,0.00,29.74,M,5.59,M,FEW,M,M,M,1500.00,M,M,M,-RA,M,M,M,M,M,M,64.40,EHBK 240625Z AUTO 24006KT 200V280 9000 -RA FEW015CB 18/17 Q1007 TEMPO 4000 RA SHRA BKN004 FEW040CB,M
EHBK,2022-06-24 06:55,64.40,62.60,93.88,220.00,5.00,0.00,29.74,M,6.21,M,NSC,M,M,M,M,M,M,M,-RA,M,M,M,M,M,M,64.40,EHBK 240655Z AUTO 22005KT 9999 -RA NSC 18/17 Q1007 REDZRA TEMPO 6000 RA SHRA BKN004 FEW040CB,M
EHBK,2022-06-24 07:25,66.20,62.60,88.18,210.00,7.00,0.00,29.77,M,6.21,M,FEW,BKN,BKN,M,600.00,800.00,1000.00,M,M,M,M,M,M,M,M,66.20,COR EHBK 240725Z AUTO 21007KT 180V240 9999 FEW006 BKN008 BKN010 19/17 Q1008 BECMG BKN030,M
EHBK,2022-06-24 07:55,68.00,64.40,88.26,200.00,9.00,0.00,29.74,M,6.21,M,FEW,SCT,BKN,M,600.00,700.00,900.00,M,M,M,M,M,M,M,M,68.00,EHBK 240755Z AUTO 20009KT 9999 FEW006 SCT007 BKN009 20/18 Q1007 BECMG BKN030,M
EHBK,2022-06-24 08:25,68.00,64.40,88.26,240.00,7.00,0.00,29.74,M,6.21,M,FEW,SCT,M,M,900.00,1000.00,M,M,M,M,M,M,M,M,M,68.00,EHBK 240825Z AUTO 24007KT 210V280 9999 FEW009/// SCT010/// 20/18 Q1007 NOSIG,M
EHBK,2022-06-24 08:55,68.00,62.60,82.86,250.00,6.00,0.00,29.74,M,6.21,M,SCT,BKN,BKN,M,1300.00,1500.00,2000.00,M,M,M,M,M,M,M,M,68.00,EHBK 240855Z AUTO 25006KT 190V310 9999 SCT013 BKN015 BKN020 20/17 Q1007 NOSIG,M
EHBK,2022-06-24 09:25,69.80,64.40,82.98,230.00,8.00,0.00,29.74,M,6.21,M,SCT,M,M,M,1400.00,M,M,M,M,M,M,M,M,M,M,69.80,EHBK 240925Z AUTO 23008KT 200V270 9999 SCT014 21/18 Q1007 NOSIG,M
EHBK,2022-06-24 09:55,71.60,64.40,78.04,240.00,9.00,0.00,29.74,M,6.21,M,BKN,BKN,BKN,M,1700.00,2000.00,2600.00,M,M,M,M,M,M,M,M,71.60,EHBK 240955Z AUTO 24009KT 210V280 9999 BKN017 BKN020 BKN026 22/18 Q1007 TEMPO 6000 SHRA FEW020CB,M
EHBK,2022-06-24 10:25,71.60,60.80,68.75,250.00,9.00,0.00,29.77,M,6.21,M,FEW,M,M,M,2000.00,M,M,M,M,M,M,M,M,M,M,71.60,EHBK 241025Z AUTO 25009KT 200V290 9999 FEW020 22/16 Q1008 TEMPO 6000 SHRA FEW020CB,M
EHBK,2022-06-24 10:55,68.00,60.80,77.75,250.00,10.00,0.00,29.77,M,6.21,M,FEW,SCT,M,M,2200.00,2500.00,M,M,-RA,M,M,M,M,M,M,68.00,EHBK 241055Z AUTO 25010KT 190V290 9999 -RA FEW022 SCT025 20/16 Q1008 TEMPO 6000 SHRA FEW020CB,M
EHBK,2022-06-24 11:25,69.80,64.40,82.98,240.00,6.00,0.00,29.74,M,6.21,M,NSC,M,M,M,M,M,M,M,M,M,M,M,M,M,M,69.80,EHBK 241125Z AUTO 24006KT 200V290 9999 NSC 21/18 Q1007 TEMPO 6000 SHRA FEW020CB,M
EHBK,2022-06-24 11:55,71.60,62.60,73.27,210.00,8.00,0.00,29.74,M,6.21,M,SCT,M,M,M,1600.00,M,M,M,M,M,M,M,M,M,M,71.60,EHBK 241155Z AUTO 21008KT 170V240 9999 SCT016 22/17 Q1007 TEMPO 6000 SHRA FEW020CB,M
EHBK,2022-06-24 12:25,71.60,60.80,68.75,220.00,10.00,0.00,29.74,M,6.21,M,FEW,M,M,M,2600.00,M,M,M,M,M,M,M,M,M,M,71.60,EHBK 241225Z AUTO 22010KT 190V260 9999 FEW026 22/16 Q1007 TEMPO 6000 SHRA FEW020CB,M
EHBK,2022-06-24 12:55,73.40,60.80,64.69,240.00,8.00,0.00,29.74,M,6.21,M,FEW,SCT,BKN,M,2500.00,2800.00,3300.00,M,M,M,M,M,M,M,M,73.40,EHBK 241255Z AUTO 24008KT 200V330 9999 FEW025 SCT028 BKN033 23/16 Q1007 TEMPO 6000 SHRA FEW020CB,M
EHBK,2022-06-24 13:25,73.40,60.80,64.69,230.00,6.00,0.00,29.74,M,6.21,M,FEW,BKN,BKN,BKN,2600.00,3000.00,3500.00,4200.00,TS,M,M,M,M,M,M,73.40,EHBK 241325Z AUTO 23006KT 170V280 9999 TS FEW026CB BKN030 BKN035 BKN042 23/16 Q1007 TEMPO 4000 TSRA SHRA SCT020CB,M
EHBK,2022-06-24 13:55,66.20,60.80,82.74,170.00,9.00,0.00,29.74,M,6.21,M,FEW,FEW,BKN,OVC,800.00,1500.00,2400.00,2700.00,TS,M,M,M,M,M,M,66.20,EHBK 241355Z AUTO 17009KT 140V220 9999 TS FEW008 FEW015CB BKN024 OVC027 19/16 Q1007 TEMPO 20015G25KT 2500 TSRA SHRA SCT020CB,M
EHBK,2022-06-24 14:25,64.40,60.80,88.09,210.00,8.00,0.00,29.77,M,2.42,M,FEW,SCT,M,M,1500.00,3500.00,M,M,+TSRA,M,M,M,M,M,M,64.40,EHBK 241425Z AUTO 21008KT 170V240 3900 +TSRA FEW015CB SCT035 18/16 Q1008 TEMPO 20015G25KT 1500 TSRA SHRA SCT020CB,M
EHBK,2022-06-24 14:55,64.40,60.80,88.09,180.00,5.00,0.00,29.74,M,6.21,M,FEW,FEW,M,M,200.00,1500.00,M,M,-SHRA,M,M,M,M,M,M,64.40,EHBK 241455Z AUTO 18005KT 9999 -SHRA FEW002 FEW015CB 18/16 Q1007 RETSRA BECMG NSW,M
EHBK,2022-06-24 15:25,66.20,62.60,88.18,170.00,6.00,0.00,29.74,M,6.21,M,NSC,M,M,M,M,M,M,M,M,M,M,M,M,M,M,66.20,EHBK 241525Z AUTO 17006KT 140V200 9999 NSC 19/17 Q1007 NOSIG,M
EHBK,2022-06-24 15:55,69.80,64.40,82.98,190.00,9.00,0.00,29.74,M,6.21,M,NSC,M,M,M,M,M,M,M,M,M,M,M,M,M,M,69.80,EHBK 241555Z AUTO 19009KT 160V220 9999 NSC 21/18 Q1007 REDZ NOSIG,M
EHBK,2022-06-24 16:25,69.80,62.60,77.90,200.00,10.00,0.00,29.74,M,6.21,M,NSC,M,M,M,M,M,M,M,M,M,M,M,M,M,M,69.80,EHBK 241625Z AUTO 20010KT 160V230 9999 NSC 21/17 Q1007 NOSIG,M
EHBK,2022-06-24 16:55,69.80,60.80,73.09,190.00,9.00,0.00,29.74,M,6.21,M,NSC,M,M,M,M,M,M,M,M,M,M,M,M,M,M,69.80,EHBK 241655Z AUTO 19009KT 160V220 9999 NSC 21/16 Q1007 NOSIG,M
EHBK,2022-06-24 17:25,71.60,62.60,73.27,210.00,9.00,0.00,29.74,M,6.21,M,FEW,M,M,M,2000.00,M,M,M,M,M,M,M,M,M,M,71.60,COR EHBK 241725Z AUTO 21009KT 180V250 9999 FEW020CB 22/17 Q1007 NOSIG,M
EHBK,2022-06-24 17:55,69.80,62.60,77.90,200.00,7.00,0.00,29.74,M,6.21,M,NSC,M,M,M,M,M,M,M,M,M,M,M,M,M,M,69.80,EHBK 241755Z AUTO 20007KT 170V240 9999 NSC 21/17 Q1007 NOSIG,M
EHBK,2022-06-24 18:25,69.80,60.80,73.09,190.00,6.00,0.00,29.77,M,6.21,M,FEW,M,M,M,3200.00,M,M,M,M,M,M,M,M,M,M,69.80,EHBK 241825Z AUTO 19006KT 9999 FEW032 21/16 Q1008 NOSIG,M
EHBK,2022-06-24 18:55,69.80,60.80,73.09,200.00,6.00,0.00,29.77,M,6.21,M,NSC,M,M,M,M,M,M,M,M,M,M,M,M,M,M,69.80,EHBK 241855Z AUTO 20006KT 9999 NSC 21/16 Q1008 NOSIG,M
EHBK,2022-06-24 19:25,69.80,59.00,68.55,220.00,9.00,0.00,29.77,M,6.21,M,NSC,M,M,M,M,M,M,M,M,M,M,M,M,M,M,69.80,EHBK 241925Z AUTO 22009KT 9999 NSC 21/15 Q1008 NOSIG,M
EHBK,2022-06-24 19:55,68.00,59.00,72.92,190.00,6.00,0.00,29.77,M,6.21,M,NSC,M,M,M,M,M,M,M,M,M,M,M,M,M,M,68.00,EHBK 241955Z AUTO 19006KT 9999 NSC 20/15 Q1008 NOSIG,M
EHBK,2022-06-24 20:25,66.20,57.20,72.74,190.00,7.00,0.00,29.80,M,6.21,M,NCD,M,M,M,M,M,M,M,M,M,M,M,M,M,M,66.20,EHBK 242025Z AUTO 19007KT 9999 NCD 19/14 Q1009 NOSIG,M
EHBK,2022-06-24 20:55,64.40,57.20,77.45,180.00,6.00,0.00,29.80,M,6.21,M,NCD,M,M,M,M,M,M,M,M,M,M,M,M,M,M,64.40,EHBK 242055Z AUTO 18006KT 9999 NCD 18/14 Q1009,M
EHBK,2022-06-24 21:25,64.40,57.20,77.45,170.00,6.00,0.00,29.83,M,6.21,M,NSC,M,M,M,M,M,M,M,M,M,M,M,M,M,M,64.40,EHBK 242125Z AUTO 17006KT 9999 NSC 18/14 Q1010,M
EHBK,2022-06-24 21:55,64.40,57.20,77.45,180.00,6.00,0.00,29.80,M,6.21,M,FEW,M,M,M,1500.00,M,M,M,M,M,M,M,M,M,M,64.40,EHBK 242155Z AUTO 18006KT 9999 FEW015CB 18/14 Q1009,M
EHBK,2022-06-24 22:25,62.60,57.20,82.50,180.00,6.00,0.00,29.80,M,6.21,M,NCD,M,M,M,M,M,M,M,M,M,M,M,M,M,M,62.60,EHBK 242225Z AUTO 18006KT 9999 NCD 17/14 Q1009,M
EHBK,2022-06-24 22:55,62.60,59.00,88.00,190.00,9.00,0.00,29.80,M,6.21,M,NCD,M,M,M,M,M,M,M,M,M,M,M,M,M,M,62.60,EHBK 242255Z AUTO 19009KT 9999 NCD 17/15 Q1009,M
EHBK,2022-06-24 23:25,62.60,59.00,88.00,200.00,10.00,0.00,29.80,M,6.21,M,NSC,M,M,M,M,M,M,M,M,M,M,M,M,M,M,62.60,EHBK 242325Z AUTO 20010KT 9999 NSC 17/15 Q1009,M
EHBK,2022-06-24 23:55,62.60,59.00,88.00,200.00,12.00,0.00,29.80,M,6.21,M,NCD,M,M,M,M,M,M,M,M,M,M,M,M,M,M,62.60,EHBK 242355Z AUTO 20012KT 9999 NCD 17/15 Q1009,M
EHBK,2022-06-25 00:25,62.60,59.00,88.00,200.00,10.00,0.00,29.83,M,6.21,M,NCD,M,M,M,M,M,M,M,M,M,M,M,M,M,M,62.60,EHBK 250025Z AUTO 20010KT 9999 NCD 17/15 Q1010,M
EHBK,2022-06-25 00:55,62.60,57.20,82.50,190.00,9.00,0.00,29.83,M,6.21,M,NSC,M,M,M,M,M,M,M,M,M,M,M,M,M,M,62.60,EHBK 250055Z AUTO 19009KT 9999 NSC 17/14 Q1010,M
EHBK,2022-06-25 01:25,62.60,57.20,82.50,200.00,10.00,0.00,29.83,M,6.21,M,NCD,M,M,M,M,M,M,M,M,M,M,M,M,M,M,62.60,EHBK 250125Z AUTO 20010KT 9999 NCD 17/14 Q1010,M
EHBK,2022-06-25 01:55,62.60,57.20,82.50,190.00,10.00,0.00,29.83,M,6.21,M,NCD,M,M,M,M,M,M,M,M,M,M,M,M,M,M,62.60,EHBK 250155Z AUTO 19010KT 160V220 9999 NCD 17/14 Q1010,M
EHBK,2022-06-25 02:25,62.60,57.20,82.50,190.00,10.00,0.00,29.83,M,6.21,M,NCD,M,M,M,M,M,M,M,M,M,M,M,M,M,M,62.60,EHBK 250225Z AUTO 19010KT 9999 NCD 17/14 Q1010,M
EHBK,2022-06-25 02:55,62.60,57.20,82.50,190.00,10.00,0.00,29.85,M,6.21,M,NSC,M,M,M,M,M,M,M,M,M,M,M,M,M,M,62.60,EHBK 250255Z AUTO 19010KT 9999 NSC 17/14 Q1011,M
EHBK,2022-06-25 03:25,60.80,57.20,87.92,200.00,9.00,0.00,29.85,M,6.21,M,NSC,M,M,M,M,M,M,M,M,M,M,M,M,M,M,60.80,EHBK 250325Z AUTO 20009KT 9999 NSC 16/14 Q1011,M
EHBK,2022-06-25 03:55,62.60,57.20,82.50,190.00,8.00,0.00,29.85,M,6.21,M,NSC,M,M,M,M,M,M,M,M,M,M,M,M,M,M,62.60,EHBK 250355Z AUTO 19008KT 9999 NSC 17/14 Q1011 NOSIG,M
EHBK,2022-06-25 04:25,62.60,57.20,82.50,200.00,10.00,0.00,29.85,M,6.21,M,NSC,M,M,M,M,M,M,M,M,M,M,M,M,M,M,62.60,EHBK 250425Z AUTO 20010KT 9999 NSC 17/14 Q1011 NOSIG,M
EHBK,2022-06-25 04:55,62.60,57.20,82.50,200.00,10.00,0.00,29.85,M,6.21,M,NSC,M,M,M,M,M,M,M,M,M,M,M,M,M,M,62.60,EHBK 250455Z AUTO 20010KT 9999 NSC 17/14 Q1011 NOSIG,M
EHBK,2022-06-25 05:25,62.60,57.20,82.50,190.00,10.00,0.00,29.85,M,6.21,M,NSC,M,M,M,M,M,M,M,M,M,M,M,M,M,M,62.60,EHBK 250525Z AUTO 19010KT 9999 NSC 17/14 Q1011 NOSIG,M
EHBK,2022-06-25 05:55,64.40,57.20,77.45,190.00,10.00,0.00,29.88,M,6.21,M,NSC,M,M,M,M,M,M,M,M,M,M,M,M,M,M,64.40,EHBK 250555Z AUTO 19010KT 9999 NSC 18/14 Q1012 NOSIG,M
EHBK,2022-06-25 06:25,64.40,57.20,77.45,190.00,11.00,0.00,29.88,M,6.21,M,NSC,M,M,M,M,M,M,M,M,M,M,M,M,M,M,64.40,EHBK 250625Z AUTO 19011KT 9999 NSC 18/14 Q1012 NOSIG,M
EHBK,2022-06-25 06:55,66.20,57.20,72.74,200.00,10.00,0.00,29.88,M,6.21,M,NSC,M,M,M,M,M,M,M,M,M,M,M,M,M,M,66.20,EHBK 250655Z AUTO 20010KT 170V230 9999 NSC 19/14 Q1012 NOSIG,M
EHBK,2022-06-25 07:25,68.00,59.00,72.92,200.00,8.00,0.00,29.88,M,6.21,M,NSC,M,M,M,M,M,M,M,M,M,M,M,M,M,M,68.00,EHBK 250725Z AUTO 20008KT 170V230 9999 NSC 20/15 Q1012 NOSIG,M
EHBK,2022-06-25 07:55,68.00,59.00,72.92,210.00,10.00,0.00,29.88,M,6.21,M,SCT,SCT,OVC,M,2400.00,3800.00,4300.00,M,M,M,M,M,M,M,M,68.00,EHBK 250755Z AUTO 21010KT 160V240 9999 SCT024/// SCT038/// OVC043/// 20/15 Q1012 NOSIG,M
EHBK,2022-06-25 08:25,71.60,59.00,64.48,210.00,10.00,0.00,29.88,M,6.21,M,BKN,OVC,M,M,2600.00,3000.00,M,M,M,M,M,M,M,M,M,71.60,EHBK 250825Z AUTO 21010KT 160V250 9999 BKN026 OVC030 22/15 Q1012 NOSIG,M
EHBK,2022-06-25 08:55,71.60,59.00,64.48,210.00,8.00,0.00,29.88,M,6.21,M,BKN,OVC,M,M,2800.00,3100.00,M,M,M,M,M,M,M,M,M,71.60,EHBK 250855Z AUTO 21008KT 170V270 9999 BKN028 OVC031 22/15 Q1012 NOSIG,M
EHBK,2022-06-25 09:25,71.60,59.00,64.48,220.00,7.00,0.00,29.88,M,6.21,M,BKN,OVC,M,M,3000.00,3400.00,M,M,M,M,M,M,M,M,M,71.60,EHBK 250925Z AUTO 22007KT 190V260 9999 BKN030 OVC034 22/15 Q1012 NOSIG,M
EHBK,2022-06-25 09:55,69.80,57.20,64.26,190.00,9.00,0.00,29.88,M,6.21,M,BKN,BKN,OVC,M,3100.00,3600.00,4200.00,M,M,M,M,M,M,M,M,69.80,EHBK 250955Z AUTO 19009KT 150V230 9999 BKN031 BKN036 OVC042 21/14 Q1012 NOSIG,M
EHBK,2022-06-25 10:25,69.80,57.20,64.26,210.00,8.00,0.00,29.88,M,6.21,M,BKN,BKN,OVC,M,3200.00,3700.00,4100.00,M,M,M,M,M,M,M,M,69.80,EHBK 251025Z AUTO 21008KT 170V240 9999 BKN032 BKN037 OVC041 21/14 Q1012 NOSIG,M
EHBK,2022-06-25 10:55,73.40,59.00,60.67,210.00,8.00,0.00,29.88,M,6.21,M,FEW,M,M,M,4500.00,M,M,M,M,M,M,M,M,M,M,73.40,EHBK 251055Z AUTO 21008KT 170V240 9999 FEW045 23/15 Q1012 NOSIG,M
EHBK,2022-06-25 11:25,73.40,57.20,56.88,210.00,8.00,0.00,29.88,M,6.21,M,BKN,BKN,M,M,3300.00,3700.00,M,M,M,M,M,M,M,M,M,73.40,EHBK 251125Z AUTO 21008KT 160V280 9999 BKN033 BKN037 23/14 Q1012 NOSIG,M
EHBK,2022-06-25 11:55,73.40,57.20,56.88,200.00,9.00,0.00,29.88,M,6.21,M,BKN,BKN,M,M,3500.00,4300.00,M,M,M,M,M,M,M,M,M,73.40,EHBK 251155Z AUTO 20009KT 160V250 9999 BKN035 BKN043 23/14 Q1012 NOSIG,M
EHBK,2022-06-25 12:25,73.40,57.20,56.88,190.00,8.00,0.00,29.88,M,6.21,M,NSC,M,M,M,M,M,M,M,M,M,M,M,M,M,M,73.40,EHBK 251225Z AUTO 19008KT 150V230 9999 NSC 23/14 Q1012 NOSIG,M
EHBK,2022-06-25 12:55,73.40,57.20,56.88,200.00,5.00,0.00,29.88,M,6.21,M,SCT,M,M,M,3600.00,M,M,M,M,M,M,M,M,M,M,73.40,EHBK 251255Z AUTO 20005KT 130V270 9999 SCT036 23/14 Q1012 NOSIG,M
EHBK,2022-06-25 13:25,73.40,59.00,60.67,200.00,7.00,0.00,29.88,M,6.21,M,NSC,M,M,M,M,M,M,M,M,M,M,M,M,M,M,73.40,EHBK 251325Z AUTO 20007KT 160V230 9999 NSC 23/15 Q1012 NOSIG,M
EHBK,2022-06-25 13:55,73.40,59.00,60.67,200.00,5.00,0.00,29.88,M,6.21,M,NSC,M,M,M,M,M,M,M,M,M,M,M,M,M,M,73.40,EHBK 251355Z AUTO 20005KT 160V250 9999 NSC 23/15 Q1012 NOSIG,M
EHBK,2022-06-25 14:25,75.20,59.00,57.12,160.00,6.00,0.00,29.85,M,6.21,M,NSC,M,M,M,M,M,M,M,M,M,M,M,M,M,M,75.20,EHBK 251425Z AUTO 16006KT 110V210 9999 NSC 24/15 Q1011 NOSIG,M
EHBK,2022-06-25 14:55,73.40,57.20,56.88,190.00,5.00,0.00,29.85,M,6.21,M,NSC,M,M,M,M,M,M,M,M,M,M,M,M,M,M,73.40,EHBK 251455Z AUTO 19005KT 150V220 9999 NSC 23/14 Q1011 NOSIG,M
EHBK,2022-06-25 15:25,75.20,59.00,57.12,170.00,6.00,0.00,29.85,M,6.21,M,NSC,M,M,M,M,M,M,M,M,M,M,M,M,M,M,75.20,EHBK 251525Z AUTO 17006KT 140V200 9999 NSC 24/15 Q1011 NOSIG,M
EHBK,2022-06-25 15:55,73.40,59.00,60.67,170.00,6.00,0.00,29.85,M,6.21,M,NSC,M,M,M,M,M,M,M,M,M,M,M,M,M,M,73.40,EHBK 251555Z AUTO 17006KT 130V220 9999 NSC 23/15 Q1011 NOSIG,M
EHBK,2022-06-25 16:25,75.20,57.20,53.55,190.00,6.00,0.00,29.85,M,6.21,M,NSC,M,M,M,M,M,M,M,M,M,M,M,M,M,M,75.20,EHBK 251625Z AUTO 19006KT 150V220 9999 NSC 24/14 Q1011 TEMPO 7000 -SHRA SCT030CB,M
EHBK,2022-06-25 16:55,73.40,57.20,56.88,190.00,8.00,0.00,29.85,M,6.21,M,NSC,M,M,M,M,M,M,M,M,M,M,M,M,M,M,73.40,EHBK 251655Z AUTO 19008KT 160V240 9999 NSC 23/14 Q1011 NOSIG,M
EHBK,2022-06-25 17:25,73.40,57.20,56.88,190.00,5.00,0.00,29.85,M,6.21,M,NSC,M,M,M,M,M,M,M,M,M,M,M,M,M,M,73.40,EHBK 251725Z AUTO 19005KT 160V220 9999 NSC 23/14 Q1011 NOSIG,M
EHBK,2022-06-25 17:55,69.80,60.80,73.09,280.00,6.00,0.00,29.85,M,6.21,M,NSC,M,M,M,M,M,M,M,M,M,M,M,M,M,M,69.80,EHBK 251755Z AUTO 28006KT 220V350 9999 NSC 21/16 Q1011 NOSIG,M
EHBK,2022-06-25 18:25,68.00,60.80,77.75,280.00,7.00,0.00,29.85,M,6.21,M,NSC,M,M,M,M,M,M,M,M,M,M,M,M,M,M,68.00,EHBK 251825Z AUTO 28007KT 220V340 9999 NSC 20/16 Q1011 NOSIG,M
EHBK,2022-06-25 18:55,66.20,60.80,82.74,280.00,3.00,0.00,29.85,M,6.21,M,NSC,M,M,M,M,M,M,M,M,M,M,M,M,M,M,66.20,EHBK 251855Z AUTO 28003KT 240V340 9999 NSC 19/16 Q1011 NOSIG,M
EHBK,2022-06-25 19:25,64.40,60.80,88.09,330.00,5.00,0.00,29.85,M,6.21,M,NSC,M,M,M,M,M,M,M,M,M,M,M,M,M,M,64.40,EHBK 251925Z AUTO 33005KT 280V010 9999 NSC 18/16 Q1011 NOSIG,M
EHBK,2022-06-25 19:55,64.40,60.80,88.09,320.00,2.00,0.00,29.88,M,6.21,M,NSC,M,M,M,M,M,M,M,M,M,M,M,M,M,M,64.40,EHBK 251955Z AUTO 32002KT 9999 NSC 18/16 Q1012 NOSIG,M
EHBK,2022-06-25 20:25,62.60,59.00,88.00,M,2.00,0.00,29.88,M,6.21,M,NSC,M,M,M,M,M,M,M,M,M,M,M,M,M,M,62.60,EHBK 252025Z AUTO VRB02KT 9999 NSC 17/15 Q1012 NOSIG,M
EHBK,2022-06-25 20:55,62.60,60.80,93.83,260.00,4.00,0.00,29.88,M,6.21,M,NSC,M,M,M,M,M,M,M,M,M,M,M,M,M,M,62.60,EHBK 252055Z AUTO 26004KT 220V310 9999 NSC 17/16 Q1012,M
EHBK,2022-06-25 21:25,62.60,60.80,93.83,250.00,8.00,0.00,29.91,M,6.21,M,BKN,OVC,M,M,700.00,1400.00,M,M,M,M,M,M,M,M,M,62.60,EHBK 252125Z AUTO 25008KT 210V300 9999 BKN007 OVC014 17/16 Q1013,M
EHBK,2022-06-25 21:55,62.60,59.00,88.00,250.00,5.00,0.00,29.91,M,6.21,M,SCT,BKN,OVC,M,3500.00,4000.00,4400.00,M,M,M,M,M,M,M,M,62.60,EHBK 252155Z AUTO 25005KT 220V300 9999 SCT035 BKN040 OVC044 17/15 Q1013,M
EHBK,2022-06-25 22:25,62.60,59.00,88.00,20.00,4.00,0.00,29.88,M,6.21,M,NSC,M,M,M,M,M,M,M,-RA,M,M,M,M,M,M,62.60,EHBK 252225Z AUTO 02004KT 320V050 9999 -RA NSC 17/15 Q1012,M
EHBK,2022-06-25 22:55,62.60,60.80,93.83,130.00,3.00,0.00,29.88,M,6.21,M,NSC,M,M,M,M,M,M,M,M,M,M,M,M,M,M,62.60,EHBK 252255Z AUTO 13003KT 090V210 9999 NSC 17/16 Q1012,M
EHBK,2022-06-25 23:25,60.80,59.00,93.79,M,2.00,0.00,29.88,M,6.21,M,FEW,M,M,M,200.00,M,M,M,DZ,M,M,M,M,M,M,60.80,EHBK 252325Z AUTO VRB02KT 9999 DZ FEW002 16/15 Q1012,M
EHBK,2022-06-25 23:55,60.80,60.80,100.00,220.00,5.00,0.00,29.91,M,6.21,M,OVC,M,M,M,4200.00,M,M,M,M,M,M,M,M,M,M,60.80,EHBK 252355Z AUTO 22005KT 9999 OVC042 16/16 Q1013 REDZ,M
EHBK,2022-06-26 00:25,60.80,59.00,93.79,180.00,3.00,0.00,29.88,M,6.21,M,FEW,M,M,M,4400.00,M,M,M,M,M,M,M,M,M,M,60.80,EHBK 260025Z AUTO 18003KT 9999 FEW044/// 16/15 Q1012,M
EHBK,2022-06-26 00:55,60.80,60.80,100.00,220.00,7.00,0.00,29.91,M,6.21,M,OVC,M,M,M,4500.00,M,M,M,M,M,M,M,M,M,M,60.80,EHBK 260055Z AUTO 22007KT 9999 OVC045 16/16 Q1013,M
EHBK,2022-06-26 01:25,62.60,59.00,88.00,240.00,7.00,0.00,29.91,M,6.21,M,FEW,M,M,M,4300.00,M,M,M,M,M,M,M,M,M,M,62.60,EHBK 260125Z AUTO 24007KT 210V280 9999 FEW043 17/15 Q1013,M
EHBK,2022-06-26 01:55,60.80,59.00,93.79,240.00,12.00,0.00,29.91,M,6.21,M,FEW,BKN,OVC,M,2000.00,2300.00,2700.00,M,M,M,M,M,M,M,M,60.80,EHBK 260155Z AUTO 24012KT 210V270 9999 FEW020 BKN023 OVC027 16/15 Q1013,M
EHBK,2022-06-26 02:25,60.80,57.20,87.92,240.00,11.00,0.00,29.91,M,6.21,M,FEW,BKN,M,M,1000.00,2600.00,M,M,M,M,M,M,M,M,M,60.80,EHBK 260225Z AUTO 24011KT 210V270 9999 FEW010 BKN026 16/14 Q1013,M
EHBK,2022-06-26 02:55,59.00,57.20,93.74,240.00,8.00,0.00,29.91,M,6.21,M,NSC,M,M,M,M,M,M,M,M,M,M,M,M,M,M,59.00,EHBK 260255Z AUTO 24008KT 210V270 9999 NSC 15/14 Q1013,M
EHBK,2022-06-26 03:25,59.00,55.40,87.83,230.00,8.00,0.00,29.94,M,6.21,M,NSC,M,M,M,M,M,M,M,M,M,M,M,M,M,M,59.00,EHBK 260325Z AUTO 23008KT 9999 NSC 15/13 Q1014,M
EHBK,2022-06-26 03:55,57.20,55.40,93.69,230.00,5.00,0.00,29.94,M,6.21,M,NSC,M,M,M,M,M,M,M,M,M,M,M,M,M,M,57.20,EHBK 260355Z AUTO 23005KT 210V270 9999 NSC 14/13 Q1014 NOSIG,M
EHBK,2022-06-26 04:25,59.00,57.20,93.74,220.00,6.00,0.00,29.94,M,6.21,M,NSC,M,M,M,M,M,M,M,M,M,M,M,M,M,M,59.00,EHBK 260425Z AUTO 22006KT 9999 NSC 15/14 Q1014 NOSIG,M
EHBK,2022-06-26 04:55,60.80,57.20,87.92,230.00,7.00,0.00,29.94,M,6.21,M,FEW,M,M,M,1000.00,M,M,M,M,M,M,M,M,M,M,60.80,EHBK 260455Z AUTO 23007KT 200V270 9999 FEW010 16/14 Q1014 NOSIG,M
EHBK,2022-06-26 05:25,60.80,55.40,82.37,240.00,6.00,0.00,29.94,M,6.21,M,NSC,M,M,M,M,M,M,M,M,M,M,M,M,M,M,60.80,EHBK 260525Z AUTO 24006KT 210V280 9999 NSC 16/13 Q1014 NOSIG,M
EHBK,2022-06-26 05:55,60.80,55.40,82.37,240.00,7.00,0.00,29.97,M,6.21,M,NSC,M,M,M,M,M,M,M,M,M,M,M,M,M,M,60.80,EHBK 260555Z AUTO 24007KT 200V280 9999 NSC 16/13 Q1015 NOSIG,M
EHBK,2022-06-26 06:25,60.80,55.40,82.37,240.00,7.00,0.00,29.97,M,6.21,M,FEW,M,M,M,1400.00,M,M,M,M,M,M,M,M,M,M,60.80,EHBK 260625Z AUTO 24007KT 200V280 9999 FEW014 16/13 Q1015 NOSIG,M
EHBK,2022-06-26 06:55,62.60,55.40,77.29,250.00,5.00,0.00,29.97,M,6.21,M,FEW,M,M,M,1400.00,M,M,M,M,M,M,M,M,M,M,62.60,EHBK 260655Z AUTO 25005KT 220V290 9999 FEW014 17/13 Q1015 NOSIG,M
EHBK,2022-06-26 07:25,60.80,55.40,82.37,250.00,6.00,0.00,30.00,M,6.21,M,NSC,M,M,M,M,M,M,M,M,M,M,M,M,M,M,60.80,EHBK 260725Z AUTO 25006KT 190V280 9999 NSC 16/13 Q1016 NOSIG,M
EHBK,2022-06-26 07:55,60.80,55.40,82.37,220.00,7.00,0.00,30.00,M,6.21,M,NSC,M,M,M,M,M,M,M,M,M,M,M,M,M,M,60.80,EHBK 260755Z AUTO 22007KT 190V270 9999 NSC 16/13 Q1016 NOSIG,M
EHBK,2022-06-26 08:25,60.80,55.40,82.37,220.00,5.00,0.00,30.00,M,6.21,M,NSC,M,M,M,M,M,M,M,M,M,M,M,M,M,M,60.80,EHBK 260825Z AUTO 22005KT 200V270 9999 NSC 16/13 Q1016 NOSIG,M
EHBK,2022-06-26 08:55,62.60,55.40,77.29,220.00,5.00,0.00,30.00,M,6.21,M,FEW,M,M,M,4200.00,M,M,M,M,M,M,M,M,M,M,62.60,EHBK 260855Z AUTO 22005KT 170V260 9999 FEW042 17/13 Q1016 NOSIG,M
EHBK,2022-06-26 09:25,62.60,57.20,82.50,180.00,6.00,0.00,30.00,M,6.21,M,NSC,M,M,M,M,M,M,M,-RADZ,M,M,M,M,M,M,62.60,EHBK 260925Z AUTO 18006KT 150V220 9999 -RADZ NSC 17/14 Q1016 NOSIG,M
EHBK,2022-06-26 09:55,60.80,57.20,87.92,190.00,5.00,0.00,30.03,M,6.21,M,NSC,M,M,M,M,M,M,M,DZRA,M,M,M,M,M,M,60.80,EHBK 260955Z AUTO 19005KT 150V210 9999 DZRA NSC 16/14 Q1017 BECMG -RADZ,M
EHBK,2022-06-26 10:25,60.80,57.20,87.92,200.00,5.00,0.00,30.03,M,6.21,M,FEW,BKN,BKN,M,300.00,1500.00,1600.00,M,-SHRA,M,M,M,M,M,M,60.80,EHBK 261025Z AUTO 20005KT 9999 -SHRA FEW003 BKN015CB BKN016 16/14 Q1017 REDZ BECMG -RADZ NSC,M
EHBK,2022-06-26 10:55,60.80,59.00,93.79,160.00,5.00,0.00,30.03,M,6.21,M,SCT,M,M,M,1500.00,M,M,M,-DZ,M,M,M,M,M,M,60.80,EHBK 261055Z AUTO 16005KT 130V190 9999 -DZ SCT015CB 16/15 Q1017 BECMG NSC,M
EHBK,2022-06-26 11:25,62.60,59.00,88.00,160.00,6.00,0.00,30.03,M,6.21,M,NSC,M,M,M,M,M,M,M,M,M,M,M,M,M,M,62.60,EHBK 261125Z AUTO 16006KT 9999 NSC 17/15 Q1017 REDZ NOSIG,M
EHBK,2022-06-26 11:55,64.40,57.20,77.45,140.00,6.00,0.00,30.03,M,6.21,M,NSC,M,M,M,M,M,M,M,M,M,M,M,M,M,M,64.40,EHBK 261155Z AUTO 14006KT 090V180 9999 NSC 18/14 Q1017 NOSIG,M
EHBK,2022-06-26 12:25,64.40,55.40,72.56,160.00,7.00,0.00,30.03,M,6.21,M,NSC,M,M,M,M,M,M,M,M,M,M,M,M,M,M,64.40,EHBK 261225Z AUTO 16007KT 130V190 9999 NSC 18/13 Q1017 NOSIG,M
EHBK,2022-06-26 12:55,66.20,55.40,68.15,140.00,6.00,0.00,30.00,M,6.21,M,NSC,M,M,M,M,M,M,M,M,M,M,M,M,M,M,66.20,EHBK 261255Z AUTO 14006KT 110V180 9999 NSC 19/13 Q1016 NOSIG,M
EHBK,2022-06-26 13:25,66.20,53.60,63.82,170.00,5.00,0.00,30.03,M,6.21,M,NSC,M,M,M,M,M,M,M,M,M,M,M,M,M,M,66.20,EHBK 261325Z AUTO 17005KT 100V200 9999 NSC 19/12 Q1017 NOSIG,M
EHBK,2022-06-26 13:55,68.00,53.60,59.97,150.00,7.00,0.00,30.00,M,6.21,M,NSC,M,M,M,M,M,M,M,M,M,M,M,M,M,M,68.00,EHBK 261355Z AUTO 15007KT 110V190 9999 NSC 20/12 Q1016 NOSIG,M
EHBK,2022-06-26 14:25,68.00,53.60,59.97,160.00,4.00,0.00,30.00,M,6.21,M,NSC,M,M,M,M,M,M,M,M,M,M,M,M,M,M,68.00,EHBK 261425Z AUTO 16004KT 080V210 9999 NSC 20/12 Q1016 NOSIG,M
EHBK,2022-06-26 14:55,68.00,53.60,59.97,180.00,5.00,0.00,30.00,M,6.21,M,NSC,M,M,M,M,M,M,M,M,M,M,M,M,M,M,68.00,EHBK 261455Z AUTO 18005KT 140V220 9999 NSC 20/12 Q1016 NOSIG,M
EHBK,2022-06-26 15:25,66.20,53.60,63.82,140.00,5.00,0.00,30.00,M,6.21,M,NSC,M,M,M,M,M,M,M,M,M,M,M,M,M,M,66.20,EHBK 261525Z AUTO 14005KT 090V170 9999 NSC 19/12 Q1016 NOSIG,M
EHBK,2022-06-26 15:55,66.20,55.40,68.15,140.00,4.00,0.00,30.00,M,6.21,M,NSC,M,M,M,M,M,M,M,M,M,M,M,M,M,M,66.20,EHBK 261555Z AUTO 14004KT 9999 NSC 19/13 Q1016 NOSIG,M
EHBK,2022-06-26 16:25,68.00,51.80,56.13,120.00,4.00,0.00,29.97,M,6.21,M,NSC,M,M,M,M,M,M,M,M,M,M,M,M,M,M,68.00,EHBK 261625Z AUTO 12004KT 070V160 9999 NSC 20/11 Q1015 NOSIG,M
EHBK,2022-06-26 16:55,68.00,51.80,56.13,180.00,1.00,0.00,29.97,M,6.21,M,NSC,M,M,M,M,M,M,M,M,M,M,M,M,M,M,68.00,EHBK 261655Z AUTO 18001KT 9999 NSC 20/11 Q1015 NOSIG,M
EHBK,2022-06-26 17:25,68.00,51.80,56.13,M,2.00,0.00,29.97,M,6.21,M,NSC,M,M,M,M,M,M,M,M,M,M,M,M,M,M,68.00,EHBK 261725Z AUTO VRB02KT 9999 NSC 20/11 Q1015 NOSIG,M
EHBK,2022-06-26 17:55,66.20,55.40,68.15,M,2.00,0.00,29.97,M,6.21,M,NSC,M,M,M,M,M,M,M,M,M,M,M,M,M,M,66.20,EHBK 261755Z AUTO VRB02KT 9999 NSC 19/13 Q1015 NOSIG,M
EHBK,2022-06-26 18:25,66.20,55.40,68.15,M,2.00,0.00,29.97,M,6.21,M,NSC,M,M,M,M,M,M,M,M,M,M,M,M,M,M,66.20,EHBK 261825Z AUTO VRB02KT 9999 NSC 19/13 Q1015 NOSIG,M
EHBK,2022-06-26 18:55,64.40,53.60,67.95,130.00,1.00,0.00,29.97,M,6.21,M,NSC,M,M,M,M,M,M,M,M,M,M,M,M,M,M,64.40,EHBK 261855Z AUTO 13001KT 9999 NSC 18/12 Q1015 NOSIG,M
EHBK,2022-06-26 19:25,64.40,55.40,72.56,340.00,1.00,0.00,29.97,M,6.21,M,NSC,M,M,M,M,M,M,M,M,M,M,M,M,M,M,64.40,EHBK 261925Z AUTO 34001KT 9999 NSC 18/13 Q1015 NOSIG,M
EHBK,2022-06-26 19:55,64.40,53.60,67.95,M,2.00,0.00,29.97,M,6.21,M,NSC,M,M,M,M,M,M,M,M,M,M,M,M,M,M,64.40,EHBK 261955Z AUTO VRB02KT 9999 NSC 18/12 Q1015 NOSIG,M
EHBK,2022-06-26 20:25,64.40,53.60,67.95,360.00,3.00,0.00,29.97,M,6.21,M,NSC,M,M,M,M,M,M,M,M,M,M,M,M,M,M,64.40,EHBK 262025Z AUTO 36003KT 9999 NSC 18/12 Q1015 NOSIG,M
EHBK,2022-06-26 20:55,62.60,55.40,77.29,60.00,4.00,0.00,29.97,M,6.21,M,NSC,M,M,M,M,M,M,M,M,M,M,M,M,M,M,62.60,EHBK 262055Z AUTO 06004KT 9999 NSC 17/13 Q1015 NOSIG,M
EHBK,2022-06-26 21:25,62.60,57.20,82.50,90.00,5.00,0.00,29.97,M,6.21,M,NSC,M,M,M,M,M,M,M,-RA,M,M,M,M,M,M,62.60,EHBK 262125Z AUTO 09005KT 9999 -RA NSC 17/14 Q1015,M
EHBK,2022-06-26 21:55,62.60,59.00,88.00,70.00,5.00,0.00,29.97,M,6.21,M,NSC,M,M,M,M,M,M,M,-RADZ,M,M,M,M,M,M,62.60,EHBK 262155Z AUTO 07005KT 9999 -RADZ NSC 17/15 Q1015,M
EHBK,2022-06-26 22:25,62.60,59.00,88.00,60.00,4.00,0.00,29.97,M,6.21,M,NSC,M,M,M,M,M,M,M,-DZ,M,M,M,M,M,M,62.60,EHBK 262225Z AUTO 06004KT 9999 -DZ NSC 17/15 Q1015,M
EHBK,2022-06-26 22:55,60.80,59.00,93.79,50.00,2.00,0.00,29.97,M,6.21,M,NSC,M,M,M,M,M,M,M,M,M,M,M,M,M,M,60.80,EHBK 262255Z AUTO 05002KT 9999 NSC 16/15 Q1015,M
EHBK,2022-06-26 23:25,60.80,59.00,93.79,310.00,3.00,0.00,29.97,M,6.21,M,NSC,M,M,M,M,M,M,M,M,M,M,M,M,M,M,60.80,EHBK 262325Z AUTO 31003KT 9999 NSC 16/15 Q1015,M
EHBK,2022-06-26 23:55,60.80,59.00,93.79,20.00,3.00,0.00,29.97,M,6.21,M,NSC,M,M,M,M,M,M,M,M,M,M,M,M,M,M,60.80,EHBK 262355Z AUTO 02003KT 9999 NSC 16/15 Q1015,M
EHBK,2022-06-27 00:25,62.60,59.00,88.00,60.00,3.00,0.00,29.97,M,6.21,M,OVC,M,M,M,4900.00,M,M,M,M,M,M,M,M,M,M,62.60,EHBK 270025Z AUTO 06003KT 9999 OVC049/// 17/15 Q1015,M
EHBK,2022-06-27 00:55,62.60,59.00,88.00,70.00,1.00,0.00,30.00,M,6.21,M,OVC,M,M,M,4800.00,M,M,M,M,M,M,M,M,M,M,62.60,EHBK 270055Z AUTO 07001KT 9999 OVC048 17/15 Q1016,M
EHBK,2022-06-27 01:25,62.60,57.20,82.50,90.00,4.00,0.00,29.97,M,6.21,M,NSC,M,M,M,M,M,M,M,M,M,M,M,M,M,M,62.60,EHBK 270125Z AUTO 09004KT 9999 NSC 17/14 Q1015,M
EHBK,2022-06-27 01:55,60.80,57.20,87.92,70.00,3.00,0.00,29.97,M,6.21,M,NSC,M,M,M,M,M,M,M,M,M,M,M,M,M,M,60.80,EHBK 270155Z AUTO 07003KT 9999 NSC 16/14 Q1015,M
EHBK,2022-06-27 02:25,60.80,57.20,87.92,M,1.00,0.00,29.97,M,6.21,M,NSC,M,M,M,M,M,M,M,M,M,M,M,M,M,M,60.80,EHBK 270225Z AUTO VRB01KT 9999 NSC 16/14 Q1015,M
EHBK,2022-06-27 02:55,60.80,57.20,87.92,30.00,2.00,0.00,29.94,M,6.21,M,NSC,M,M,M,M,M,M,M,M,M,M,M,M,M,M,60.80,EHBK 270255Z AUTO 03002KT 9999 NSC 16/14 Q1014,M
EHBK,2022-06-27 03:25,60.80,57.20,87.92,M,2.00,0.00,29.94,M,6.21,M,NSC,M,M,M,M,M,M,M,M,M,M,M,M,M,M,60.80,EHBK 270325Z AUTO VRB02KT 9999 NSC 16/14 Q1014,M
EHBK,2022-06-27 03:55,60.80,57.20,87.92,M,1.00,0.00,29.97,M,6.21,M,NSC,M,M,M,M,M,M,M,M,M,M,M,M,M,M,60.80,EHBK 270355Z AUTO VRB01KT 9999 NSC 16/14 Q1015 NOSIG,M
EHBK,2022-06-27 04:25,60.80,57.20,87.92,M,1.00,0.00,29.97,M,6.21,M,NSC,M,M,M,M,M,M,M,M,M,M,M,M,M,M,60.80,EHBK 270425Z AUTO VRB01KT 9999 NSC 16/14 Q1015 NOSIG,M
EHBK,2022-06-27 04:55,60.80,59.00,93.79,M,1.00,0.00,29.94,M,6.21,M,NSC,M,M,M,M,M,M,M,M,M,M,M,M,M,M,60.80,EHBK 270455Z AUTO VRB01KT 9999 NSC 16/15 Q1014 NOSIG,M
EHBK,2022-06-27 05:25,60.80,59.00,93.79,M,2.00,0.00,29.94,M,6.21,M,NSC,M,M,M,M,M,M,M,M,M,M,M,M,M,M,60.80,EHBK 270525Z AUTO VRB02KT 9999 NSC 16/15 Q1014 NOSIG,M
EHBK,2022-06-27 05:55,62.60,60.80,93.83,260.00,4.00,0.00,29.97,M,6.21,M,NSC,M,M,M,M,M,M,M,M,M,M,M,M,M,M,62.60,EHBK 270555Z AUTO 26004KT 9999 NSC 17/16 Q1015 NOSIG,M
EHBK,2022-06-27 06:25,62.60,60.80,93.83,250.00,5.00,0.00,30.00,M,6.21,M,SCT,M,M,M,2600.00,M,M,M,M,M,M,M,M,M,M,62.60,EHBK 270625Z AUTO 25005KT 220V290 9999 SCT026 17/16 Q1016 NOSIG,M
EHBK,2022-06-27 06:55,62.60,59.00,88.00,M,2.00,0.00,29.97,M,6.21,M,NSC,M,M,M,M,M,M,M,M,M,M,M,M,M,M,62.60,EHBK 270655Z AUTO VRB02KT 9999 NSC 17/15 Q1015 NOSIG,M
EHBK,2022-06-27 07:25,64.40,59.00,82.62,220.00,5.00,0.00,29.97,M,6.21,M,NSC,M,M,M,M,M,M,M,M,M,M,M,M,M,M,64.40,EHBK 270725Z AUTO 22005KT 9999 NSC 18/15 Q1015 NOSIG,M
EHBK,2022-06-27 07:55,64.40,60.80,88.09,250.00,3.00,0.00,29.97,M,6.21,M,NSC,M,M,M,M,M,M,M,M,M,M,M,M,M,M,64.40,EHBK 270755Z AUTO 25003KT 210V280 9999 NSC 18/16 Q1015 NOSIG,M
EHBK,2022-06-27 08:25,64.40,57.20,77.45,250.00,4.00,0.00,30.00,M,6.21,M,NSC,M,M,M,M,M,M,M,M,M,M,M,M,M,M,64.40,EHBK 270825Z AUTO 25004KT 210V270 9999 NSC 18/14 Q1016 NOSIG,M
EHBK,2022-06-27 08:55,64.40,57.20,77.45,250.00,4.00,0.00,30.00,M,6.21,M,NSC,M,M,M,M,M,M,M,M,M,M,M,M,M,M,64.40,EHBK 270855Z AUTO 25004KT 210V280 9999 NSC 18/14 Q1016 NOSIG,M
EHBK,2022-06-27 09:25,66.20,57.20,72.74,250.00,4.00,0.00,30.00,M,6.21,M,NSC,M,M,M,M,M,M,M,M,M,M,M,M,M,M,66.20,EHBK 270925Z AUTO 25004KT 200V280 9999 NSC 19/14 Q1016 NOSIG,M
EHBK,2022-06-27 09:55,68.00,59.00,72.92,260.00,3.00,0.00,30.00,M,6.21,M,FEW,M,M,M,1800.00,M,M,M,M,M,M,M,M,M,M,68.00,EHBK 270955Z AUTO 26003KT 210V340 9999 FEW018 20/15 Q1016 NOSIG,M
EHBK,2022-06-27 10:25,66.20,59.00,77.60,160.00,3.00,0.00,30.00,M,6.21,M,NSC,M,M,M,M,M,M,M,M,M,M,M,M,M,M,66.20,EHBK 271025Z AUTO 16003KT 130V220 9999 NSC 19/15 Q1016 NOSIG,M
EHBK,2022-06-27 10:55,68.00,59.00,72.92,210.00,4.00,0.00,30.00,M,6.21,M,NSC,M,M,M,M,M,M,M,M,M,M,M,M,M,M,68.00,EHBK 271055Z AUTO 21004KT 170V240 9999 NSC 20/15 Q1016 NOSIG,M
EHBK,2022-06-27 11:25,68.00,57.20,68.35,210.00,4.00,0.00,30.00,M,6.21,M,NSC,M,M,M,M,M,M,M,M,M,M,M,M,M,M,68.00,EHBK 271125Z AUTO 21004KT 150V250 9999 NSC 20/14 Q1016 NOSIG,M
EHBK,2022-06-27 11:55,69.80,55.40,60.21,180.00,6.00,0.00,30.00,M,6.21,M,NSC,M,M,M,M,M,M,M,M,M,M,M,M,M,M,69.80,EHBK 271155Z AUTO 18006KT 130V230 9999 NSC 21/13 Q1016 NOSIG,M
EHBK,2022-06-27 12:25,68.00,55.40,64.04,180.00,8.00,0.00,30.00,M,6.21,M,FEW,M,M,M,3000.00,M,M,M,M,M,M,M,M,M,M,68.00,EHBK 271225Z AUTO 18008KT 140V220 9999 FEW030 20/13 Q1016 NOSIG,M
EHBK,2022-06-27 12:55,68.00,57.20,68.35,230.00,8.00,0.00,30.00,M,6.21,M,FEW,SCT,BKN,M,2900.00,3400.00,4000.00,M,M,M,M,M,M,M,M,68.00,EHBK 271255Z AUTO 23008KT 200V260 9999 FEW029 SCT034 BKN040 20/14 Q1016 TEMPO 4000 SHRA FEW025CB,M
EHBK,2022-06-27 13:25,59.00,55.40,87.83,270.00,10.00,0.00,30.06,M,6.21,M,FEW,BKN,OVC,M,1500.00,3400.00,4000.00,M,-TSRA,M,M,M,M,M,M,59.00,EHBK 271325Z AUTO 27010KT 210V320 9999 -TSRA FEW015CB BKN034 OVC040 15/13 Q1018 REDZ TEMPO 4000 TSRA FEW025CB,M
EHBK,2022-06-27 13:55,59.00,57.20,93.74,260.00,6.00,0.00,30.06,M,6.21,M,FEW,BKN,BKN,FEW,700.00,800.00,900.00,1500.00,-SHRA,M,M,M,M,M,M,59.00,EHBK 271355Z AUTO 26006KT 220V300 9999 -SHRA FEW007 BKN008 BKN009 FEW015CB 15/14 Q1018 RETSRA TEMPO 6000 SHRA FEW025CB BKN030 BECMG BKN045,M
EHBK,2022-06-27 14:25,60.80,59.00,93.79,250.00,5.00,0.00,30.09,M,6.21,M,FEW,M,M,M,1000.00,M,M,M,M,M,M,M,M,M,M,60.80,EHBK 271425Z AUTO 25005KT 210V290 9999 FEW010 16/15 Q1019 REDZ TEMPO 6000 SHRA FEW025CB BKN030 BECMG BKN045,M
EHBK,2022-06-27 14:55,59.00,57.20,93.74,260.00,6.00,0.00,30.09,M,5.59,M,FEW,SCT,BKN,M,700.00,800.00,900.00,M,-SHRA,M,M,M,M,M,M,59.00,EHBK 271455Z AUTO 26006KT 230V310 9000 -SHRA FEW007 SCT008 BKN009 15/14 Q1019 REDZ TEMPO 6000 SHRA FEW025CB BKN030 BECMG BKN045,M
EHBK,2022-06-27 15:25,60.80,57.20,87.92,280.00,4.00,0.00,30.09,M,6.21,M,SCT,BKN,BKN,M,2400.00,2800.00,3300.00,M,-RA,M,M,M,M,M,M,60.80,EHBK 271525Z AUTO 28004KT 230V350 9999 -RA SCT024 BKN028 BKN033 16/14 Q1019 TEMPO 6000 SHRA FEW025CB BKN030,M
EHBK,2022-06-27 15:55,60.80,57.20,87.92,300.00,5.00,0.00,30.09,M,6.21,M,FEW,SCT,M,M,900.00,1100.00,M,M,M,M,M,M,M,M,M,60.80,EHBK 271555Z AUTO 30005KT 230V350 9999 FEW009 SCT011 16/14 Q1019 NOSIG,M
EHBK,2022-06-27 16:25,62.60,57.20,82.50,310.00,5.00,0.00,30.09,M,6.21,M,FEW,SCT,M,M,1200.00,1600.00,M,M,M,M,M,M,M,M,M,62.60,EHBK 271625Z AUTO 31005KT 240V010 9999 FEW012/// SCT016/// 17/14 Q1019 NOSIG,M
EHBK,2022-06-27 16:55,64.40,57.20,77.45,320.00,4.00,0.00,30.09,M,6.21,M,FEW,SCT,M,M,1400.00,1600.00,M,M,M,M,M,M,M,M,M,64.40,EHBK 271655Z AUTO 32004KT 260V350 9999 FEW014 SCT016 18/14 Q1019 NOSIG,M
EHBK,2022-06-27 17:25,62.60,55.40,77.29,250.00,5.00,0.00,30.09,M,6.21,M,FEW,M,M,M,1800.00,M,M,M,M,M,M,M,M,M,M,62.60,EHBK 271725Z AUTO 25005KT 210V310 9999 FEW018 17/13 Q1019 NOSIG,M
EHBK,2022-06-27 17:55,62.60,53.60,72.38,250.00,5.00,0.00,30.12,M,6.21,M,FEW,M,M,M,2000.00,M,M,M,M,M,M,M,M,M,M,62.60,EHBK 271755Z AUTO 25005KT 210V310 9999 FEW020 17/12 Q1020 NOSIG,M
EHBK,2022-06-27 18:25,62.60,53.60,72.38,230.00,5.00,0.00,30.12,M,6.21,M,NCD,M,M,M,M,M,M,M,M,M,M,M,M,M,M,62.60,EHBK 271825Z AUTO 23005KT 180V270 9999 NCD 17/12 Q1020 NOSIG,M
EHBK,2022-06-27 18:55,62.60,53.60,72.38,210.00,5.00,0.00,30.12,M,6.21,M,NCD,M,M,M,M,M,M,M,M,M,M,M,M,M,M,62.60,EHBK 271855Z AUTO 21005KT 9999 NCD 17/12 Q1020 NOSIG,M
EHBK,2022-06-27 19:25,60.80,53.60,77.14,200.00,3.00,0.00,30.12,M,6.21,M,NCD,M,M,M,M,M,M,M,M,M,M,M,M,M,M,60.80,EHBK 271925Z AUTO 20003KT 9999 NCD 16/12 Q1020 NOSIG,M
EHBK,2022-06-27 19:55,59.00,53.60,82.25,170.00,1.00,0.00,30.12,M,6.21,M,NCD,M,M,M,M,M,M,M,M,M,M,M,M,M,M,59.00,EHBK 271955Z AUTO 17001KT 9999 NCD 15/12 Q1020 NOSIG,M
EHBK,2022-06-27 20:25,57.20,53.60,87.74,160.00,3.00,0.00,30.15,M,6.21,M,NCD,M,M,M,M,M,M,M,M,M,M,M,M,M,M,57.20,EHBK 272025Z AUTO 16003KT 9999 NCD 14/12 Q1021 NOSIG,M
EHBK,2022-06-27 20:55,57.20,53.60,87.74,150.00,4.00,0.00,30.15,M,6.21,M,NCD,M,M,M,M,M,M,M,M,M,M,M,M,M,M,57.20,EHBK 272055Z AUTO 15004KT 9999 NCD 14/12 Q1021 NOSIG,M
EHBK,2022-06-27 21:25,57.20,53.60,87.74,180.00,3.00,0.00,30.15,M,6.21,M,NCD,M,M,M,M,M,M,M,M,M,M,M,M,M,M,57.20,EHBK 272125Z AUTO 18003KT 9999 NCD 14/12 Q1021 NOSIG,M
EHBK,2022-06-27 21:55,57.20,53.60,87.74,180.00,7.00,0.00,30.15,M,6.21,M,NCD,M,M,M,M,M,M,M,M,M,M,M,M,M,M,57.20,EHBK 272155Z AUTO 18007KT 9999 NCD 14/12 Q1021,M
EHBK,2022-06-27 22:25,57.20,53.60,87.74,190.00,5.00,0.00,30.15,M,6.21,M,NSC,M,M,M,M,M,M,M,M,M,M,M,M,M,M,57.20,EHBK 272225Z AUTO 19005KT 9999 NSC 14/12 Q1021,M
EHBK,2022-06-27 22:55,55.40,51.80,87.65,190.00,5.00,0.00,30.15,M,6.21,M,NCD,M,M,M,M,M,M,M,M,M,M,M,M,M,M,55.40,EHBK 272255Z AUTO 19005KT 9999 NCD 13/11 Q1021,M
EHBK,2022-06-27 23:25,53.60,51.80,93.60,190.00,5.00,0.00,30.15,M,6.21,M,NCD,M,M,M,M,M,M,M,M,M,M,M,M,M,M,53.60,EHBK 272325Z AUTO 19005KT 9999 NCD 12/11 Q1021,M
EHBK,2022-06-27 23:55,55.40,51.80,87.65,200.00,6.00,0.00,30.15,M,6.21,M,NCD,M,M,M,M,M,M,M,M,M,M,M,M,M,M,55.40,EHBK 272355Z AUTO 20006KT 9999 NCD 13/11 Q1021,M
EHBK,2022-06-28 00:25,55.40,53.60,93.65,210.00,7.00,0.00,30.15,M,6.21,M,NCD,M,M,M,M,M,M,M,M,M,M,M,M,M,M,55.40,EHBK 280025Z AUTO 21007KT 9999 NCD 13/12 Q1021,M
EHBK,2022-06-28 00:55,53.60,51.80,93.60,220.00,7.00,0.00,30.15,M,6.21,M,NCD,M,M,M,M,M,M,M,M,M,M,M,M,M,M,53.60,EHBK 280055Z AUTO 22007KT 9999 NCD 12/11 Q1021,M
EHBK,2022-06-28 01:25,53.60,51.80,93.60,210.00,6.00,0.00,30.15,M,6.21,M,NSC,M,M,M,M,M,M,M,M,M,M,M,M,M,M,53.60,EHBK 280125Z AUTO 21006KT 9999 NSC 12/11 Q1021,M
EHBK,2022-06-28 01:55,51.80,50.00,93.55,210.00,6.00,0.00,30.15,M,6.21,M,FEW,M,M,M,4500.00,M,M,M,M,M,M,M,M,M,M,51.80,EHBK 280155Z AUTO 21006KT 9999 FEW045 11/10 Q1021,M
EHBK,2022-06-28 02:25,51.80,50.00,93.55,220.00,6.00,0.00,30.15,M,6.21,M,NCD,M,M,M,M,M,M,M,M,M,M,M,M,M,M,51.80,EHBK 280225Z AUTO 22006KT 9999 NCD 11/10 Q1021,M
EHBK,2022-06-28 02:55,51.80,50.00,93.55,210.00,6.00,0.00,30.18,M,6.21,M,NCD,M,M,M,M,M,M,M,M,M,M,M,M,M,M,51.80,EHBK 280255Z AUTO 21006KT 9999 NCD 11/10 Q1022 NOSIG,M
EHBK,2022-06-28 03:25,51.80,48.20,87.47,210.00,6.00,0.00,30.18,M,6.21,M,NCD,M,M,M,M,M,M,M,M,M,M,M,M,M,M,51.80,EHBK 280325Z AUTO 21006KT 9999 NCD 11/09 Q1022 NOSIG,M
EHBK,2022-06-28 03:55,51.80,50.00,93.55,220.00,7.00,0.00,30.18,M,6.21,M,NCD,M,M,M,M,M,M,M,M,M,M,M,M,M,M,51.80,EHBK 280355Z AUTO 22007KT 9999 NCD 11/10 Q1022 NOSIG,M
EHBK,2022-06-28 04:25,53.60,51.80,93.60,210.00,7.00,0.00,30.18,M,6.21,M,NCD,M,M,M,M,M,M,M,M,M,M,M,M,M,M,53.60,EHBK 280425Z AUTO 21007KT 9999 NCD 12/11 Q1022 NOSIG,M
EHBK,2022-06-28 04:55,55.40,51.80,87.65,200.00,5.00,0.00,30.18,M,6.21,M,NCD,M,M,M,M,M,M,M,M,M,M,M,M,M,M,55.40,EHBK 280455Z AUTO 20005KT 9999 NCD 13/11 Q1022 NOSIG,M
EHBK,2022-06-28 05:25,57.20,51.80,82.12,220.00,5.00,0.00,30.18,M,6.21,M,NCD,M,M,M,M,M,M,M,M,M,M,M,M,M,M,57.20,EHBK 280525Z AUTO 22005KT 9999 NCD 14/11 Q1022 NOSIG,M
EHBK,2022-06-28 05:55,59.00,53.60,82.25,200.00,5.00,0.00,30.18,M,6.21,M,NCD,M,M,M,M,M,M,M,M,M,M,M,M,M,M,59.00,EHBK 280555Z AUTO 20005KT 170V230 9999 NCD 15/12 Q1022 NOSIG,M
EHBK,2022-06-28 06:25,59.00,53.60,82.25,210.00,4.00,0.00,30.18,M,6.21,M,NCD,M,M,M,M,M,M,M,M,M,M,M,M,M,M,59.00,EHBK 280625Z AUTO 21004KT 160V240 9999 NCD 15/12 Q1022 NOSIG,M
EHBK,2022-06-28 06:55,62.60,53.60,72.38,250.00,3.00,0.00,30.18,M,6.21,M,NCD,M,M,M,M,M,M,M,M,M,M,M,M,M,M,62.60,EHBK 280655Z AUTO 25003KT 180V310 9999 NCD 17/12 Q1022 NOSIG,M
EHBK,2022-06-28 07:25,62.60,50.00,63.38,M,3.00,0.00,30.18,M,6.21,M,NCD,M,M,M,M,M,M,M,M,M,M,M,M,M,M,62.60,EHBK 280725Z AUTO VRB03KT 9999 NCD 17/10 Q1022 NOSIG,M
EHBK,2022-06-28 07:55,64.40,51.80,63.60,M,3.00,0.00,30.18,M,6.21,M,NCD,M,M,M,M,M,M,M,M,M,M,M,M,M,M,64.40,EHBK 280755Z AUTO VRB03KT 9999 NCD 18/11 Q1022 NOSIG,M
EHBK,2022-06-28 08:25,66.20,51.80,59.74,M,3.00,0.00,30.18,M,6.21,M,NCD,M,M,M,M,M,M,M,M,M,M,M,M,M,M,66.20,EHBK 280825Z AUTO VRB03KT 9999 NCD 19/11 Q1022 NOSIG,M
EHBK,2022-06-28 08:55,66.20,51.80,59.74,220.00,3.00,0.00,30.18,M,6.21,M,NCD,M,M,M,M,M,M,M,M,M,M,M,M,M,M,66.20,EHBK 280855Z AUTO 22003KT 140V290 9999 NCD 19/11 Q1022 NOSIG,M
EHBK,2022-06-28 09:25,68.00,55.40,64.04,M,3.00,0.00,30.15,M,6.21,M,NCD,M,M,M,M,M,M,M,M,M,M,M,M,M,M,68.00,EHBK 280925Z AUTO VRB03KT 9999 NCD 20/13 Q1021 NOSIG,M
EHBK,2022-06-28 09:55,69.80,53.60,56.38,M,3.00,0.00,30.15,M,6.21,M,NCD,M,M,M,M,M,M,M,M,M,M,M,M,M,M,69.80,EHBK 280955Z AUTO VRB03KT 9999 NCD 21/12 Q1021 NOSIG,M
EHBK,2022-06-28 10:25,69.80,51.80,52.77,M,3.00,0.00,30.15,M,6.21,M,NCD,M,M,M,M,M,M,M,M,M,M,M,M,M,M,69.80,EHBK 281025Z AUTO VRB03KT 9999 NCD 21/11 Q1021 NOSIG,M
EHBK,2022-06-28 10:55,71.60,53.60,53.03,M,5.00,0.00,30.15,M,6.21,M,NCD,M,M,M,M,M,M,M,M,M,M,M,M,M,M,71.60,EHBK 281055Z AUTO VRB05KT 9999 NCD 22/12 Q1021 NOSIG,M
EHBK,2022-06-28 11:25,73.40,51.80,46.71,M,4.00,0.00,30.12,M,6.21,M,NCD,M,M,M,M,M,M,M,M,M,M,M,M,M,M,73.40,EHBK 281125Z AUTO VRB04KT 9999 NCD 23/11 Q1020 NOSIG,M
EHBK,2022-06-28 11:55,73.40,51.80,46.71,M,4.00,0.00,30.12,M,6.21,M,NSC,M,M,M,M,M,M,M,M,M,M,M,M,M,M,73.40,EHBK 281155Z AUTO VRB04KT 9999 NSC 23/11 Q1020 NOSIG,M
EHBK,2022-06-28 12:25,73.40,50.00,43.69,M,5.00,0.00,30.12,M,6.21,M,NSC,M,M,M,M,M,M,M,M,M,M,M,M,M,M,73.40,EHBK 281225Z AUTO VRB05KT 9999 NSC 23/10 Q1020 NOSIG,M
EHBK,2022-06-28 12:55,73.40,51.80,46.71,M,4.00,0.00,30.09,M,6.21,M,NSC,M,M,M,M,M,M,M,M,M,M,M,M,M,M,73.40,EHBK 281255Z AUTO VRB04KT 9999 NSC 23/11 Q1019 NOSIG,M
EHBK,2022-06-28 13:25,73.40,51.80,46.71,70.00,4.00,0.00,30.09,M,6.21,M,NSC,M,M,M,M,M,M,M,M,M,M,M,M,M,M,73.40,EHBK 281325Z AUTO 07004KT 360V150 9999 NSC 23/11 Q1019 NOSIG,M
EHBK,2022-06-28 13:55,75.20,51.80,43.97,100.00,4.00,0.00,30.09,M,6.21,M,NSC,M,M,M,M,M,M,M,M,M,M,M,M,M,M,75.20,EHBK 281355Z AUTO 10004KT 050V140 9999 NSC 24/11 Q1019 NOSIG,M
EHBK,2022-06-28 14:25,75.20,50.00,41.14,150.00,3.00,0.00,30.09,M,6.21,M,NSC,M,M,M,M,M,M,M,M,M,M,M,M,M,M,75.20,EHBK 281425Z AUTO 15003KT 060V210 9999 NSC 24/10 Q1019 NOSIG,M
EHBK,2022-06-28 14:55,75.20,51.80,43.97,M,5.00,0.00,30.06,M,6.21,M,NSC,M,M,M,M,M,M,M,M,M,M,M,M,M,M,75.20,EHBK 281455Z AUTO VRB05KT 9999 NSC 24/11 Q1018 NOSIG,M
EHBK,2022-06-28 15:25,75.20,51.80,43.97,90.00,4.00,0.00,30.06,M,6.21,M,NSC,M,M,M,M,M,M,M,M,M,M,M,M,M,M,75.20,EHBK 281525Z AUTO 09004KT 010V150 9999 NSC 24/11 Q1018 NOSIG,M
EHBK,2022-06-28 15:55,77.00,51.80,41.42,110.00,5.00,0.00,30.06,M,6.21,M,NSC,M,M,M,M,M,M,M,M,M,M,M,M,M,M,77.00,EHBK 281555Z AUTO 11005KT 060V160 9999 NSC 25/11 Q1018 NOSIG,M
EHBK,2022-06-28 16:25,75.20,50.00,41.14,110.00,3.00,0.00,30.06,M,6.21,M,NSC,M,M,M,M,M,M,M,M,M,M,M,M,M,M,75.20,EHBK 281625Z AUTO 11003KT 040V170 9999 NSC 24/10 Q1018 NOSIG,M
EHBK,2022-06-28 16:55,75.20,51.80,43.97,100.00,7.00,0.00,30.03,M,6.21,M,NSC,M,M,M,M,M,M,M,M,M,M,M,M,M,M,75.20,EHBK 281655Z AUTO 10007KT 060V140 9999 NSC 24/11 Q1017 NOSIG,M
EHBK,2022-06-28 17:25,75.20,50.00,41.14,100.00,7.00,0.00,30.03,M,6.21,M,NCD,M,M,M,M,M,M,M,M,M,M,M,M,M,M,75.20,EHBK 281725Z AUTO 10007KT 070V140 9999 NCD 24/10 Q1017 NOSIG,M
EHBK,2022-06-28 17:55,75.20,53.60,46.98,50.00,7.00,0.00,30.03,M,6.21,M,NCD,M,M,M,M,M,M,M,M,M,M,M,M,M,M,75.20,EHBK 281755Z AUTO 05007KT 020V090 9999 NCD 24/12 Q1017 NOSIG,M
EHBK,2022-06-28 18:25,73.40,51.80,46.71,70.00,7.00,0.00,30.03,M,6.21,M,NSC,M,M,M,M,M,M,M,M,M,M,M,M,M,M,73.40,EHBK 281825Z AUTO 07007KT 040V110 9999 NSC 23/11 Q1017 NOSIG,M
EHBK,2022-06-28 18:55,71.60,53.60,53.03,60.00,5.00,0.00,30.03,M,6.21,M,NCD,M,M,M,M,M,M,M,M,M,M,M,M,M,M,71.60,EHBK 281855Z AUTO 06005KT 9999 NCD 22/12 Q1017 NOSIG,M
EHBK,2022-06-28 19:25,69.80,51.80,52.77,80.00,6.00,0.00,30.03,M,6.21,M,NCD,M,M,M,M,M,M,M,M,M,M,M,M,M,M,69.80,EHBK 281925Z AUTO 08006KT 9999 NCD 21/11 Q1017 NOSIG,M
EHBK,2022-06-28 19:55,68.00,51.80,56.13,80.00,5.00,0.00,30.03,M,6.21,M,NCD,M,M,M,M,M,M,M,M,M,M,M,M,M,M,68.00,EHBK 281955Z AUTO 08005KT 9999 NCD 20/11 Q1017 NOSIG,M
EHBK,2022-06-28 20:25,68.00,51.80,56.13,90.00,5.00,0.00,30.03,M,6.21,M,NCD,M,M,M,M,M,M,M,M,M,M,M,M,M,M,68.00,EHBK 282025Z AUTO 09005KT 050V170 9999 NCD 20/11 Q1017 NOSIG,M
EHBK,2022-06-28 20:55,66.20,51.80,59.74,80.00,4.00,0.00,30.03,M,6.21,M,NCD,M,M,M,M,M,M,M,M,M,M,M,M,M,M,66.20,EHBK 282055Z AUTO 08004KT 060V120 9999 NCD 19/11 Q1017,M
EHBK,2022-06-28 21:25,64.40,51.80,63.60,90.00,4.00,0.00,30.03,M,6.21,M,NCD,M,M,M,M,M,M,M,M,M,M,M,M,M,M,64.40,EHBK 282125Z AUTO 09004KT 9999 NCD 18/11 Q1017,M
EHBK,2022-06-28 21:55,64.40,51.80,63.60,100.00,4.00,0.00,30.03,M,6.21,M,NCD,M,M,M,M,M,M,M,M,M,M,M,M,M,M,64.40,EHBK 282155Z AUTO 10004KT 9999 NCD 18/11 Q1017,M
EHBK,2022-06-28 22:25,64.40,51.80,63.60,110.00,3.00,0.00,30.00,M,6.21,M,NSC,M,M,M,M,M,M,M,M,M,M,M,M,M,M,64.40,EHBK 282225Z AUTO 11003KT 9999 NSC 18/11 Q1016,M
EHBK,2022-06-28 22:55,64.40,51.80,63.60,100.00,5.00,0.00,30.00,M,6.21,M,NSC,M,M,M,M,M,M,M,M,M,M,M,M,M,M,64.40,EHBK 282255Z AUTO 10005KT 9999 NSC 18/11 Q1016,M
EHBK,2022-06-28 23:25,64.40,51.80,63.60,110.00,6.00,0.00,30.00,M,6.21,M,NCD,M,M,M,M,M,M,M,M,M,M,M,M,M,M,64.40,EHBK 282325Z AUTO 11006KT 9999 NCD 18/11 Q1016,M
EHBK,2022-06-28 23:55,62.60,51.80,67.75,110.00,6.00,0.00,30.00,M,6.21,M,NCD,M,M,M,M,M,M,M,M,M,M,M,M,M,M,62.60,EHBK 282355Z AUTO 11006KT 9999 NCD 17/11 Q1016,M
EHBK,2022-06-29 00:25,62.60,51.80,67.75,130.00,3.00,0.00,30.00,M,6.21,M,NCD,M,M,M,M,M,M,M,M,M,M,M,M,M,M,62.60,EHBK 290025Z AUTO 13003KT 080V160 9999 NCD 17/11 Q1016,M
EHBK,2022-06-29 00:55,60.80,51.80,72.20,140.00,2.00,0.00,30.00,M,6.21,M,NCD,M,M,M,M,M,M,M,M,M,M,M,M,M,M,60.80,EHBK 290055Z AUTO 14002KT 9999 NCD 16/11 Q1016,M
EHBK,2022-06-29 01:25,60.80,50.00,67.54,140.00,2.00,0.00,30.00,M,6.21,M,NCD,M,M,M,M,M,M,M,M,M,M,M,M,M,M,60.80,EHBK 290125Z AUTO 14002KT 9999 NCD 16/10 Q1016,M
EHBK,2022-06-29 01:55,60.80,51.80,72.20,120.00,2.00,0.00,29.97,M,6.21,M,NCD,M,M,M,M,M,M,M,M,M,M,M,M,M,M,60.80,EHBK 290155Z AUTO 12002KT 9999 NCD 16/11 Q1015,M
EHBK,2022-06-29 02:25,60.80,51.80,72.20,140.00,3.00,0.00,29.97,M,6.21,M,NCD,M,M,M,M,M,M,M,M,M,M,M,M,M,M,60.80,EHBK 290225Z AUTO 14003KT 9999 NCD 16/11 Q1015,M
EHBK,2022-06-29 02:55,59.00,50.00,72.01,170.00,2.00,0.00,29.97,M,6.21,M,NCD,M,M,M,M,M,M,M,M,M,M,M,M,M,M,59.00,EHBK 290255Z AUTO 17002KT 9999 NCD 15/10 Q1015,M
EHBK,2022-06-29 03:25,57.20,50.00,76.82,140.00,2.00,0.00,29.97,M,6.21,M,NCD,M,M,M,M,M,M,M,M,M,M,M,M,M,M,57.20,EHBK 290325Z AUTO 14002KT 9999 NCD 14/10 Q1015,M
EHBK,2022-06-29 03:55,57.20,50.00,76.82,170.00,1.00,0.00,29.97,M,6.21,M,NCD,M,M,M,M,M,M,M,M,M,M,M,M,M,M,57.20,EHBK 290355Z AUTO 17001KT 9999 NCD 14/10 Q1015 NOSIG,M
EHBK,2022-06-29 04:25,57.20,51.80,82.12,150.00,2.00,0.00,29.97,M,6.21,M,NCD,M,M,M,M,M,M,M,M,M,M,M,M,M,M,57.20,EHBK 290425Z AUTO 15002KT 9999 NCD 14/11 Q1015 NOSIG,M
EHBK,2022-06-29 04:55,59.00,50.00,72.01,130.00,3.00,0.00,29.97,M,6.21,M,NCD,M,M,M,M,M,M,M,M,M,M,M,M,M,M,59.00,EHBK 290455Z AUTO 13003KT 9999 NCD 15/10 Q1015 NOSIG,M
EHBK,2022-06-29 05:25,59.00,51.80,76.98,180.00,3.00,0.00,29.97,M,6.21,M,NSC,M,M,M,M,M,M,M,M,M,M,M,M,M,M,59.00,EHBK 290525Z AUTO 18003KT 9999 NSC 15/11 Q1015 NOSIG,M
EHBK,2022-06-29 05:55,60.80,53.60,77.14,M,2.00,0.00,29.97,M,6.21,M,NCD,M,M,M,M,M,M,M,M,M,M,M,M,M,M,60.80,EHBK 290555Z AUTO VRB02KT 9999 NCD 16/12 Q1015 NOSIG,M
EHBK,2022-06-29 06:25,64.40,51.80,63.60,M,2.00,0.00,29.94,M,6.21,M,NSC,M,M,M,M,M,M,M,M,M,M,M,M,M,M,64.40,EHBK 290625Z AUTO VRB02KT 9999 NSC 18/11 Q1014 NOSIG,M
EHBK,2022-06-29 06:55,66.20,51.80,59.74,170.00,3.00,0.00,29.94,M,6.21,M,NSC,M,M,M,M,M,M,M,M,M,M,M,M,M,M,66.20,EHBK 290655Z AUTO 17003KT 140V210 9999 NSC 19/11 Q1014 NOSIG,M
EHBK,2022-06-29 07:25,69.80,53.60,56.38,180.00,3.00,0.00,29.94,M,6.21,M,NSC,M,M,M,M,M,M,M,M,M,M,M,M,M,M,69.80,EHBK 290725Z AUTO 18003KT 150V210 9999 NSC 21/12 Q1014 NOSIG,M
EHBK,2022-06-29 07:55,69.80,55.40,60.21,220.00,4.00,0.00,29.94,M,6.21,M,NSC,M,M,M,M,M,M,M,M,M,M,M,M,M,M,69.80,EHBK 290755Z AUTO 22004KT 9999 NSC 21/13 Q1014 NOSIG,M
EHBK,2022-06-29 08:25,69.80,55.40,60.21,210.00,3.00,0.00,29.94,M,6.21,M,NSC,M,M,M,M,M,M,M,M,M,M,M,M,M,M,69.80,EHBK 290825Z AUTO 21003KT 9999 NSC 21/13 Q1014 NOSIG,M
EHBK,2022-06-29 08:55,71.60,55.40,56.63,190.00,4.00,0.00,29.94,M,6.21,M,NSC,M,M,M,M,M,M,M,M,M,M,M,M,M,M,71.60,EHBK 290855Z AUTO 19004KT 160V250 9999 NSC 22/13 Q1014 NOSIG,M
EHBK,2022-06-29 09:25,71.60,55.40,56.63,190.00,4.00,0.00,29.94,M,6.21,M,NSC,M,M,M,M,M,M,M,M,M,M,M,M,M,M,71.60,EHBK 290925Z AUTO 19004KT 160V230 9999 NSC 22/13 Q1014 NOSIG,M
EHBK,2022-06-29 09:55,75.20,57.20,53.55,180.00,4.00,0.00,29.94,M,6.21,M,NSC,M,M,M,M,M,M,M,M,M,M,M,M,M,M,75.20,EHBK 290955Z AUTO 18004KT 140V230 9999 NSC 24/14 Q1014 NOSIG,M
EHBK,2022-06-29 10:25,77.00,53.60,44.25,150.00,5.00,0.00,29.94,M,6.21,M,NCD,M,M,M,M,M,M,M,M,M,M,M,M,M,M,77.00,EHBK 291025Z AUTO 15005KT 100V210 9999 NCD 25/12 Q1014 NOSIG,M
EHBK,2022-06-29 10:55,78.80,53.60,41.69,M,5.00,0.00,29.94,M,6.21,M,NSC,M,M,M,M,M,M,M,M,M,M,M,M,M,M,78.80,EHBK 291055Z AUTO VRB05KT 9999 NSC 26/12 Q1014 NOSIG,M
EHBK,2022-06-29 11:25,78.80,53.60,41.69,150.00,4.00,0.00,29.94,M,6.21,M,NCD,M,M,M,M,M,M,M,M,M,M,M,M,M,M,78.80,EHBK 291125Z AUTO 15004KT 070V200 9999 NCD 26/12 Q1014 NOSIG,M
EHBK,2022-06-29 11:55,78.80,51.80,39.02,150.00,5.00,0.00,29.91,M,6.21,M,NSC,M,M,M,M,M,M,M,M,M,M,M,M,M,M,78.80,EHBK 291155Z AUTO 15005KT 070V210 9999 NSC 26/11 Q1013 NOSIG,M
EHBK,2022-06-29 12:55,80.60,53.60,39.30,120.00,5.00,0.00,29.91,M,6.21,M,NSC,M,M,M,M,M,M,M,M,M,M,M,M,M,M,80.29,EHBK 291255Z AUTO 12005KT 080V140 9999 NSC 27/12 Q1013 NOSIG,M
EHBK,2022-06-29 13:25,80.60,51.80,36.79,120.00,5.00,0.00,29.91,M,6.21,M,NSC,M,M,M,M,M,M,M,M,M,M,M,M,M,M,80.08,EHBK 291325Z AUTO 12005KT 070V170 9999 NSC 27/11 Q1013 NOSIG,M
EHBK,2022-06-29 13:55,80.60,53.60,39.30,M,5.00,0.00,29.91,M,6.21,M,NSC,M,M,M,M,M,M,M,M,M,M,M,M,M,M,80.29,EHBK 291355Z AUTO VRB05KT 9999 NSC 27/12 Q1013 NOSIG,M
EHBK,2022-06-29 14:25,80.60,55.40,41.97,140.00,5.00,0.00,29.91,M,6.21,M,NSC,M,M,M,M,M,M,M,M,M,M,M,M,M,M,80.53,EHBK 291425Z AUTO 14005KT 070V210 9999 NSC 27/13 Q1013 NOSIG,M
EHBK,2022-06-29 14:55,80.60,53.60,39.30,180.00,5.00,0.00,29.88,M,6.21,M,NSC,M,M,M,M,M,M,M,M,M,M,M,M,M,M,80.29,EHBK 291455Z AUTO 18005KT 110V240 9999 NSC 27/12 Q1012 NOSIG,M
EHBK,2022-06-29 15:25,80.60,55.40,41.97,M,2.00,0.00,29.88,M,6.21,M,NSC,M,M,M,M,M,M,M,M,M,M,M,M,M,M,80.53,EHBK 291525Z AUTO VRB02KT 9999 NSC 27/13 Q1012 NOSIG,M
EHBK,2022-06-29 15:55,78.80,55.40,44.52,120.00,5.00,0.00,29.88,M,6.21,M,NSC,M,M,M,M,M,M,M,M,M,M,M,M,M,M,78.80,EHBK 291555Z AUTO 12005KT 9999 NSC 26/13 Q1012 NOSIG,M
EHBK,2022-06-29 16:25,78.80,57.20,47.52,70.00,5.00,0.00,29.88,M,6.21,M,NSC,M,M,M,M,M,M,M,M,M,M,M,M,M,M,78.80,EHBK 291625Z AUTO 07005KT 040V100 9999 NSC 26/14 Q1012 NOSIG,M
EHBK,2022-06-29 16:55,78.80,53.60,41.69,70.00,3.00,0.00,29.88,M,6.21,M,NSC,M,M,M,M,M,M,M,M,M,M,M,M,M,M,78.80,EHBK 291655Z AUTO 07003KT 350V110 9999 NSC 26/12 Q1012 NOSIG,M
EHBK,2022-06-29 17:25,78.80,59.00,50.69,90.00,3.00,0.00,29.88,M,6.21,M,NSC,M,M,M,M,M,M,M,M,M,M,M,M,M,M,78.80,EHBK 291725Z AUTO 09003KT 050V130 9999 NSC 26/15 Q1012 NOSIG,M
EHBK,2022-06-29 17:55,77.00,55.40,47.25,70.00,3.00,0.00,29.85,M,6.21,M,NSC,M,M,M,M,M,M,M,M,M,M,M,M,M,M,77.00,EHBK 291755Z AUTO 07003KT 9999 NSC 25/13 Q1011 NOSIG,M
EHBK,2022-06-29 18:25,77.00,57.20,50.43,M,1.00,0.00,29.85,M,6.21,M,NSC,M,M,M,M,M,M,M,M,M,M,M,M,M,M,77.00,EHBK 291825Z AUTO VRB01KT 9999 NSC 25/14 Q1011 NOSIG,M
EHBK,2022-06-29 18:55,75.20,57.20,53.55,110.00,4.00,0.00,29.85,M,6.21,M,NSC,M,M,M,M,M,M,M,M,M,M,M,M,M,M,75.20,EHBK 291855Z AUTO 11004KT 9999 NSC 24/14 Q1011 NOSIG,M
EHBK,2022-06-29 19:25,75.20,57.20,53.55,M,2.00,0.00,29.85,M,6.21,M,NSC,M,M,M,M,M,M,M,M,M,M,M,M,M,M,75.20,EHBK 291925Z AUTO VRB02KT 9999 NSC 24/14 Q1011 NOSIG,M
EHBK,2022-06-29 19:55,73.40,55.40,53.29,260.00,3.00,0.00,29.88,M,6.21,M,NSC,M,M,M,M,M,M,M,M,M,M,M,M,M,M,73.40,EHBK 291955Z AUTO 26003KT 240V310 9999 NSC 23/13 Q1012 NOSIG,M
EHBK,2022-06-29 20:25,73.40,53.60,49.90,M,2.00,0.00,29.88,M,6.21,M,NSC,M,M,M,M,M,M,M,M,M,M,M,M,M,M,73.40,EHBK 292025Z AUTO VRB02KT 9999 NSC 23/12 Q1012 NOSIG,M
EHBK,2022-06-29 20:55,71.60,55.40,56.63,110.00,1.00,0.00,29.88,M,6.21,M,NCD,M,M,M,M,M,M,M,M,M,M,M,M,M,M,71.60,EHBK 292055Z AUTO 11001KT 9999 NCD 22/13 Q1012 NOSIG,M
EHBK,2022-06-29 21:25,69.80,57.20,64.26,110.00,1.00,0.00,29.88,M,6.21,M,NCD,M,M,M,M,M,M,M,M,M,M,M,M,M,M,69.80,EHBK 292125Z AUTO 11001KT 9999 NCD 21/14 Q1012,M
EHBK,2022-06-29 21:55,66.20,57.20,72.74,110.00,4.00,0.00,29.88,M,6.21,M,NSC,M,M,M,M,M,M,M,M,M,M,M,M,M,M,66.20,EHBK 292155Z AUTO 11004KT 9999 NSC 19/14 Q1012,M
EHBK,2022-06-29 22:25,66.20,57.20,72.74,150.00,3.00,0.00,29.88,M,6.21,M,NSC,M,M,M,M,M,M,M,M,M,M,M,M,M,M,66.20,EHBK 292225Z AUTO 15003KT 9999 NSC 19/14 Q1012,M
EHBK,2022-06-29 22:55,66.20,57.20,72.74,150.00,3.00,0.00,29.88,M,6.21,M,NCD,M,M,M,M,M,M,M,M,M,M,M,M,M,M,66.20,EHBK 292255Z AUTO 15003KT 9999 NCD 19/14 Q1012,M
EHBK,2022-06-29 23:25,64.40,57.20,77.45,120.00,3.00,0.00,29.88,M,6.21,M,NCD,M,M,M,M,M,M,M,M,M,M,M,M,M,M,64.40,EHBK 292325Z AUTO 12003KT 090V160 9999 NCD 18/14 Q1012,M
EHBK,2022-06-29 23:55,62.60,55.40,77.29,180.00,3.00,0.00,29.85,M,6.21,M,NCD,M,M,M,M,M,M,M,M,M,M,M,M,M,M,62.60,EHBK 292355Z AUTO 18003KT 150V210 9999 NCD 17/13 Q1011,M
EHBK,2022-06-30 00:25,62.60,57.20,82.50,190.00,5.00,0.00,29.85,M,6.21,M,NCD,M,M,M,M,M,M,M,M,M,M,M,M,M,M,62.60,EHBK 300025Z AUTO 19005KT 9999 NCD 17/14 Q1011,M
EHBK,2022-06-30 00:55,64.40,57.20,77.45,190.00,5.00,0.00,29.85,M,6.21,M,NSC,M,M,M,M,M,M,M,M,M,M,M,M,M,M,64.40,EHBK 300055Z AUTO 19005KT 9999 NSC 18/14 Q1011,M
EHBK,2022-06-30 01:25,62.60,55.40,77.29,190.00,5.00,0.00,29.85,M,6.21,M,NSC,M,M,M,M,M,M,M,M,M,M,M,M,M,M,62.60,EHBK 300125Z AUTO 19005KT 9999 NSC 17/13 Q1011,M
EHBK,2022-06-30 01:55,62.60,55.40,77.29,190.00,6.00,0.00,29.85,M,6.21,M,NCD,M,M,M,M,M,M,M,M,M,M,M,M,M,M,62.60,EHBK 300155Z AUTO 19006KT 9999 NCD 17/13 Q1011,M
EHBK,2022-06-30 02:25,60.80,55.40,82.37,200.00,5.00,0.00,29.85,M,6.21,M,NCD,M,M,M,M,M,M,M,M,M,M,M,M,M,M,60.80,EHBK 300225Z AUTO 20005KT 9999 NCD 16/13 Q1011,M
EHBK,2022-06-30 02:55,62.60,55.40,77.29,190.00,4.00,0.00,29.85,M,6.21,M,NCD,M,M,M,M,M,M,M,M,M,M,M,M,M,M,62.60,EHBK 300255Z AUTO 19004KT 9999 NCD 17/13 Q1011,M
EHBK,2022-06-30 03:25,59.00,53.60,82.25,190.00,4.00,0.00,29.85,M,6.21,M,NCD,M,M,M,M,M,M,M,M,M,M,M,M,M,M,59.00,EHBK 300325Z AUTO 19004KT 9999 NCD 15/12 Q1011,M
EHBK,2022-06-30 03:55,59.00,55.40,87.83,210.00,4.00,0.00,29.85,M,6.21,M,NCD,M,M,M,M,M,M,M,M,M,M,M,M,M,M,59.00,EHBK 300355Z AUTO 21004KT 190V250 9999 NCD 15/13 Q1011 NOSIG,M
EHBK,2022-06-30 04:25,60.80,57.20,87.92,220.00,5.00,0.00,29.85,M,6.21,M,NCD,M,M,M,M,M,M,M,M,M,M,M,M,M,M,60.80,EHBK 300425Z AUTO 22005KT 180V270 9999 NCD 16/14 Q1011 NOSIG,M
EHBK,2022-06-30 04:55,62.60,57.20,82.50,240.00,6.00,0.00,29.88,M,6.21,M,NCD,M,M,M,M,M,M,M,M,M,M,M,M,M,M,62.60,EHBK 300455Z AUTO 24006KT 210V290 9999 NCD 17/14 Q1012 NOSIG,M
EHBK,2022-06-30 05:25,62.60,57.20,82.50,250.00,6.00,0.00,29.85,M,6.21,M,NCD,M,M,M,M,M,M,M,M,M,M,M,M,M,M,62.60,EHBK 300525Z AUTO 25006KT 210V290 9999 NCD 17/14 Q1011 NOSIG,M
EHBK,2022-06-30 05:55,62.60,57.20,82.50,240.00,9.00,0.00,29.88,M,6.21,M,NCD,M,M,M,M,M,M,M,M,M,M,M,M,M,M,62.60,EHBK 300555Z AUTO 24009KT 9999 NCD 17/14 Q1012 NOSIG,M
EHBK,2022-06-30 06:25,62.60,57.20,82.50,240.00,8.00,0.00,29.88,M,6.21,M,NCD,M,M,M,M,M,M,M,M,M,M,M,M,M,M,62.60,EHBK 300625Z AUTO 24008KT 200V280 9999 NCD 17/14 Q1012 NOSIG,M
EHBK,2022-06-30 06:55,64.40,59.00,82.62,240.00,8.00,0.00,29.88,M,6.21,M,NSC,M,M,M,M,M,M,M,M,M,M,M,M,M,M,64.40,EHBK 300655Z AUTO 24008KT 200V290 9999 NSC 18/15 Q1012 NOSIG,M
EHBK,2022-06-30 07:25,66.20,59.00,77.60,250.00,8.00,0.00,29.88,M,6.21,M,NSC,M,M,M,M,M,M,M,M,M,M,M,M,M,M,66.20,EHBK 300725Z AUTO 25008KT 200V300 9999 NSC 19/15 Q1012 NOSIG,M
EHBK,2022-06-30 07:55,66.20,59.00,77.60,260.00,7.00,0.00,29.88,M,6.21,M,NSC,M,M,M,M,M,M,M,M,M,M,M,M,M,M,66.20,EHBK 300755Z AUTO 26007KT 210V300 9999 NSC 19/15 Q1012 NOSIG,M
EHBK,2022-06-30 08:25,68.00,60.80,77.75,240.00,8.00,0.00,29.88,M,6.21,M,NSC,M,M,M,M,M,M,M,M,M,M,M,M,M,M,68.00,EHBK 300825Z AUTO 24008KT 200V280 9999 NSC 20/16 Q1012 NOSIG,M
EHBK,2022-06-30 08:55,68.00,59.00,72.92,260.00,4.00,0.00,29.88,M,6.21,M,NSC,M,M,M,M,M,M,M,M,M,M,M,M,M,M,68.00,EHBK 300855Z AUTO 26004KT 200V360 9999 NSC 20/15 Q1012 NOSIG,M
EHBK,2022-06-30 09:25,71.60,60.80,68.75,M,4.00,0.00,29.88,M,6.21,M,NSC,M,M,M,M,M,M,M,M,M,M,M,M,M,M,71.60,EHBK 300925Z AUTO VRB04KT 9999 NSC 22/16 Q1012 NOSIG,M
EHBK,2022-06-30 09:55,71.60,62.60,73.27,M,4.00,0.00,29.88,M,6.21,M,NSC,M,M,M,M,M,M,M,M,M,M,M,M,M,M,71.60,EHBK 300955Z AUTO VRB04KT 9999 NSC 22/17 Q1012 NOSIG,M
EHBK,2022-06-30 10:25,71.60,59.00,64.48,260.00,4.00,0.00,29.88,M,6.21,M,NSC,M,M,M,M,M,M,M,M,M,M,M,M,M,M,71.60,EHBK 301025Z AUTO 26004KT 200V350 9999 NSC 22/15 Q1012 NOSIG,M
EHBK,2022-06-30 10:55,73.40,60.80,64.69,290.00,5.00,0.00,29.88,M,6.21,M,NSC,M,M,M,M,M,M,M,M,M,M,M,M,M,M,73.40,EHBK 301055Z AUTO 29005KT 240V340 9999 NSC 23/16 Q1012 NOSIG,M
EHBK,2022-06-30 11:25,73.40,60.80,64.69,310.00,6.00,0.00,29.88,M,6.21,M,NSC,M,M,M,M,M,M,M,M,M,M,M,M,M,M,73.40,EHBK 301125Z AUTO 31006KT 240V010 9999 NSC 23/16 Q1012 NOSIG,M
EHBK,2022-06-30 11:55,73.40,59.00,60.67,320.00,6.00,0.00,29.85,M,6.21,M,NSC,M,M,M,M,M,M,M,M,M,M,M,M,M,M,73.40,EHBK 301155Z AUTO 32006KT 250V020 9999 NSC 23/15 Q1011 NOSIG,M
EHBK,2022-06-30 12:25,75.20,59.00,57.12,330.00,7.00,0.00,29.85,M,6.21,M,NSC,M,M,M,M,M,M,M,M,M,M,M,M,M,M,75.20,EHBK 301225Z AUTO 33007KT 270V050 9999 NSC 24/15 Q1011 NOSIG,M
EHBK,2022-06-30 12:55,75.20,59.00,57.12,330.00,6.00,0.00,29.85,M,6.21,M,NSC,M,M,M,M,M,M,M,M,M,M,M,M,M,M,75.20,EHBK 301255Z AUTO 33006KT 300V030 9999 NSC 24/15 Q1011 NOSIG,M
EHBK,2022-06-30 13:25,77.00,59.00,53.80,90.00,5.00,0.00,29.83,M,6.21,M,NSC,M,M,M,M,M,M,M,M,M,M,M,M,M,M,77.00,EHBK 301325Z AUTO 09005KT 360V130 9999 NSC 25/15 Q1010 NOSIG,M
EHBK,2022-06-30 13:55,77.00,60.80,57.36,330.00,6.00,0.00,29.83,M,6.21,M,NSC,M,M,M,M,M,M,M,M,M,M,M,M,M,M,77.00,EHBK 301355Z AUTO 33006KT 290V010 9999 NSC 25/16 Q1010 NOSIG,M
EHBK,2022-06-30 14:25,77.00,59.00,53.80,290.00,5.00,0.00,29.83,M,6.21,M,NSC,M,M,M,M,M,M,M,M,M,M,M,M,M,M,77.00,EHBK 301425Z AUTO 29005KT 220V010 9999 NSC 25/15 Q1010 NOSIG,M
EHBK,2022-06-30 14:55,73.40,59.00,60.67,280.00,9.00,0.00,29.83,M,6.21,M,OVC,M,M,M,4100.00,M,M,M,M,M,M,M,M,M,M,73.40,EHBK 301455Z AUTO 28009KT 230V330 9999 OVC041 23/15 Q1010 NOSIG,M
EHBK,2022-06-30 15:25,68.00,57.20,68.35,280.00,13.00,0.00,29.85,M,6.21,M,FEW,BKN,M,M,4200.00,4600.00,M,M,M,M,M,M,M,M,M,68.00,EHBK 301525Z AUTO 28013KT 220V340 9999 FEW042 BKN046 20/14 Q1011 TEMPO TS SCT070CB,M
EHBK,2022-06-30 15:55,62.60,55.40,77.29,260.00,15.00,0.00,29.88,M,6.21,M,FEW,OVC,M,M,1500.00,2100.00,M,M,-TSRA +DZ,M,M,M,M,M,M,62.60,EHBK 301555Z AUTO 26015KT 210V320 9999 -TSRA +DZ FEW015CB OVC021 17/13 Q1012 TEMPO 20015G35KT 7000 TSRA SCT070CB,M
EHBK,2022-06-30 16:25,59.00,55.40,87.83,270.00,13.00,0.00,29.88,M,6.21,23.00,FEW,SCT,BKN,M,1500.00,2800.00,4300.00,M,-RA,M,M,M,M,M,M,59.00,EHBK 301625Z AUTO 27013G23KT 230V340 9999 -RA FEW015CB SCT028 BKN043 15/13 Q1012 RETSRA TEMPO 20015G35KT 4000 TSRA SCT070CB,M
EHBK,2022-06-30 16:55,57.20,55.40,93.69,270.00,8.00,0.00,29.91,M,6.21,M,FEW,SCT,BKN,M,600.00,700.00,900.00,M,M,M,M,M,M,M,M,57.20,EHBK 301655Z AUTO 27008KT 200V330 9999 FEW006 SCT007 BKN009 14/13 Q1013 TEMPO 4000 TSRA SCT050CB,M
EHBK,2022-06-30 17:25,57.20,55.40,93.69,280.00,8.00,0.00,29.91,M,6.21,M,FEW,BKN,BKN,FEW,500.00,600.00,800.00,1500.00,TSRA,M,M,M,M,M,M,57.20,EHBK 301725Z AUTO 28008KT 9999 TSRA FEW005 BKN006 BKN008 FEW015CB 14/13 Q1013 TEMPO 4000 TSRA SCT050CB,M
EHBK,2022-06-30 17:55,57.20,55.40,93.69,200.00,7.00,0.00,29.94,M,6.21,M,SCT,BKN,BKN,FEW,500.00,600.00,700.00,1500.00,TSRA,M,M,M,M,M,M,57.20,COR EHBK 301755Z AUTO 20007KT 160V230 9999 TSRA SCT005 BKN006 BKN007 FEW015CB 14/13 Q1014 BECMG NSW,M
EHBK,2022-06-30 18:25,57.20,55.40,93.69,280.00,6.00,0.00,29.91,M,6.21,M,FEW,SCT,BKN,FEW,400.00,600.00,700.00,1500.00,-DZ,M,M,M,M,M,M,57.20,EHBK 301825Z AUTO 28006KT 180V350 9999 -DZ FEW004 SCT006 BKN007 FEW015CB 14/13 Q1013 NOSIG,M
EHBK,2022-06-30 18:55,55.40,53.60,93.65,250.00,4.00,0.00,29.94,M,6.21,M,NSC,M,M,M,M,M,M,M,M,M,M,M,M,M,M,55.40,EHBK 301855Z AUTO 25004KT 210V300 9999 NSC 13/12 Q1014 TEMPO BKN004,M
EHBK,2022-06-30 19:25,57.20,55.40,93.69,260.00,4.00,0.00,29.94,M,6.21,M,FEW,BKN,OVC,M,500.00,700.00,800.00,M,M,M,M,M,M,M,M,57.20,EHBK 301925Z AUTO 26004KT 210V300 9999 FEW005 BKN007 OVC008 14/13 Q1014 TEMPO BKN004,M
EHBK,2022-06-30 19:55,57.20,55.40,93.69,250.00,6.00,0.00,29.94,M,6.21,M,FEW,OVC,M,M,700.00,1100.00,M,M,M,M,M,M,M,M,M,57.20,EHBK 301955Z AUTO 25006KT 210V280 9999 FEW007 OVC011 14/13 Q1014 TEMPO BKN004,M
EHBK,2022-06-30 20:25,57.20,55.40,93.69,240.00,7.00,0.00,29.97,M,6.21,M,FEW,BKN,OVC,M,600.00,1600.00,2100.00,M,-RA,M,M,M,M,M,M,57.20,EHBK 302025Z AUTO 24007KT 220V280 9999 -RA FEW006 BKN016 OVC021 14/13 Q1015 TEMPO BKN004,M
EHBK,2022-06-30 20:55,55.40,53.60,93.65,250.00,5.00,0.00,29.97,M,6.21,M,FEW,OVC,M,M,700.00,3000.00,M,M,M,M,M,M,M,M,M,55.40,EHBK 302055Z AUTO 25005KT 210V300 9999 FEW007 OVC030 13/12 Q1015 TEMPO BKN004,M
EHBK,2022-06-30 21:25,55.40,53.60,93.65,240.00,5.00,0.00,29.97,M,6.21,M,SCT,BKN,BKN,M,500.00,700.00,800.00,M,M,M,M,M,M,M,M,55.40,EHBK 302125Z AUTO 24005KT 9999 SCT005 BKN007 BKN008 13/12 Q1015,M
EHBK,2022-06-30 21:55,55.40,53.60,93.65,240.00,6.00,0.00,30.00,M,6.21,M,FEW,SCT,BKN,M,1400.00,1700.00,2100.00,M,M,M,M,M,M,M,M,55.40,EHBK 302155Z AUTO 24006KT 210V270 9999 FEW014 SCT017 BKN021 13/12 Q1016,M
EHBK,2022-06-30 22:25,55.40,53.60,93.65,240.00,6.00,0.00,30.00,M,6.21,M,SCT,BKN,BKN,M,700.00,800.00,1000.00,M,M,M,M,M,M,M,M,55.40,EHBK 302225Z AUTO 24006KT 210V270 9999 SCT007 BKN008 BKN010 13/12 Q1016,M
EHBK,2022-06-30 22:55,55.40,53.60,93.65,220.00,5.00,0.00,30.00,M,6.21,M,FEW,SCT,BKN,M,700.00,800.00,900.00,M,M,M,M,M,M,M,M,55.40,EHBK 302255Z AUTO 22005KT 190V250 9999 FEW007 SCT008 BKN009 13/12 Q1016,M
EHBK,2022-06-30 23:25,55.40,53.60,93.65,210.00,5.00,0.00,30.00,M,6.21,M,FEW,SCT,BKN,M,700.00,800.00,1000.00,M,M,M,M,M,M,M,M,55.40,EHBK 302325Z AUTO 21005KT 9999 FEW007 SCT008 BKN010 13/12 Q1016,M
EHBK,2022-06-30 23:55,55.40,53.60,93.65,210.00,5.00,0.00,30.00,M,6.21,M,FEW,SCT,BKN,M,700.00,900.00,1000.00,M,M,M,M,M,M,M,M,55.40,EHBK 302355Z AUTO 21005KT 9999 FEW007/// SCT009/// BKN010/// 13/12 Q1016,M
EHBK,2022-07-01 00:25,55.40,53.60,93.65,220.00,9.00,0.00,29.97,M,6.21,M,FEW,SCT,OVC,M,800.00,1000.00,1600.00,M,M,M,M,M,M,M,M,55.40,EHBK 010025Z AUTO 22009KT 9999 FEW008/// SCT010/// OVC016/// 13/12 Q1015,M
EHBK,2022-07-01 00:55,55.40,53.60,93.65,210.00,8.00,0.00,30.00,M,6.21,M,FEW,SCT,M,M,800.00,1000.00,M,M,M,M,M,M,M,M,M,55.40,EHBK 010055Z AUTO 21008KT 9999 FEW008 SCT010 13/12 Q1016,M
EHBK,2022-07-01 01:25,55.40,53.60,93.65,220.00,8.00,0.00,30.00,M,6.21,M,FEW,M,M,M,900.00,M,M,M,M,M,M,M,M,M,M,55.40,EHBK 010125Z AUTO 22008KT 9999 FEW009 13/12 Q1016,M
EHBK,2022-07-01 01:55,55.40,51.80,87.65,210.00,7.00,0.00,30.00,M,6.21,M,BKN,M,M,M,2500.00,M,M,M,M,M,M,M,M,M,M,55.40,EHBK 010155Z AUTO 21007KT 180V240 9999 BKN025 13/11 Q1016,M
EHBK,2022-07-01 02:25,55.40,53.60,93.65,200.00,7.00,0.00,30.00,M,6.21,M,SCT,OVC,M,M,1700.00,2100.00,M,M,M,M,M,M,M,M,M,55.40,EHBK 010225Z AUTO 20007KT 160V230 9999 SCT017 OVC021 13/12 Q1016,M
EHBK,2022-07-01 02:55,55.40,53.60,93.65,210.00,8.00,0.00,30.00,M,6.21,M,FEW,BKN,OVC,M,1100.00,1300.00,1600.00,M,M,M,M,M,M,M,M,55.40,EHBK 010255Z AUTO 21008KT 170V230 9999 FEW011 BKN013 OVC016 13/12 Q1016,M
EHBK,2022-07-01 03:25,55.40,53.60,93.65,190.00,7.00,0.00,30.03,M,6.21,M,BKN,BKN,OVC,M,1000.00,1300.00,1600.00,M,M,M,M,M,M,M,M,55.40,EHBK 010325Z AUTO 19007KT 9999 BKN010 BKN013 OVC016 13/12 Q1017,M
EHBK,2022-07-01 03:55,55.40,51.80,87.65,200.00,7.00,0.00,30.03,M,6.21,M,FEW,BKN,OVC,M,900.00,1400.00,1600.00,M,M,M,M,M,M,M,M,55.40,EHBK 010355Z AUTO 20007KT 170V230 9999 FEW009 BKN014 OVC016 13/11 Q1017 NOSIG,M
EHBK,2022-07-01 04:25,55.40,53.60,93.65,210.00,7.00,0.00,30.03,M,6.21,M,BKN,OVC,M,M,1000.00,1500.00,M,M,M,M,M,M,M,M,M,55.40,EHBK 010425Z AUTO 21007KT 9999 BKN010 OVC015 13/12 Q1017 NOSIG,M
EHBK,2022-07-01 04:55,55.40,51.80,87.65,220.00,10.00,0.00,30.03,M,6.21,M,FEW,BKN,OVC,M,900.00,1100.00,1300.00,M,M,M,M,M,M,M,M,55.40,EHBK 010455Z AUTO 22010KT 9999 FEW009 BKN011 OVC013 13/11 Q1017 NOSIG,M
EHBK,2022-07-01 05:25,55.40,53.60,93.65,230.00,10.00,0.00,30.03,M,6.21,M,FEW,BKN,OVC,M,800.00,900.00,1100.00,M,M,M,M,M,M,M,M,55.40,EHBK 010525Z AUTO 23010KT 200V260 9999 FEW008 BKN009 OVC011 13/12 Q1017 BECMG BKN013,M
EHBK,2022-07-01 05:55,57.20,53.60,87.74,240.00,10.00,0.00,30.03,M,6.21,M,SCT,BKN,OVC,M,800.00,900.00,1100.00,M,M,M,M,M,M,M,M,57.20,EHBK 010555Z AUTO 24010KT 210V270 9999 SCT008 BKN009 OVC011 14/12 Q1017 BECMG BKN013,M
EHBK,2022-07-01 06:25,57.20,53.60,87.74,240.00,10.00,0.00,30.03,M,6.21,M,BKN,OVC,M,M,800.00,900.00,M,M,M,M,M,M,M,M,M,57.20,EHBK 010625Z AUTO 24010KT 200V270 9999 BKN008 OVC009 14/12 Q1017 BECMG BKN013,M
EHBK,2022-07-01 06:55,59.00,55.40,87.83,230.00,9.00,0.00,30.03,M,6.21,M,FEW,BKN,BKN,M,800.00,1000.00,1200.00,M,M,M,M,M,M,M,M,59.00,EHBK 010655Z AUTO 23009KT 190V260 9999 FEW008 BKN010 BKN012 15/13 Q1017 BECMG SCT020,M
EHBK,2022-07-01 07:25,59.00,53.60,82.25,230.00,11.00,0.00,30.06,M,6.21,M,FEW,SCT,M,M,1200.00,1600.00,M,M,M,M,M,M,M,M,M,59.00,EHBK 010725Z AUTO 23011KT 200V270 9999 FEW012 SCT016 15/12 Q1018 NOSIG,M
EHBK,2022-07-01 07:55,60.80,53.60,77.14,230.00,10.00,0.00,30.06,M,6.21,M,SCT,BKN,BKN,M,1600.00,2100.00,2500.00,M,M,M,M,M,M,M,M,60.80,EHBK 010755Z AUTO 23010KT 190V280 9999 SCT016 BKN021 BKN025 16/12 Q1018 NOSIG,M
EHBK,2022-07-01 08:25,62.60,51.80,67.75,230.00,9.00,0.00,30.06,M,6.21,M,SCT,BKN,M,M,2100.00,2800.00,M,M,M,M,M,M,M,M,M,62.60,EHBK 010825Z AUTO 23009KT 200V270 9999 SCT021 BKN028 17/11 Q1018 NOSIG,M
EHBK,2022-07-01 08:55,60.80,50.00,67.54,240.00,10.00,0.00,30.06,M,6.21,M,SCT,BKN,M,M,2400.00,2700.00,M,M,M,M,M,M,M,M,M,60.80,EHBK 010855Z AUTO 24010KT 210V290 9999 SCT024 BKN027 16/10 Q1018 NOSIG,M
EHBK,2022-07-01 09:25,62.60,50.00,63.38,250.00,9.00,0.00,30.06,M,6.21,M,SCT,SCT,BKN,M,2600.00,3000.00,3500.00,M,M,M,M,M,M,M,M,62.60,EHBK 010925Z AUTO 25009KT 190V320 9999 SCT026 SCT030 BKN035 17/10 Q1018 NOSIG,M
EHBK,2022-07-01 09:55,64.40,51.80,63.60,230.00,9.00,0.00,30.09,M,6.21,M,NCD,M,M,M,M,M,M,M,M,M,M,M,M,M,M,64.40,EHBK 010955Z AUTO 23009KT 180V270 9999 NCD 18/11 Q1019 NOSIG,M
EHBK,2022-07-01 10:25,64.40,51.80,63.60,220.00,10.00,0.00,30.09,M,6.21,M,NSC,M,M,M,M,M,M,M,M,M,M,M,M,M,M,64.40,EHBK 011025Z AUTO 22010KT 170V260 9999 NSC 18/11 Q1019 NOSIG,M
EHBK,2022-07-01 10:55,64.40,50.00,59.50,230.00,12.00,0.00,30.09,M,6.21,M,NSC,M,M,M,M,M,M,M,M,M,M,M,M,M,M,64.40,EHBK 011055Z AUTO 23012KT 200V270 9999 NSC 18/10 Q1019 NOSIG,M
EHBK,2022-07-01 11:25,64.40,51.80,63.60,230.00,10.00,0.00,30.09,M,6.21,M,FEW,M,M,M,3600.00,M,M,M,M,M,M,M,M,M,M,64.40,EHBK 011125Z AUTO 23010KT 190V280 9999 FEW036 18/11 Q1019 NOSIG,M
EHBK,2022-07-01 11:55,68.00,51.80,56.13,230.00,9.00,0.00,30.09,M,6.21,M,SCT,SCT,BKN,M,3500.00,4200.00,4900.00,M,M,M,M,M,M,M,M,68.00,EHBK 011155Z AUTO 23009KT 170V280 9999 SCT035 SCT042 BKN049 20/11 Q1019 NOSIG,M
EHBK,2022-07-01 12:25,66.20,50.00,55.88,230.00,10.00,0.00,30.09,M,6.21,M,SCT,SCT,M,M,3800.00,4700.00,M,M,M,M,M,M,M,M,M,66.20,EHBK 011225Z AUTO 23010KT 190V290 9999 SCT038 SCT047 19/10 Q1019 NOSIG,M
EHBK,2022-07-01 12:55,66.20,51.80,59.74,260.00,8.00,0.00,30.09,M,6.21,M,NSC,M,M,M,M,M,M,M,M,M,M,M,M,M,M,66.20,EHBK 011255Z AUTO 26008KT 220V320 9999 NSC 19/11 Q1019 NOSIG,M
EHBK,2022-07-01 13:25,68.00,51.80,56.13,240.00,9.00,0.00,30.09,M,6.21,M,NSC,M,M,M,M,M,M,M,M,M,M,M,M,M,M,68.00,EHBK 011325Z AUTO 24009KT 190V300 9999 NSC 20/11 Q1019 NOSIG,M
EHBK,2022-07-01 13:55,66.20,48.20,52.25,230.00,11.00,0.00,30.09,M,6.21,22.00,FEW,M,M,M,4500.00,M,M,M,M,M,M,M,M,M,M,66.20,EHBK 011355Z AUTO 23011G22KT 180V300 9999 FEW045 19/09 Q1019 NOSIG,M
EHBK,2022-07-01 14:25,69.80,48.20,46.16,230.00,12.00,0.00,30.09,M,6.21,M,NCD,M,M,M,M,M,M,M,M,M,M,M,M,M,M,69.80,EHBK 011425Z AUTO 23012KT 190V260 9999 NCD 21/09 Q1019 NOSIG,M
EHBK,2022-07-01 14:55,69.80,48.20,46.16,240.00,12.00,0.00,30.09,M,6.21,M,NCD,M,M,M,M,M,M,M,M,M,M,M,M,M,M,69.80,EHBK 011455Z AUTO 24012KT 200V290 9999 NCD 21/09 Q1019 NOSIG,M
EHBK,2022-07-01 15:25,68.00,48.20,49.10,250.00,9.00,0.00,30.09,M,6.21,M,SCT,M,M,M,4600.00,M,M,M,M,M,M,M,M,M,M,68.00,EHBK 011525Z AUTO 25009KT 210V300 9999 SCT046 20/09 Q1019 NOSIG,M
EHBK,2022-07-01 15:55,69.80,46.40,43.13,230.00,11.00,0.00,30.09,M,6.21,M,FEW,M,M,M,4900.00,M,M,M,M,M,M,M,M,M,M,69.80,EHBK 011555Z AUTO 23011KT 200V310 9999 FEW049 21/08 Q1019 NOSIG,M
EHBK,2022-07-01 16:25,69.80,46.40,43.13,230.00,12.00,0.00,30.09,M,6.21,M,NCD,M,M,M,M,M,M,M,M,M,M,M,M,M,M,69.80,EHBK 011625Z AUTO 23012KT 190V290 9999 NCD 21/08 Q1019 NOSIG,M
EHBK,2022-07-01 16:55,69.80,46.40,43.13,240.00,8.00,0.00,30.09,M,6.21,M,NCD,M,M,M,M,M,M,M,M,M,M,M,M,M,M,69.80,EHBK 011655Z AUTO 24008KT 190V320 9999 NCD 21/08 Q1019 NOSIG,M
EHBK,2022-07-01 17:25,69.80,44.60,40.29,240.00,9.00,0.00,30.09,M,6.21,M,NSC,M,M,M,M,M,M,M,M,M,M,M,M,M,M,69.80,EHBK 011725Z AUTO 24009KT 190V310 9999 NSC 21/07 Q1019 NOSIG,M
EHBK,2022-07-01 17:55,68.00,42.80,40.00,250.00,7.00,0.00,30.12,M,6.21,M,NCD,M,M,M,M,M,M,M,M,M,M,M,M,M,M,68.00,EHBK 011755Z AUTO 25007KT 220V300 9999 NCD 20/06 Q1020 NOSIG,M
EHBK,2022-07-01 18:25,66.20,44.60,45.60,250.00,4.00,0.00,30.12,M,6.21,M,NCD,M,M,M,M,M,M,M,M,M,M,M,M,M,M,66.20,EHBK 011825Z AUTO 25004KT 210V280 9999 NCD 19/07 Q1020 NOSIG,M
EHBK,2022-07-01 18:55,66.20,46.40,48.83,260.00,6.00,0.00,30.12,M,6.21,M,NCD,M,M,M,M,M,M,M,M,M,M,M,M,M,M,66.20,EHBK 011855Z AUTO 26006KT 210V310 9999 NCD 19/08 Q1020 NOSIG,M
EHBK,2022-07-01 19:25,64.40,46.40,51.98,250.00,4.00,0.00,30.12,M,6.21,M,NCD,M,M,M,M,M,M,M,M,M,M,M,M,M,M,64.40,EHBK 011925Z AUTO 25004KT 210V320 9999 NCD 18/08 Q1020 NOSIG,M
EHBK,2022-07-01 19:55,62.60,48.20,59.26,250.00,3.00,0.00,30.15,M,6.21,M,NCD,M,M,M,M,M,M,M,M,M,M,M,M,M,M,62.60,EHBK 011955Z AUTO 25003KT 200V280 9999 NCD 17/09 Q1021 NOSIG,M
EHBK,2022-07-01 20:25,60.80,48.20,63.15,260.00,3.00,0.00,30.15,M,6.21,M,NCD,M,M,M,M,M,M,M,M,M,M,M,M,M,M,60.80,EHBK 012025Z AUTO 26003KT 220V290 9999 NCD 16/09 Q1021 NOSIG,M
EHBK,2022-07-01 20:55,59.00,48.20,67.33,M,2.00,0.00,30.15,M,6.21,M,NCD,M,M,M,M,M,M,M,M,M,M,M,M,M,M,59.00,EHBK 012055Z AUTO VRB02KT 9999 NCD 15/09 Q1021 NOSIG,M
EHBK,2022-07-01 21:25,59.00,48.20,67.33,200.00,3.00,0.00,30.18,M,6.21,M,NCD,M,M,M,M,M,M,M,M,M,M,M,M,M,M,59.00,EHBK 012125Z AUTO 20003KT 9999 NCD 15/09 Q1022,M
EHBK,2022-07-01 21:55,57.20,48.20,71.83,190.00,2.00,0.00,30.18,M,6.21,M,NCD,M,M,M,M,M,M,M,M,M,M,M,M,M,M,57.20,EHBK 012155Z AUTO 19002KT 9999 NCD 14/09 Q1022,M
EHBK,2022-07-01 22:25,57.20,48.20,71.83,170.00,3.00,0.00,30.18,M,6.21,M,NCD,M,M,M,M,M,M,M,M,M,M,M,M,M,M,57.20,EHBK 012225Z AUTO 17003KT 9999 NCD 14/09 Q1022,M
EHBK,2022-07-01 22:55,57.20,48.20,71.83,170.00,3.00,0.00,30.18,M,6.21,M,NCD,M,M,M,M,M,M,M,M,M,M,M,M,M,M,57.20,EHBK 012255Z AUTO 17003KT 9999 NCD 14/09 Q1022,M
EHBK,2022-07-01 23:25,55.40,48.20,76.66,170.00,4.00,0.00,30.18,M,6.21,M,NCD,M,M,M,M,M,M,M,M,M,M,M,M,M,M,55.40,EHBK 012325Z AUTO 17004KT 9999 NCD 13/09 Q1022,M
EHBK,2022-07-01 23:55,55.40,48.20,76.66,170.00,3.00,0.00,30.18,M,6.21,M,NCD,M,M,M,M,M,M,M,M,M,M,M,M,M,M,55.40,EHBK 012355Z AUTO 17003KT 9999 NCD 13/09 Q1022,M
EHBK,2022-07-02 00:25,55.40,48.20,76.66,170.00,3.00,0.00,30.18,M,6.21,M,NCD,M,M,M,M,M,M,M,M,M,M,M,M,M,M,55.40,EHBK 020025Z AUTO 17003KT 9999 NCD 13/09 Q1022,M
EHBK,2022-07-02 00:55,53.60,48.20,81.87,170.00,4.00,0.00,30.18,M,6.21,M,NCD,M,M,M,M,M,M,M,M,M,M,M,M,M,M,53.60,EHBK 020055Z AUTO 17004KT 9999 NCD 12/09 Q1022,M
EHBK,2022-07-02 01:25,53.60,48.20,81.87,170.00,4.00,0.00,30.18,M,6.21,M,NCD,M,M,M,M,M,M,M,M,M,M,M,M,M,M,53.60,EHBK 020125Z AUTO 17004KT 9999 NCD 12/09 Q1022,M
EHBK,2022-07-02 01:55,51.80,48.20,87.47,160.00,3.00,0.00,30.18,M,6.21,M,NCD,M,M,M,M,M,M,M,M,M,M,M,M,M,M,51.80,EHBK 020155Z AUTO 16003KT 9999 NCD 11/09 Q1022,M
EHBK,2022-07-02 02:25,51.80,46.40,81.74,170.00,4.00,0.00,30.18,M,6.21,M,NCD,M,M,M,M,M,M,M,M,M,M,M,M,M,M,51.80,EHBK 020225Z AUTO 17004KT 9999 NCD 11/08 Q1022,M
EHBK,2022-07-02 02:55,51.80,46.40,81.74,170.00,4.00,0.00,30.18,M,6.21,M,NCD,M,M,M,M,M,M,M,M,M,M,M,M,M,M,51.80,EHBK 020255Z AUTO 17004KT 9999 NCD 11/08 Q1022,M
EHBK,2022-07-02 03:25,53.60,46.40,76.50,160.00,5.00,0.00,30.18,M,6.21,M,NCD,M,M,M,M,M,M,M,M,M,M,M,M,M,M,53.60,EHBK 020325Z AUTO 16005KT 9999 NCD 12/08 Q1022,M
EHBK,2022-07-02 03:55,53.60,46.40,76.50,180.00,4.00,0.00,30.18,M,6.21,M,NCD,M,M,M,M,M,M,M,M,M,M,M,M,M,M,53.60,COR EHBK 020355Z AUTO 18004KT 9999 NCD 12/08 Q1022 NOSIG,M
EHBK,2022-07-02 04:25,53.60,48.20,81.87,180.00,4.00,0.00,30.18,M,6.21,M,NCD,M,M,M,M,M,M,M,M,M,M,M,M,M,M,53.60,EHBK 020425Z AUTO 18004KT 9999 NCD 12/09 Q1022 NOSIG,M
EHBK,2022-07-02 04:55,55.40,48.20,76.66,190.00,4.00,0.00,30.18,M,6.21,M,NCD,M,M,M,M,M,M,M,M,M,M,M,M,M,M,55.40,EHBK 020455Z AUTO 19004KT 150V210 9999 NCD 13/09 Q1022 NOSIG,M
EHBK,2022-07-02 05:25,57.20,50.00,76.82,190.00,5.00,0.00,30.18,M,6.21,M,NCD,M,M,M,M,M,M,M,M,M,M,M,M,M,M,57.20,EHBK 020525Z AUTO 19005KT 140V210 9999 NCD 14/10 Q1022 NOSIG,M
EHBK,2022-07-02 05:55,59.00,51.80,76.98,200.00,5.00,0.00,30.18,M,6.21,M,NCD,M,M,M,M,M,M,M,M,M,M,M,M,M,M,59.00,EHBK 020555Z AUTO 20005KT 9999 NCD 15/11 Q1022 NOSIG,M
EHBK,2022-07-02 06:25,60.80,51.80,72.20,200.00,5.00,0.00,30.18,M,6.21,M,NCD,M,M,M,M,M,M,M,M,M,M,M,M,M,M,60.80,EHBK 020625Z AUTO 20005KT 9999 NCD 16/11 Q1022 NOSIG,M
EHBK,2022-07-02 06:55,62.60,51.80,67.75,200.00,5.00,0.00,30.18,M,6.21,M,NCD,M,M,M,M,M,M,M,M,M,M,M,M,M,M,62.60,EHBK 020655Z AUTO 20005KT 160V230 9999 NCD 17/11 Q1022 NOSIG,M
EHBK,2022-07-02 07:25,64.40,50.00,59.50,210.00,7.00,0.00,30.18,M,6.21,M,NCD,M,M,M,M,M,M,M,M,M,M,M,M,M,M,64.40,EHBK 020725Z AUTO 21007KT 170V240 9999 NCD 18/10 Q1022 NOSIG,M
EHBK,2022-07-02 07:55,68.00,50.00,52.51,190.00,7.00,0.00,30.18,M,6.21,M,NCD,M,M,M,M,M,M,M,M,M,M,M,M,M,M,68.00,EHBK 020755Z AUTO 19007KT 160V230 9999 NCD 20/10 Q1022 NOSIG,M
EHBK,2022-07-02 08:25,69.80,51.80,52.77,190.00,7.00,0.00,30.18,M,6.21,M,NCD,M,M,M,M,M,M,M,M,M,M,M,M,M,M,69.80,EHBK 020825Z AUTO 19007KT 140V260 9999 NCD 21/11 Q1022 NOSIG,M
EHBK,2022-07-02 08:55,69.80,48.20,46.16,190.00,10.00,0.00,30.18,M,6.21,M,NCD,M,M,M,M,M,M,M,M,M,M,M,M,M,M,69.80,EHBK 020855Z AUTO 19010KT 150V230 9999 NCD 21/09 Q1022 NOSIG,M
EHBK,2022-07-02 09:25,71.60,46.40,40.57,210.00,8.00,0.00,30.18,M,6.21,M,NCD,M,M,M,M,M,M,M,M,M,M,M,M,M,M,71.60,EHBK 020925Z AUTO 21008KT 170V240 9999 NCD 22/08 Q1022 NOSIG,M
EHBK,2022-07-02 09:55,69.80,46.40,43.13,180.00,9.00,0.00,30.18,M,6.21,M,NSC,M,M,M,M,M,M,M,M,M,M,M,M,M,M,69.80,EHBK 020955Z AUTO 18009KT 130V230 9999 NSC 21/08 Q1022 NOSIG,M
EHBK,2022-07-02 10:25,73.40,46.40,38.18,190.00,8.00,0.00,30.15,M,6.21,M,NSC,M,M,M,M,M,M,M,M,M,M,M,M,M,M,73.40,EHBK 021025Z AUTO 19008KT 140V240 9999 NSC 23/08 Q1021 NOSIG,M
EHBK,2022-07-02 10:55,73.40,48.20,40.85,190.00,8.00,0.00,30.15,M,6.21,M,NSC,M,M,M,M,M,M,M,M,M,M,M,M,M,M,73.40,EHBK 021055Z AUTO 19008KT 110V250 9999 NSC 23/09 Q1021 NOSIG,M
EHBK,2022-07-02 11:25,73.40,48.20,40.85,230.00,8.00,0.00,30.15,M,6.21,M,NSC,M,M,M,M,M,M,M,M,M,M,M,M,M,M,73.40,EHBK 021125Z AUTO 23008KT 180V270 9999 NSC 23/09 Q1021 NOSIG,M
EHBK,2022-07-02 11:55,73.40,48.20,40.85,190.00,7.00,0.00,30.15,M,6.21,M,NSC,M,M,M,M,M,M,M,M,M,M,M,M,M,M,73.40,EHBK 021155Z AUTO 19007KT 120V280 9999 NSC 23/09 Q1021 NOSIG,M
EHBK,2022-07-02 12:25,75.20,48.20,38.46,210.00,10.00,0.00,30.15,M,6.21,M,NSC,M,M,M,M,M,M,M,M,M,M,M,M,M,M,75.20,EHBK 021225Z AUTO 21010KT 110V260 9999 NSC 24/09 Q1021 NOSIG,M
EHBK,2022-07-02 12:55,75.20,48.20,38.46,M,6.00,0.00,30.12,M,6.21,M,NSC,M,M,M,M,M,M,M,M,M,M,M,M,M,M,75.20,EHBK 021255Z AUTO VRB06KT 9999 NSC 24/09 Q1020 NOSIG,M
EHBK,2022-07-02 13:25,75.20,48.20,38.46,210.00,9.00,0.00,30.12,M,6.21,M,NSC,M,M,M,M,M,M,M,M,M,M,M,M,M,M,75.20,EHBK 021325Z AUTO 21009KT 160V320 9999 NSC 24/09 Q1020 NOSIG,M
EHBK,2022-07-02 13:55,77.00,50.00,38.74,200.00,9.00,0.00,30.12,M,6.21,M,NSC,M,M,M,M,M,M,M,M,M,M,M,M,M,M,77.00,EHBK 021355Z AUTO 20009KT 170V270 9999 NSC 25/10 Q1020 NOSIG,M
EHBK,2022-07-02 14:25,77.00,50.00,38.74,190.00,6.00,0.00,30.09,M,6.21,M,NCD,M,M,M,M,M,M,M,M,M,M,M,M,M,M,77.00,EHBK 021425Z AUTO 19006KT 120V250 9999 NCD 25/10 Q1019 NOSIG,M
EHBK,2022-07-02 14:55,77.00,50.00,38.74,200.00,7.00,0.00,30.09,M,6.21,M,NCD,M,M,M,M,M,M,M,M,M,M,M,M,M,M,77.00,EHBK 021455Z AUTO 20007KT 150V250 9999 NCD 25/10 Q1019 NOSIG,M
EHBK,2022-07-02 15:25,77.00,50.00,38.74,190.00,6.00,0.00,30.09,M,6.21,M,NSC,M,M,M,M,M,M,M,M,M,M,M,M,M,M,77.00,EHBK 021525Z AUTO 19006KT 150V250 9999 NSC 25/10 Q1019 NOSIG,M
EHBK,2022-07-02 15:55,77.00,48.20,36.22,220.00,6.00,0.00,30.09,M,6.21,M,NSC,M,M,M,M,M,M,M,M,M,M,M,M,M,M,77.00,EHBK 021555Z AUTO 22006KT 140V300 9999 NSC 25/09 Q1019 NOSIG,M
EHBK,2022-07-02 16:25,77.00,50.00,38.74,260.00,7.00,0.00,30.06,M,6.21,M,NSC,M,M,M,M,M,M,M,M,M,M,M,M,M,M,77.00,EHBK 021625Z AUTO 26007KT 220V320 9999 NSC 25/10 Q1018 NOSIG,M
EHBK,2022-07-02 16:55,77.00,50.00,38.74,290.00,4.00,0.00,30.06,M,6.21,M,NSC,M,M,M,M,M,M,M,M,M,M,M,M,M,M,77.00,EHBK 021655Z AUTO 29004KT 230V350 9999 NSC 25/10 Q1018 NOSIG,M
EHBK,2022-07-02 17:25,73.40,51.80,46.71,290.00,6.00,0.00,30.06,M,6.21,M,NSC,M,M,M,M,M,M,M,M,M,M,M,M,M,M,73.40,EHBK 021725Z AUTO 29006KT 9999 NSC 23/11 Q1018 NOSIG,M
EHBK,2022-07-02 17:55,73.40,53.60,49.90,310.00,5.00,0.00,30.06,M,6.21,M,NSC,M,M,M,M,M,M,M,M,M,M,M,M,M,M,73.40,EHBK 021755Z AUTO 31005KT 260V010 9999 NSC 23/12 Q1018 NOSIG,M
EHBK,2022-07-02 18:25,73.40,51.80,46.71,330.00,5.00,0.00,30.06,M,6.21,M,NSC,M,M,M,M,M,M,M,M,M,M,M,M,M,M,73.40,EHBK 021825Z AUTO 33005KT 290V010 9999 NSC 23/11 Q1018 NOSIG,M
EHBK,2022-07-02 18:55,71.60,51.80,49.64,320.00,4.00,0.00,30.06,M,6.21,M,NSC,M,M,M,M,M,M,M,M,M,M,M,M,M,M,71.60,EHBK 021855Z AUTO 32004KT 9999 NSC 22/11 Q1018 NOSIG,M
EHBK,2022-07-02 19:25,69.80,51.80,52.77,320.00,3.00,0.00,30.06,M,6.21,M,NCD,M,M,M,M,M,M,M,M,M,M,M,M,M,M,69.80,EHBK 021925Z AUTO 32003KT 9999 NCD 21/11 Q1018 NOSIG,M
EHBK,2022-07-02 19:55,68.00,51.80,56.13,330.00,3.00,0.00,30.06,M,6.21,M,NCD,M,M,M,M,M,M,M,M,M,M,M,M,M,M,68.00,EHBK 021955Z AUTO 33003KT 300V020 9999 NCD 20/11 Q1018 NOSIG,M
EHBK,2022-07-02 20:25,68.00,51.80,56.13,350.00,3.00,0.00,30.06,M,6.21,M,NCD,M,M,M,M,M,M,M,M,M,M,M,M,M,M,68.00,EHBK 022025Z AUTO 35003KT 320V020 9999 NCD 20/11 Q1018 NOSIG,M
EHBK,2022-07-02 20:55,66.20,51.80,59.74,360.00,3.00,0.00,30.06,M,6.21,M,NCD,M,M,M,M,M,M,M,M,M,M,M,M,M,M,66.20,EHBK 022055Z AUTO 36003KT 9999 NCD 19/11 Q1018 NOSIG,M
EHBK,2022-07-02 21:25,66.20,51.80,59.74,360.00,2.00,0.00,30.06,M,6.21,M,NCD,M,M,M,M,M,M,M,M,M,M,M,M,M,M,66.20,EHBK 022125Z AUTO 36002KT 9999 NCD 19/11 Q1018,M
EHBK,2022-07-02 21:55,64.40,51.80,63.60,40.00,3.00,0.00,30.06,M,6.21,M,NSC,M,M,M,M,M,M,M,M,M,M,M,M,M,M,64.40,EHBK 022155Z AUTO 04003KT 9999 NSC 18/11 Q1018,M
EHBK,2022-07-02 22:25,62.60,53.60,72.38,70.00,1.00,0.00,30.06,M,6.21,M,NSC,M,M,M,M,M,M,M,M,M,M,M,M,M,M,62.60,EHBK 022225Z AUTO 07001KT 9999 NSC 17/12 Q1018,M
EHBK,2022-07-02 22:55,62.60,51.80,67.75,70.00,1.00,0.00,30.06,M,6.21,M,NCD,M,M,M,M,M,M,M,M,M,M,M,M,M,M,62.60,EHBK 022255Z AUTO 07001KT 9999 NCD 17/11 Q1018,M
EHBK,2022-07-02 23:25,60.80,51.80,72.20,110.00,4.00,0.00,30.06,M,6.21,M,NCD,M,M,M,M,M,M,M,M,M,M,M,M,M,M,60.80,EHBK 022325Z AUTO 11004KT 9999 NCD 16/11 Q1018,M
EHBK,2022-07-02 23:55,60.80,51.80,72.20,150.00,2.00,0.00,30.06,M,6.21,M,NCD,M,M,M,M,M,M,M,M,M,M,M,M,M,M,60.80,EHBK 022355Z AUTO 15002KT 9999 NCD 16/11 Q1018,M
EHBK,2022-07-03 00:25,59.00,51.80,76.98,140.00,4.00,0.00,30.06,M,6.21,M,NCD,M,M,M,M,M,M,M,M,M,M,M,M,M,M,59.00,EHBK 030025Z AUTO 14004KT 9999 NCD 15/11 Q1018,M
EHBK,2022-07-03 00:55,60.80,51.80,72.20,150.00,2.00,0.00,30.06,M,6.21,M,NSC,M,M,M,M,M,M,M,M,M,M,M,M,M,M,60.80,EHBK 030055Z AUTO 15002KT 9999 NSC 16/11 Q1018,M
EHBK,2022-07-03 01:25,57.20,51.80,82.12,180.00,4.00,0.00,30.03,M,6.21,M,NCD,M,M,M,M,M,M,M,M,M,M,M,M,M,M,57.20,EHBK 030125Z AUTO 18004KT 9999 NCD 14/11 Q1017,M
EHBK,2022-07-03 01:55,59.00,51.80,76.98,180.00,4.00,0.00,30.03,M,6.21,M,NCD,M,M,M,M,M,M,M,M,M,M,M,M,M,M,59.00,EHBK 030155Z AUTO 18004KT 9999 NCD 15/11 Q1017,M
EHBK,2022-07-03 02:25,57.20,53.60,87.74,250.00,6.00,0.00,30.06,M,6.21,M,NSC,M,M,M,M,M,M,M,M,M,M,M,M,M,M,57.20,EHBK 030225Z AUTO 25006KT 9999 NSC 14/12 Q1018,M
EHBK,2022-07-03 02:55,57.20,51.80,82.12,280.00,3.00,0.00,30.06,M,6.21,M,NCD,M,M,M,M,M,M,M,M,M,M,M,M,M,M,57.20,EHBK 030255Z AUTO 28003KT 230V310 9999 NCD 14/11 Q1018,M
EHBK,2022-07-03 03:25,55.40,51.80,87.65,270.00,3.00,0.00,30.06,M,6.21,M,NCD,M,M,M,M,M,M,M,M,M,M,M,M,M,M,55.40,EHBK 030325Z AUTO 27003KT 230V310 9999 NCD 13/11 Q1018,M
EHBK,2022-07-03 03:55,53.60,51.80,93.60,230.00,4.00,0.00,30.06,M,6.21,M,NCD,M,M,M,M,M,M,M,M,M,M,M,M,M,M,53.60,EHBK 030355Z AUTO 23004KT 9999 NCD 12/11 Q1018 NOSIG,M
EHBK,2022-07-03 04:25,55.40,53.60,93.65,220.00,5.00,0.00,30.06,M,6.21,M,NCD,M,M,M,M,M,M,M,M,M,M,M,M,M,M,55.40,EHBK 030425Z AUTO 22005KT 9999 NCD 13/12 Q1018 NOSIG,M
EHBK,2022-07-03 04:55,57.20,53.60,87.74,220.00,6.00,0.00,30.06,M,6.21,M,NCD,M,M,M,M,M,M,M,M,M,M,M,M,M,M,57.20,EHBK 030455Z AUTO 22006KT 9999 NCD 14/12 Q1018 NOSIG,M
EHBK,2022-07-03 05:25,59.00,55.40,87.83,220.00,7.00,0.00,30.06,M,6.21,M,NSC,M,M,M,M,M,M,M,M,M,M,M,M,M,M,59.00,EHBK 030525Z AUTO 22007KT 9999 NSC 15/13 Q1018 NOSIG,M
EHBK,2022-07-03 05:55,60.80,55.40,82.37,220.00,7.00,0.00,30.09,M,6.21,M,NSC,M,M,M,M,M,M,M,M,M,M,M,M,M,M,60.80,EHBK 030555Z AUTO 22007KT 190V250 9999 NSC 16/13 Q1019 NOSIG,M
EHBK,2022-07-03 06:25,62.60,53.60,72.38,230.00,9.00,0.00,30.09,M,6.21,M,NCD,M,M,M,M,M,M,M,M,M,M,M,M,M,M,62.60,EHBK 030625Z AUTO 23009KT 210V300 9999 NCD 17/12 Q1019 NOSIG,M
EHBK,2022-07-03 06:55,64.40,53.60,67.95,240.00,7.00,0.00,30.09,M,6.21,M,NCD,M,M,M,M,M,M,M,M,M,M,M,M,M,M,64.40,EHBK 030655Z AUTO 24007KT 200V260 9999 NCD 18/12 Q1019 NOSIG,M
EHBK,2022-07-03 07:25,64.40,53.60,67.95,240.00,7.00,0.00,30.09,M,6.21,M,NCD,M,M,M,M,M,M,M,M,M,M,M,M,M,M,64.40,EHBK 030725Z AUTO 24007KT 190V290 9999 NCD 18/12 Q1019 NOSIG,M
EHBK,2022-07-03 07:55,66.20,53.60,63.82,230.00,5.00,0.00,30.09,M,6.21,M,NCD,M,M,M,M,M,M,M,M,M,M,M,M,M,M,66.20,EHBK 030755Z AUTO 23005KT 180V290 9999 NCD 19/12 Q1019 NOSIG,M
EHBK,2022-07-03 08:25,68.00,53.60,59.97,240.00,5.00,0.00,30.09,M,6.21,M,NCD,M,M,M,M,M,M,M,M,M,M,M,M,M,M,68.00,EHBK 030825Z AUTO 24005KT 180V300 9999 NCD 20/12 Q1019 NOSIG,M
EHBK,2022-07-03 08:55,69.80,53.60,56.38,270.00,5.00,0.00,30.09,M,6.21,M,NCD,M,M,M,M,M,M,M,M,M,M,M,M,M,M,69.80,EHBK 030855Z AUTO 27005KT 210V330 9999 NCD 21/12 Q1019 NOSIG,M
EHBK,2022-07-03 09:25,69.80,53.60,56.38,260.00,6.00,0.00,30.09,M,6.21,M,NCD,M,M,M,M,M,M,M,M,M,M,M,M,M,M,69.80,EHBK 030925Z AUTO 26006KT 180V310 9999 NCD 21/12 Q1019 NOSIG,M
EHBK,2022-07-03 09:55,69.80,53.60,56.38,250.00,6.00,0.00,30.09,M,6.21,M,NSC,M,M,M,M,M,M,M,M,M,M,M,M,M,M,69.80,EHBK 030955Z AUTO 25006KT 190V290 9999 NSC 21/12 Q1019 NOSIG,M
EHBK,2022-07-03 10:25,71.60,55.40,56.63,270.00,7.00,0.00,30.09,M,6.21,M,NSC,M,M,M,M,M,M,M,M,M,M,M,M,M,M,71.60,EHBK 031025Z AUTO 27007KT 210V310 9999 NSC 22/13 Q1019 NOSIG,M
EHBK,2022-07-03 10:55,71.60,55.40,56.63,260.00,6.00,0.00,30.09,M,6.21,M,NSC,M,M,M,M,M,M,M,M,M,M,M,M,M,M,71.60,EHBK 031055Z AUTO 26006KT 200V320 9999 NSC 22/13 Q1019 NOSIG,M
EHBK,2022-07-03 11:25,73.40,55.40,53.29,250.00,8.00,0.00,30.09,M,6.21,M,NSC,M,M,M,M,M,M,M,M,M,M,M,M,M,M,73.40,EHBK 031125Z AUTO 25008KT 190V320 9999 NSC 23/13 Q1019 NOSIG,M
EHBK,2022-07-03 11:55,71.60,55.40,56.63,280.00,8.00,0.00,30.09,M,6.21,M,OVC,M,M,M,3800.00,M,M,M,M,M,M,M,M,M,M,71.60,EHBK 031155Z AUTO 28008KT 210V340 9999 OVC038 22/13 Q1019 NOSIG,M
EHBK,2022-07-03 12:25,71.60,53.60,53.03,280.00,7.00,0.00,30.09,M,6.21,M,FEW,BKN,M,M,4000.00,4600.00,M,M,M,M,M,M,M,M,M,71.60,EHBK 031225Z AUTO 28007KT 210V340 9999 FEW040 BKN046 22/12 Q1019 NOSIG,M
EHBK,2022-07-03 12:55,71.60,53.60,53.03,260.00,8.00,0.00,30.09,M,6.21,M,SCT,SCT,M,M,4000.00,4500.00,M,M,M,M,M,M,M,M,M,71.60,EHBK 031255Z AUTO 26008KT 200V330 9999 SCT040 SCT045 22/12 Q1019 NOSIG,M
EHBK,2022-07-03 13:25,73.40,53.60,49.90,260.00,8.00,0.00,30.06,M,6.21,M,NSC,M,M,M,M,M,M,M,M,M,M,M,M,M,M,73.40,EHBK 031325Z AUTO 26008KT 210V330 9999 NSC 23/12 Q1018 NOSIG,M
EHBK,2022-07-03 13:55,73.40,53.60,49.90,290.00,10.00,0.00,30.09,M,6.21,M,SCT,BKN,M,M,4200.00,4700.00,M,M,M,M,M,M,M,M,M,73.40,EHBK 031355Z AUTO 29010KT 220V360 9999 SCT042 BKN047 23/12 Q1019 NOSIG,M
EHBK,2022-07-03 14:25,73.40,51.80,46.71,270.00,10.00,0.00,30.09,M,6.21,M,BKN,BKN,M,M,4200.00,4900.00,M,M,M,M,M,M,M,M,M,73.40,EHBK 031425Z AUTO 27010KT 210V340 9999 BKN042 BKN049 23/11 Q1019 NOSIG,M
EHBK,2022-07-03 14:55,71.60,51.80,49.64,270.00,8.00,0.00,30.09,M,6.21,M,FEW,M,M,M,4600.00,M,M,M,M,M,M,M,M,M,M,71.60,EHBK 031455Z AUTO 27008KT 210V330 9999 FEW046 22/11 Q1019 NOSIG,M
EHBK,2022-07-03 15:25,73.40,51.80,46.71,260.00,10.00,0.00,30.09,M,6.21,M,NSC,M,M,M,M,M,M,M,M,M,M,M,M,M,M,73.40,EHBK 031525Z AUTO 26010KT 210V330 9999 NSC 23/11 Q1019 NOSIG,M
EHBK,2022-07-03 15:55,71.60,50.00,46.43,260.00,9.00,0.00,30.09,M,6.21,M,NCD,M,M,M,M,M,M,M,M,M,M,M,M,M,M,71.60,EHBK 031555Z AUTO 26009KT 210V330 9999 NCD 22/10 Q1019 NOSIG,M
EHBK,2022-07-03 16:25,71.60,50.00,46.43,260.00,8.00,0.00,30.09,M,6.21,M,NSC,M,M,M,M,M,M,M,M,M,M,M,M,M,M,71.60,EHBK 031625Z AUTO 26008KT 220V330 9999 NSC 22/10 Q1019 NOSIG,M
EHBK,2022-07-03 16:55,71.60,50.00,46.43,290.00,7.00,0.00,30.09,M,6.21,M,NSC,M,M,M,M,M,M,M,M,M,M,M,M,M,M,71.60,EHBK 031655Z AUTO 29007KT 210V350 9999 NSC 22/10 Q1019 NOSIG,M
EHBK,2022-07-03 17:25,71.60,50.00,46.43,280.00,7.00,0.00,30.09,M,6.21,M,NSC,M,M,M,M,M,M,M,M,M,M,M,M,M,M,71.60,EHBK 031725Z AUTO 28007KT 210V360 9999 NSC 22/10 Q1019 NOSIG,M
EHBK,2022-07-03 17:55,69.80,50.00,49.37,300.00,7.00,0.00,30.09,M,6.21,M,NSC,M,M,M,M,M,M,M,M,M,M,M,M,M,M,69.80,EHBK 031755Z AUTO 30007KT 240V360 9999 NSC 21/10 Q1019 NOSIG,M
EHBK,2022-07-03 18:25,68.00,51.80,56.13,320.00,9.00,0.00,30.09,M,6.21,M,NCD,M,M,M,M,M,M,M,M,M,M,M,M,M,M,68.00,EHBK 031825Z AUTO 32009KT 270V360 9999 NCD 20/11 Q1019 NOSIG,M
EHBK,2022-07-03 18:55,66.20,50.00,55.88,320.00,7.00,0.00,30.09,M,6.21,M,NCD,M,M,M,M,M,M,M,M,M,M,M,M,M,M,66.20,EHBK 031855Z AUTO 32007KT 9999 NCD 19/10 Q1019 NOSIG,M
EHBK,2022-07-03 19:25,64.40,50.00,59.50,320.00,7.00,0.00,30.09,M,6.21,M,NCD,M,M,M,M,M,M,M,M,M,M,M,M,M,M,64.40,EHBK 031925Z AUTO 32007KT 290V360 9999 NCD 18/10 Q1019 NOSIG,M
EHBK,2022-07-03 19:55,62.60,50.00,63.38,330.00,6.00,0.00,30.12,M,6.21,M,NCD,M,M,M,M,M,M,M,M,M,M,M,M,M,M,62.60,EHBK 031955Z AUTO 33006KT 9999 NCD 17/10 Q1020 NOSIG,M
EHBK,2022-07-03 20:25,60.80,50.00,67.54,340.00,3.00,0.00,30.12,M,6.21,M,NCD,M,M,M,M,M,M,M,M,M,M,M,M,M,M,60.80,EHBK 032025Z AUTO 34003KT 9999 NCD 16/10 Q1020 NOSIG,M
EHBK,2022-07-03 20:55,60.80,50.00,67.54,330.00,3.00,0.00,30.12,M,6.21,M,NCD,M,M,M,M,M,M,M,M,M,M,M,M,M,M,60.80,EHBK 032055Z AUTO 33003KT 9999 NCD 16/10 Q1020 NOSIG,M
EHBK,2022-07-03 21:25,59.00,50.00,72.01,310.00,3.00,0.00,30.12,M,6.21,M,NCD,M,M,M,M,M,M,M,M,M,M,M,M,M,M,59.00,EHBK 032125Z AUTO 31003KT 270V340 9999 NCD 15/10 Q1020,M
EHBK,2022-07-03 21:55,59.00,50.00,72.01,M,2.00,0.00,30.15,M,6.21,M,NCD,M,M,M,M,M,M,M,M,M,M,M,M,M,M,59.00,EHBK 032155Z AUTO VRB02KT 9999 NCD 15/10 Q1021,M
EHBK,2022-07-03 22:25,57.20,50.00,76.82,310.00,4.00,0.00,30.15,M,6.21,M,NCD,M,M,M,M,M,M,M,M,M,M,M,M,M,M,57.20,EHBK 032225Z AUTO 31004KT 280V340 9999 NCD 14/10 Q1021,M
EHBK,2022-07-03 22:55,57.20,50.00,76.82,310.00,3.00,0.00,30.12,M,6.21,M,NCD,M,M,M,M,M,M,M,M,M,M,M,M,M,M,57.20,EHBK 032255Z AUTO 31003KT 9999 NCD 14/10 Q1020,M
EHBK,2022-07-03 23:25,55.40,50.00,81.99,300.00,2.00,0.00,30.12,M,6.21,M,NCD,M,M,M,M,M,M,M,M,M,M,M,M,M,M,55.40,EHBK 032325Z AUTO 30002KT 9999 NCD 13/10 Q1020,M
EHBK,2022-07-03 23:55,55.40,50.00,81.99,M,1.00,0.00,30.15,M,6.21,M,NCD,M,M,M,M,M,M,M,M,M,M,M,M,M,M,55.40,EHBK 032355Z AUTO VRB01KT 9999 NCD 13/10 Q1021,M
EHBK,2022-07-04 00:25,53.60,48.20,81.87,M,1.00,0.00,30.12,M,6.21,M,NCD,M,M,M,M,M,M,M,M,M,M,M,M,M,M,53.60,EHBK 040025Z AUTO VRB01KT 9999 NCD 12/09 Q1020,M
EHBK,2022-07-04 00:55,53.60,48.20,81.87,200.00,2.00,0.00,30.12,M,6.21,M,NCD,M,M,M,M,M,M,M,M,M,M,M,M,M,M,53.60,EHBK 040055Z AUTO 20002KT 9999 NCD 12/09 Q1020,M
EHBK,2022-07-04 01:25,53.60,48.20,81.87,190.00,3.00,0.00,30.12,M,6.21,M,NCD,M,M,M,M,M,M,M,M,M,M,M,M,M,M,53.60,EHBK 040125Z AUTO 19003KT 9999 NCD 12/09 Q1020,M
EHBK,2022-07-04 01:55,53.60,48.20,81.87,200.00,2.00,0.00,30.12,M,6.21,M,NCD,M,M,M,M,M,M,M,M,M,M,M,M,M,M,53.60,EHBK 040155Z AUTO 20002KT 9999 NCD 12/09 Q1020,M
EHBK,2022-07-04 02:25,51.80,48.20,87.47,200.00,4.00,0.00,30.12,M,6.21,M,FEW,M,M,M,4800.00,M,M,M,M,M,M,M,M,M,M,51.80,EHBK 040225Z AUTO 20004KT 9999 FEW048 11/09 Q1020,M
EHBK,2022-07-04 02:55,51.80,48.20,87.47,200.00,5.00,0.00,30.15,M,6.21,M,NCD,M,M,M,M,M,M,M,M,M,M,M,M,M,M,51.80,EHBK 040255Z AUTO 20005KT 9999 NCD 11/09 Q1021,M
EHBK,2022-07-04 03:25,51.80,48.20,87.47,190.00,4.00,0.00,30.15,M,6.21,M,NCD,M,M,M,M,M,M,M,M,M,M,M,M,M,M,51.80,EHBK 040325Z AUTO 19004KT 9999 NCD 11/09 Q1021,M
EHBK,2022-07-04 03:55,51.80,48.20,87.47,190.00,3.00,0.00,30.15,M,6.21,M,NCD,M,M,M,M,M,M,M,M,M,M,M,M,M,M,51.80,EHBK 040355Z AUTO 19003KT 9999 NCD 11/09 Q1021,M
EHBK,2022-07-04 04:25,53.60,50.00,87.56,190.00,6.00,0.00,30.15,M,6.21,M,NSC,M,M,M,M,M,M,M,M,M,M,M,M,M,M,53.60,EHBK 040425Z AUTO 19006KT 9999 NSC 12/10 Q1021 NOSIG,M
EHBK,2022-07-04 04:55,55.40,50.00,81.99,200.00,4.00,0.00,30.15,M,6.21,M,NCD,M,M,M,M,M,M,M,M,M,M,M,M,M,M,55.40,EHBK 040455Z AUTO 20004KT 9999 NCD 13/10 Q1021 NOSIG,M
EHBK,2022-07-04 05:25,55.40,51.80,87.65,200.00,6.00,0.00,30.15,M,6.21,M,NCD,M,M,M,M,M,M,M,M,M,M,M,M,M,M,55.40,EHBK 040525Z AUTO 20006KT 9999 NCD 13/11 Q1021 NOSIG,M
EHBK,2022-07-04 05:55,57.20,51.80,82.12,200.00,7.00,0.00,30.15,M,6.21,M,NCD,M,M,M,M,M,M,M,M,M,M,M,M,M,M,57.20,EHBK 040555Z AUTO 20007KT 9999 NCD 14/11 Q1021 NOSIG,M
EHBK,2022-07-04 06:25,59.00,51.80,76.98,210.00,7.00,0.00,30.15,M,6.21,M,NCD,M,M,M,M,M,M,M,M,M,M,M,M,M,M,59.00,EHBK 040625Z AUTO 21007KT 9999 NCD 15/11 Q1021 NOSIG,M
EHBK,2022-07-04 06:55,62.60,53.60,72.38,210.00,7.00,0.00,30.15,M,6.21,M,NCD,M,M,M,M,M,M,M,M,M,M,M,M,M,M,62.60,EHBK 040655Z AUTO 21007KT 180V240 9999 NCD 17/12 Q1021 NOSIG,M
EHBK,2022-07-04 07:25,64.40,53.60,67.95,210.00,6.00,0.00,30.15,M,6.21,M,NCD,M,M,M,M,M,M,M,M,M,M,M,M,M,M,64.40,EHBK 040725Z AUTO 21006KT 160V250 9999 NCD 18/12 Q1021 NOSIG,M
EHBK,2022-07-04 07:55,66.20,53.60,63.82,250.00,5.00,0.00,30.15,M,6.21,M,NCD,M,M,M,M,M,M,M,M,M,M,M,M,M,M,66.20,EHBK 040755Z AUTO 25005KT 180V290 9999 NCD 19/12 Q1021 NOSIG,M
EHBK,2022-07-04 08:25,66.20,53.60,63.82,250.00,6.00,0.00,30.15,M,6.21,M,NCD,M,M,M,M,M,M,M,M,M,M,M,M,M,M,66.20,EHBK 040825Z AUTO 25006KT 200V300 9999 NCD 19/12 Q1021 NOSIG,M
EHBK,2022-07-04 08:55,68.00,53.60,59.97,240.00,6.00,0.00,30.15,M,6.21,M,FEW,M,M,M,3200.00,M,M,M,M,M,M,M,M,M,M,68.00,EHBK 040855Z AUTO 24006KT 180V300 9999 FEW032 20/12 Q1021 NOSIG,M
EHBK,2022-07-04 09:25,69.80,50.00,49.37,220.00,7.00,0.00,30.15,M,6.21,M,NCD,M,M,M,M,M,M,M,M,M,M,M,M,M,M,69.80,EHBK 040925Z AUTO 22007KT 160V260 9999 NCD 21/10 Q1021 NOSIG,M
EHBK,2022-07-04 09:55,69.80,51.80,52.77,260.00,6.00,0.00,30.15,M,6.21,M,FEW,M,M,M,3900.00,M,M,M,M,M,M,M,M,M,M,69.80,EHBK 040955Z AUTO 26006KT 200V310 9999 FEW039 21/11 Q1021 NOSIG,M
EHBK,2022-07-04 10:25,69.80,50.00,49.37,220.00,5.00,0.00,30.15,M,6.21,M,NCD,M,M,M,M,M,M,M,M,M,M,M,M,M,M,69.80,EHBK 041025Z AUTO 22005KT 150V310 9999 NCD 21/10 Q1021 NOSIG,M
EHBK,2022-07-04 10:55,71.60,50.00,46.43,270.00,5.00,0.00,30.15,M,6.21,M,NCD,M,M,M,M,M,M,M,M,M,M,M,M,M,M,71.60,EHBK 041055Z AUTO 27005KT 210V360 9999 NCD 22/10 Q1021 NOSIG,M
EHBK,2022-07-04 11:25,73.40,51.80,46.71,240.00,6.00,0.00,30.12,M,6.21,M,NCD,M,M,M,M,M,M,M,M,M,M,M,M,M,M,73.40,EHBK 041125Z AUTO 24006KT 180V320 9999 NCD 23/11 Q1020 NOSIG,M
EHBK,2022-07-04 11:55,73.40,51.80,46.71,M,4.00,0.00,30.12,M,6.21,M,FEW,M,M,M,4800.00,M,M,M,M,M,M,M,M,M,M,73.40,EHBK 041155Z AUTO VRB04KT 9999 FEW048 23/11 Q1020 NOSIG,M
EHBK,2022-07-04 12:25,71.60,50.00,46.43,240.00,7.00,0.00,30.12,M,6.21,M,NSC,M,M,M,M,M,M,M,M,M,M,M,M,M,M,71.60,EHBK 041225Z AUTO 24007KT 170V320 9999 NSC 22/10 Q1020 NOSIG,M
EHBK,2022-07-04 12:55,75.20,50.00,41.14,250.00,4.00,0.00,30.12,M,6.21,M,NSC,M,M,M,M,M,M,M,M,M,M,M,M,M,M,75.20,EHBK 041255Z AUTO 25004KT 180V340 9999 NSC 24/10 Q1020 NOSIG,M
EHBK,2022-07-04 13:25,73.40,48.20,40.85,M,4.00,0.00,30.12,M,6.21,M,NSC,M,M,M,M,M,M,M,M,M,M,M,M,M,M,73.40,EHBK 041325Z AUTO VRB04KT 9999 NSC 23/09 Q1020 NOSIG,M
EHBK,2022-07-04 13:55,75.20,46.40,35.94,230.00,9.00,0.00,30.12,M,6.21,M,NSC,M,M,M,M,M,M,M,M,M,M,M,M,M,M,75.20,EHBK 041355Z AUTO 23009KT 190V280 9999 NSC 24/08 Q1020 NOSIG,M
EHBK,2022-07-04 14:25,75.20,50.00,41.14,240.00,7.00,0.00,30.12,M,6.21,M,NSC,M,M,M,M,M,M,M,M,M,M,M,M,M,M,75.20,EHBK 041425Z AUTO 24007KT 190V290 9999 NSC 24/10 Q1020 NOSIG,M
EHBK,2022-07-04 14:55,73.40,48.20,40.85,290.00,5.00,0.00,30.12,M,6.21,M,NSC,M,M,M,M,M,M,M,M,M,M,M,M,M,M,73.40,EHBK 041455Z AUTO 29005KT 9999 NSC 23/09 Q1020 NOSIG,M
EHBK,2022-07-04 15:25,73.40,48.20,40.85,320.00,6.00,0.00,30.09,M,6.21,M,NCD,M,M,M,M,M,M,M,M,M,M,M,M,M,M,73.40,EHBK 041525Z AUTO 32006KT 280V020 9999 NCD 23/09 Q1019 NOSIG,M
EHBK,2022-07-04 15:55,75.20,50.00,41.14,290.00,4.00,0.00,30.09,M,6.21,M,NSC,M,M,M,M,M,M,M,M,M,M,M,M,M,M,75.20,EHBK 041555Z AUTO 29004KT 230V340 9999 NSC 24/10 Q1019 NOSIG,M
EHBK,2022-07-04 16:25,75.20,48.20,38.46,300.00,3.00,0.00,30.09,M,6.21,M,NSC,M,M,M,M,M,M,M,M,M,M,M,M,M,M,75.20,EHBK 041625Z AUTO 30003KT 220V360 9999 NSC 24/09 Q1019 NOSIG,M
EHBK,2022-07-04 16:55,75.20,50.00,41.14,280.00,5.00,0.00,30.09,M,6.21,M,NSC,M,M,M,M,M,M,M,M,M,M,M,M,M,M,75.20,EHBK 041655Z AUTO 28005KT 220V350 9999 NSC 24/10 Q1019 NOSIG,M
EHBK,2022-07-04 17:25,73.40,50.00,43.69,260.00,6.00,0.00,30.09,M,6.21,M,NCD,M,M,M,M,M,M,M,M,M,M,M,M,M,M,73.40,EHBK 041725Z AUTO 26006KT 210V310 9999 NCD 23/10 Q1019 NOSIG,M
EHBK,2022-07-04 17:55,71.60,50.00,46.43,260.00,6.00,0.00,30.09,M,6.21,M,NCD,M,M,M,M,M,M,M,M,M,M,M,M,M,M,71.60,EHBK 041755Z AUTO 26006KT 210V310 9999 NCD 22/10 Q1019 NOSIG,M
EHBK,2022-07-04 18:25,71.60,50.00,46.43,270.00,5.00,0.00,30.09,M,6.21,M,NSC,M,M,M,M,M,M,M,M,M,M,M,M,M,M,71.60,EHBK 041825Z AUTO 27005KT 220V340 9999 NSC 22/10 Q1019 NOSIG,M
EHBK,2022-07-04 18:55,71.60,48.20,43.42,250.00,4.00,0.00,30.09,M,6.21,M,NCD,M,M,M,M,M,M,M,M,M,M,M,M,M,M,71.60,EHBK 041855Z AUTO 25004KT 220V300 9999 NCD 22/09 Q1019 NOSIG,M
EHBK,2022-07-04 19:25,68.00,50.00,52.51,280.00,3.00,0.00,30.09,M,6.21,M,NSC,M,M,M,M,M,M,M,M,M,M,M,M,M,M,68.00,EHBK 041925Z AUTO 28003KT 240V330 9999 NSC 20/10 Q1019 NOSIG,M
EHBK,2022-07-04 19:55,68.00,50.00,52.51,260.00,3.00,0.00,30.12,M,6.21,M,NSC,M,M,M,M,M,M,M,M,M,M,M,M,M,M,68.00,EHBK 041955Z AUTO 26003KT 230V290 9999 NSC 20/10 Q1020 NOSIG,M
EHBK,2022-07-04 20:25,66.20,51.80,59.74,310.00,4.00,0.00,30.12,M,6.21,M,NSC,M,M,M,M,M,M,M,M,M,M,M,M,M,M,66.20,EHBK 042025Z AUTO 31004KT 270V340 9999 NSC 19/11 Q1020 NOSIG,M
EHBK,2022-07-04 20:55,64.40,53.60,67.95,340.00,8.00,0.00,30.15,M,6.21,M,NSC,M,M,M,M,M,M,M,M,M,M,M,M,M,M,64.40,EHBK 042055Z AUTO 34008KT 9999 NSC 18/12 Q1021,M
EHBK,2022-07-04 21:25,64.40,53.60,67.95,340.00,6.00,0.00,30.15,M,6.21,M,NCD,M,M,M,M,M,M,M,M,M,M,M,M,M,M,64.40,EHBK 042125Z AUTO 34006KT 310V010 9999 NCD 18/12 Q1021,M
EHBK,2022-07-04 21:55,62.60,53.60,72.38,330.00,4.00,0.00,30.15,M,6.21,M,NSC,M,M,M,M,M,M,M,M,M,M,M,M,M,M,62.60,EHBK 042155Z AUTO 33004KT 300V360 9999 NSC 17/12 Q1021,M
EHBK,2022-07-04 22:25,60.80,53.60,77.14,330.00,3.00,0.00,30.15,M,6.21,M,NSC,M,M,M,M,M,M,M,M,M,M,M,M,M,M,60.80,EHBK 042225Z AUTO 33003KT 300V360 9999 NSC 16/12 Q1021,M
EHBK,2022-07-04 22:55,59.00,53.60,82.25,320.00,3.00,0.00,30.15,M,6.21,M,NSC,M,M,M,M,M,M,M,M,M,M,M,M,M,M,59.00,EHBK 042255Z AUTO 32003KT 280V350 9999 NSC 15/12 Q1021,M
EHBK,2022-07-04 23:25,59.00,51.80,76.98,300.00,3.00,0.00,30.15,M,6.21,M,SCT,M,M,M,4900.00,M,M,M,M,M,M,M,M,M,M,59.00,EHBK 042325Z AUTO 30003KT 250V350 9999 SCT049 15/11 Q1021,M
EHBK,2022-07-04 23:55,59.00,53.60,82.25,M,2.00,0.00,30.18,M,6.21,M,FEW,SCT,BKN,M,3800.00,4400.00,4900.00,M,M,M,M,M,M,M,M,59.00,EHBK 042355Z AUTO VRB02KT 9999 FEW038 SCT044 BKN049 15/12 Q1022,M
EHBK,2022-07-05 00:25,59.00,53.60,82.25,M,2.00,0.00,30.15,M,6.21,M,BKN,M,M,M,3900.00,M,M,M,M,M,M,M,M,M,M,59.00,EHBK 050025Z AUTO VRB02KT 9999 BKN039/// 15/12 Q1021,M
EHBK,2022-07-05 00:55,57.20,51.80,82.12,M,2.00,0.00,30.15,M,6.21,M,NSC,M,M,M,M,M,M,M,M,M,M,M,M,M,M,57.20,EHBK 050055Z AUTO VRB02KT 9999 NSC 14/11 Q1021,M
EHBK,2022-07-05 01:25,59.00,51.80,76.98,10.00,2.00,0.00,30.15,M,6.21,M,BKN,M,M,M,3900.00,M,M,M,M,M,M,M,M,M,M,59.00,EHBK 050125Z AUTO 01002KT 9999 BKN039 15/11 Q1021,M
EHBK,2022-07-05 01:55,59.00,51.80,76.98,20.00,3.00,0.00,30.15,M,6.21,M,SCT,OVC,M,M,3900.00,4400.00,M,M,M,M,M,M,M,M,M,59.00,EHBK 050155Z AUTO 02003KT 350V050 9999 SCT039 OVC044 15/11 Q1021,M
EHBK,2022-07-05 02:25,59.00,51.80,76.98,30.00,2.00,0.00,30.15,M,6.21,M,OVC,M,M,M,4000.00,M,M,M,M,M,M,M,M,M,M,59.00,EHBK 050225Z AUTO 03002KT 9999 OVC040 15/11 Q1021,M
EHBK,2022-07-05 02:55,57.20,51.80,82.12,M,2.00,0.00,30.15,M,6.21,M,OVC,M,M,M,4300.00,M,M,M,M,M,M,M,M,M,M,57.20,EHBK 050255Z AUTO VRB02KT 9999 OVC043 14/11 Q1021,M
EHBK,2022-07-05 03:25,55.40,51.80,87.65,200.00,2.00,0.00,30.15,M,6.21,M,NSC,M,M,M,M,M,M,M,M,M,M,M,M,M,M,55.40,EHBK 050325Z AUTO 20002KT 9999 NSC 13/11 Q1021,M
EHBK,2022-07-05 03:55,55.40,51.80,87.65,180.00,4.00,0.00,30.15,M,6.21,M,NSC,M,M,M,M,M,M,M,M,M,M,M,M,M,M,55.40,EHBK 050355Z AUTO 18004KT 9999 NSC 13/11 Q1021 NOSIG,M
EHBK,2022-07-05 04:25,55.40,51.80,87.65,190.00,3.00,0.00,30.15,M,6.21,M,NCD,M,M,M,M,M,M,M,M,M,M,M,M,M,M,55.40,EHBK 050425Z AUTO 19003KT 9999 NCD 13/11 Q1021 NOSIG,M
EHBK,2022-07-05 04:55,57.20,51.80,82.12,220.00,5.00,0.00,30.18,M,6.21,M,NCD,M,M,M,M,M,M,M,M,M,M,M,M,M,M,57.20,EHBK 050455Z AUTO 22005KT 9999 NCD 14/11 Q1022 NOSIG,M
EHBK,2022-07-05 05:25,59.00,53.60,82.25,280.00,3.00,0.00,30.18,M,6.21,M,NCD,M,M,M,M,M,M,M,M,M,M,M,M,M,M,59.00,EHBK 050525Z AUTO 28003KT 250V320 9999 NCD 15/12 Q1022 NOSIG,M
EHBK,2022-07-05 05:55,60.80,53.60,77.14,M,2.00,0.00,30.18,M,6.21,M,NCD,M,M,M,M,M,M,M,M,M,M,M,M,M,M,60.80,EHBK 050555Z AUTO VRB02KT 9999 NCD 16/12 Q1022 NOSIG,M
EHBK,2022-07-05 06:25,62.60,53.60,72.38,280.00,3.00,0.00,30.18,M,6.21,M,NCD,M,M,M,M,M,M,M,M,M,M,M,M,M,M,62.60,EHBK 050625Z AUTO 28003KT 230V330 9999 NCD 17/12 Q1022 NOSIG,M
EHBK,2022-07-05 06:55,62.60,53.60,72.38,270.00,3.00,0.00,30.18,M,6.21,M,NCD,M,M,M,M,M,M,M,M,M,M,M,M,M,M,62.60,EHBK 050655Z AUTO 27003KT 200V350 9999 NCD 17/12 Q1022 NOSIG,M
EHBK,2022-07-05 07:25,64.40,53.60,67.95,230.00,3.00,0.00,30.18,M,6.21,M,NSC,M,M,M,M,M,M,M,M,M,M,M,M,M,M,64.40,EHBK 050725Z AUTO 23003KT 160V330 9999 NSC 18/12 Q1022 NOSIG,M
EHBK,2022-07-05 07:55,66.20,50.00,55.88,290.00,3.00,0.00,30.21,M,6.21,M,NSC,M,M,M,M,M,M,M,M,M,M,M,M,M,M,66.20,EHBK 050755Z AUTO 29003KT 190V350 9999 NSC 19/10 Q1023 NOSIG,M
EHBK,2022-07-05 08:25,68.00,51.80,56.13,M,4.00,0.00,30.21,M,6.21,M,NSC,M,M,M,M,M,M,M,M,M,M,M,M,M,M,68.00,EHBK 050825Z AUTO VRB04KT 9999 NSC 20/11 Q1023 NOSIG,M
EHBK,2022-07-05 08:55,68.00,50.00,52.51,M,4.00,0.00,30.21,M,6.21,M,NCD,M,M,M,M,M,M,M,M,M,M,M,M,M,M,68.00,EHBK 050855Z AUTO VRB04KT 9999 NCD 20/10 Q1023 NOSIG,M
EHBK,2022-07-05 09:25,69.80,50.00,49.37,M,4.00,0.00,30.21,M,6.21,M,NSC,M,M,M,M,M,M,M,M,M,M,M,M,M,M,69.80,EHBK 050925Z AUTO VRB04KT 9999 NSC 21/10 Q1023 NOSIG,M
EHBK,2022-07-05 09:55,69.80,48.20,46.16,240.00,5.00,0.00,30.21,M,6.21,M,FEW,M,M,M,4600.00,M,M,M,M,M,M,M,M,M,M,69.80,EHBK 050955Z AUTO 24005KT 170V300 9999 FEW046 21/09 Q1023 NOSIG,M
EHBK,2022-07-05 10:25,68.00,48.20,49.10,M,5.00,0.00,30.21,M,6.21,M,FEW,M,M,M,4500.00,M,M,M,M,M,M,M,M,M,M,68.00,EHBK 051025Z AUTO VRB05KT 9999 FEW045 20/09 Q1023 NOSIG,M
EHBK,2022-07-05 10:55,71.60,50.00,46.43,230.00,8.00,0.00,30.21,M,6.21,M,NSC,M,M,M,M,M,M,M,M,M,M,M,M,M,M,71.60,EHBK 051055Z AUTO 23008KT 180V270 9999 NSC 22/10 Q1023 NOSIG,M
EHBK,2022-07-05 11:25,71.60,50.00,46.43,320.00,7.00,0.00,30.21,M,6.21,M,BKN,M,M,M,4900.00,M,M,M,M,M,M,M,M,M,M,71.60,EHBK 051125Z AUTO 32007KT 280V360 9999 BKN049 22/10 Q1023 NOSIG,M
EHBK,2022-07-05 11:55,71.60,48.20,43.42,320.00,6.00,0.00,30.18,M,6.21,M,NSC,M,M,M,M,M,M,M,M,M,M,M,M,M,M,71.60,EHBK 051155Z AUTO 32006KT 250V040 9999 NSC 22/09 Q1022 NOSIG,M
EHBK,2022-07-05 12:25,71.60,50.00,46.43,300.00,5.00,0.00,30.18,M,6.21,M,NSC,M,M,M,M,M,M,M,M,M,M,M,M,M,M,71.60,EHBK 051225Z AUTO 30005KT 220V020 9999 NSC 22/10 Q1022 NOSIG,M
EHBK,2022-07-05 12:55,73.40,50.00,43.69,260.00,8.00,0.00,30.18,M,6.21,M,NSC,M,M,M,M,M,M,M,M,M,M,M,M,M,M,73.40,EHBK 051255Z AUTO 26008KT 180V320 9999 NSC 23/10 Q1022 NOSIG,M
EHBK,2022-07-05 13:25,73.40,50.00,43.69,270.00,7.00,0.00,30.18,M,6.21,M,NSC,M,M,M,M,M,M,M,M,M,M,M,M,M,M,73.40,EHBK 051325Z AUTO 27007KT 220V320 9999 NSC 23/10 Q1022 NOSIG,M
EHBK,2022-07-05 13:55,75.20,48.20,38.46,300.00,7.00,0.00,30.18,M,6.21,M,NSC,M,M,M,M,M,M,M,M,M,M,M,M,M,M,75.20,EHBK 051355Z AUTO 30007KT 230V020 9999 NSC 24/09 Q1022 NOSIG,M
EHBK,2022-07-05 14:25,71.60,50.00,46.43,310.00,7.00,0.00,30.18,M,6.21,M,NSC,M,M,M,M,M,M,M,M,M,M,M,M,M,M,71.60,EHBK 051425Z AUTO 31007KT 250V360 9999 NSC 22/10 Q1022 NOSIG,M
EHBK,2022-07-05 14:55,69.80,51.80,52.77,300.00,7.00,0.00,30.18,M,6.21,M,NSC,M,M,M,M,M,M,M,M,M,M,M,M,M,M,69.80,EHBK 051455Z AUTO 30007KT 240V350 9999 NSC 21/11 Q1022 NOSIG,M
EHBK,2022-07-05 15:25,71.60,51.80,49.64,310.00,7.00,0.00,30.18,M,6.21,M,NSC,M,M,M,M,M,M,M,M,M,M,M,M,M,M,71.60,EHBK 051525Z AUTO 31007KT 260V360 9999 NSC 22/11 Q1022 NOSIG,M
EHBK,2022-07-05 15:55,69.80,51.80,52.77,340.00,8.00,0.00,30.18,M,6.21,M,FEW,M,M,M,4400.00,M,M,M,M,M,M,M,M,M,M,69.80,EHBK 051555Z AUTO 34008KT 290V020 9999 FEW044 21/11 Q1022 NOSIG,M
EHBK,2022-07-05 16:25,68.00,51.80,56.13,340.00,9.00,0.00,30.18,M,6.21,M,BKN,BKN,M,M,4000.00,4400.00,M,M,M,M,M,M,M,M,M,68.00,EHBK 051625Z AUTO 34009KT 300V040 9999 BKN040 BKN044 20/11 Q1022 NOSIG,M
EHBK,2022-07-05 16:55,68.00,51.80,56.13,320.00,8.00,0.00,30.21,M,6.21,M,BKN,M,M,M,4800.00,M,M,M,M,M,M,M,M,M,M,68.00,EHBK 051655Z AUTO 32008KT 250V360 9999 BKN048 20/11 Q1023 NOSIG,M
EHBK,2022-07-05 17:25,68.00,50.00,52.51,330.00,9.00,0.00,30.21,M,6.21,M,FEW,SCT,M,M,4200.00,4700.00,M,M,M,M,M,M,M,M,M,68.00,EHBK 051725Z AUTO 33009KT 300V020 9999 FEW042 SCT047 20/10 Q1023 NOSIG,M
EHBK,2022-07-05 17:55,66.20,50.00,55.88,330.00,10.00,0.00,30.21,M,6.21,M,BKN,M,M,M,4100.00,M,M,M,M,M,M,M,M,M,M,66.20,EHBK 051755Z AUTO 33010KT 300V010 9999 BKN041 19/10 Q1023 NOSIG,M
EHBK,2022-07-05 18:25,66.20,50.00,55.88,330.00,10.00,0.00,30.21,M,6.21,M,OVC,M,M,M,4400.00,M,M,M,M,M,M,M,M,M,M,66.20,EHBK 051825Z AUTO 33010KT 280V020 9999 OVC044/// 19/10 Q1023 NOSIG,M
EHBK,2022-07-05 18:55,64.40,48.20,55.63,330.00,9.00,0.00,30.24,M,6.21,M,FEW,M,M,M,4600.00,M,M,M,M,M,M,M,M,M,M,64.40,EHBK 051855Z AUTO 33009KT 290V010 9999 FEW046 18/09 Q1024 NOSIG,M
EHBK,2022-07-05 19:25,62.60,48.20,59.26,330.00,9.00,0.00,30.24,M,6.21,M,FEW,M,M,M,4500.00,M,M,M,M,M,M,M,M,M,M,62.60,EHBK 051925Z AUTO 33009KT 9999 FEW045 17/09 Q1024 NOSIG,M
EHBK,2022-07-05 19:55,62.60,46.40,55.37,320.00,8.00,0.00,30.24,M,6.21,M,BKN,M,M,M,4500.00,M,M,M,M,M,M,M,M,M,M,62.60,EHBK 051955Z AUTO 32008KT 280V350 9999 BKN045 17/08 Q1024 NOSIG,M
EHBK,2022-07-05 20:25,60.80,46.40,59.01,330.00,7.00,0.00,30.27,M,6.21,M,NSC,M,M,M,M,M,M,M,M,M,M,M,M,M,M,60.80,EHBK 052025Z AUTO 33007KT 290V010 9999 NSC 16/08 Q1025 NOSIG,M
EHBK,2022-07-05 20:55,59.00,46.40,62.92,330.00,7.00,0.00,30.27,M,6.21,M,NSC,M,M,M,M,M,M,M,M,M,M,M,M,M,M,59.00,EHBK 052055Z AUTO 33007KT 290V360 9999 NSC 15/08 Q1025 NOSIG,M
EHBK,2022-07-05 21:25,57.20,48.20,71.83,330.00,4.00,0.00,30.27,M,6.21,M,NCD,M,M,M,M,M,M,M,M,M,M,M,M,M,M,57.20,EHBK 052125Z AUTO 33004KT 290V360 9999 NCD 14/09 Q1025 NOSIG,M
EHBK,2022-07-05 21:55,55.40,48.20,76.66,320.00,3.00,0.00,30.27,M,6.21,M,NCD,M,M,M,M,M,M,M,M,M,M,M,M,M,M,55.40,EHBK 052155Z AUTO 32003KT 290V350 9999 NCD 13/09 Q1025 NOSIG,M
EHBK,2022-07-05 22:25,53.60,48.20,81.87,M,2.00,0.00,30.30,M,6.21,M,NCD,M,M,M,M,M,M,M,M,M,M,M,M,M,M,53.60,EHBK 052225Z AUTO VRB02KT 9999 NCD 12/09 Q1026 NOSIG,M
EHBK,2022-07-05 22:55,53.60,48.20,81.87,300.00,3.00,0.00,30.30,M,6.21,M,FEW,M,M,M,4400.00,M,M,M,M,M,M,M,M,M,M,53.60,EHBK 052255Z AUTO 30003KT 260V350 9999 FEW044 12/09 Q1026,M
EHBK,2022-07-05 23:25,53.60,48.20,81.87,310.00,3.00,0.00,30.30,M,6.21,M,NCD,M,M,M,M,M,M,M,M,M,M,M,M,M,M,53.60,EHBK 052325Z AUTO 31003KT 260V340 9999 NCD 12/09 Q1026,M
EHBK,2022-07-05 23:55,51.80,46.40,81.74,300.00,3.00,0.00,30.30,M,6.21,M,NCD,M,M,M,M,M,M,M,M,M,M,M,M,M,M,51.80,EHBK 052355Z AUTO 30003KT 260V350 9999 NCD 11/08 Q1026,M
EHBK,2022-07-06 00:25,51.80,46.40,81.74,280.00,3.00,0.00,30.30,M,6.21,M,M,M,M,M,M,M,M,M,M,M,M,M,M,M,M,51.80,EHBK 060025Z AUTO 28003KT 240V330 CAVOK 11/08 Q1026,M
EHBK,2022-07-06 00:55,50.00,46.40,87.37,M,2.00,0.00,30.30,M,6.21,M,M,M,M,M,M,M,M,M,M,M,M,M,M,M,M,50.00,EHBK 060055Z AUTO VRB02KT CAVOK 10/08 Q1026,M
EHBK,2022-07-06 01:25,50.00,46.40,87.37,300.00,3.00,0.00,30.30,M,6.21,M,M,M,M,M,M,M,M,M,M,M,M,M,M,M,M,50.00,EHBK 060125Z AUTO 30003KT 240V340 CAVOK 10/08 Q1026,M
EHBK,2022-07-06 01:55,50.00,46.40,87.37,300.00,3.00,0.00,30.30,M,6.21,M,M,M,M,M,M,M,M,M,M,M,M,M,M,M,M,50.00,EHBK 060155Z AUTO 30003KT 240V340 CAVOK 10/08 Q1026,M
EHBK,2022-07-06 02:25,50.00,46.40,87.37,300.00,3.00,0.00,30.30,M,6.21,M,M,M,M,M,M,M,M,M,M,M,M,M,M,M,M,50.00,EHBK 060225Z AUTO 30003KT 260V350 CAVOK 10/08 Q1026,M
EHBK,2022-07-06 02:55,50.00,46.40,87.37,300.00,3.00,0.00,30.30,M,6.21,M,M,M,M,M,M,M,M,M,M,M,M,M,M,M,M,50.00,EHBK 060255Z AUTO 30003KT 220V010 CAVOK 10/08 Q1026,M
EHBK,2022-07-06 03:25,50.00,46.40,87.37,M,2.00,0.00,30.30,M,6.21,M,M,M,M,M,M,M,M,M,M,M,M,M,M,M,M,50.00,EHBK 060325Z AUTO VRB02KT CAVOK 10/08 Q1026,M
EHBK,2022-07-06 03:55,50.00,46.40,87.37,M,2.00,0.00,30.30,M,6.21,M,M,M,M,M,M,M,M,M,M,M,M,M,M,M,M,50.00,EHBK 060355Z AUTO VRB02KT CAVOK 10/08 Q1026,M
EHBK,2022-07-06 04:25,50.00,46.40,87.37,M,2.00,0.00,30.30,M,6.21,M,M,M,M,M,M,M,M,M,M,M,M,M,M,M,M,50.00,EHBK 060425Z AUTO VRB02KT CAVOK 10/08 Q1026 NOSIG,M
EHBK,2022-07-06 04:55,51.80,48.20,87.47,M,2.00,0.00,30.30,M,6.21,M,M,M,M,M,M,M,M,M,M,M,M,M,M,M,M,51.80,EHBK 060455Z AUTO VRB02KT CAVOK 11/09 Q1026 NOSIG,M
EHBK,2022-07-06 05:25,51.80,48.20,87.47,210.00,3.00,0.00,30.30,M,6.21,M,M,M,M,M,M,M,M,M,M,M,M,M,M,M,M,51.80,EHBK 060525Z AUTO 21003KT 180V300 CAVOK 11/09 Q1026 NOSIG,M
EHBK,2022-07-06 05:55,55.40,50.00,81.99,240.00,3.00,0.00,30.30,M,6.21,M,M,M,M,M,M,M,M,M,M,M,M,M,M,M,M,55.40,EHBK 060555Z AUTO 24003KT 180V300 CAVOK 13/10 Q1026 NOSIG,M
EHBK,2022-07-06 06:25,57.20,50.00,76.82,250.00,3.00,0.00,30.30,M,6.21,M,M,M,M,M,M,M,M,M,M,M,M,M,M,M,M,57.20,EHBK 060625Z AUTO 25003KT 210V320 CAVOK 14/10 Q1026 NOSIG,M
EHBK,2022-07-06 06:55,59.00,50.00,72.01,290.00,4.00,0.00,30.30,M,6.21,M,M,M,M,M,M,M,M,M,M,M,M,M,M,M,M,59.00,EHBK 060655Z AUTO 29004KT 210V350 CAVOK 15/10 Q1026 NOSIG,M
EHBK,2022-07-06 07:25,60.80,50.00,67.54,260.00,4.00,0.00,30.30,M,6.21,M,FEW,M,M,M,2600.00,M,M,M,M,M,M,M,M,M,M,60.80,EHBK 060725Z AUTO 26004KT 200V320 9999 FEW026 16/10 Q1026 NOSIG,M
EHBK,2022-07-06 07:55,62.60,44.60,51.72,340.00,6.00,0.00,30.30,M,6.21,M,M,M,M,M,M,M,M,M,M,M,M,M,M,M,M,62.60,EHBK 060755Z AUTO 34006KT 280V030 CAVOK 17/07 Q1026 NOSIG,M
EHBK,2022-07-06 08:25,62.60,46.40,55.37,330.00,5.00,0.00,30.30,M,6.21,M,BKN,BKN,M,M,3600.00,4200.00,M,M,M,M,M,M,M,M,M,62.60,EHBK 060825Z AUTO 33005KT 270V010 9999 BKN036 BKN042 17/08 Q1026 NOSIG,M
EHBK,2022-07-06 08:55,62.60,46.40,55.37,330.00,6.00,0.00,30.30,M,6.21,M,SCT,BKN,M,M,4000.00,4500.00,M,M,M,M,M,M,M,M,M,62.60,EHBK 060855Z AUTO 33006KT 290V010 9999 SCT040 BKN045 17/08 Q1026 NOSIG,M
EHBK,2022-07-06 09:25,64.40,44.60,48.55,360.00,7.00,0.00,30.30,M,6.21,M,BKN,BKN,M,M,4000.00,4400.00,M,M,M,M,M,M,M,M,M,64.40,EHBK 060925Z AUTO 36007KT 300V060 9999 BKN040 BKN044 18/07 Q1026 NOSIG,M
EHBK,2022-07-06 09:55,66.20,44.60,45.60,340.00,5.00,0.00,30.30,M,6.21,M,FEW,SCT,M,M,4400.00,4800.00,M,M,M,M,M,M,M,M,M,66.20,EHBK 060955Z AUTO 34005KT 270V030 9999 FEW044 SCT048 19/07 Q1026 NOSIG,M
EHBK,2022-07-06 10:25,66.20,44.60,45.60,340.00,5.00,0.00,30.30,M,6.21,M,BKN,M,M,M,4500.00,M,M,M,M,M,M,M,M,M,M,66.20,EHBK 061025Z AUTO 34005KT 260V050 9999 BKN045 19/07 Q1026 NOSIG,M
EHBK,2022-07-06 10:55,66.20,44.60,45.60,320.00,6.00,0.00,30.30,M,6.21,M,BKN,M,M,M,4600.00,M,M,M,M,M,M,M,M,M,M,66.20,EHBK 061055Z AUTO 32006KT 250V040 9999 BKN046 19/07 Q1026 NOSIG,M
EHBK,2022-07-06 11:25,66.20,46.40,48.83,M,4.00,0.00,30.30,M,6.21,M,SCT,M,M,M,4500.00,M,M,M,M,M,M,M,M,M,M,66.20,EHBK 061125Z AUTO VRB04KT 9999 SCT045 19/08 Q1026 NOSIG,M
EHBK,2022-07-06 11:55,66.20,46.40,48.83,300.00,5.00,0.00,30.30,M,6.21,M,SCT,M,M,M,4600.00,M,M,M,M,M,M,M,M,M,M,66.20,EHBK 061155Z AUTO 30005KT 9999 SCT046 19/08 Q1026 NOSIG,M
EHBK,2022-07-06 12:25,68.00,46.40,45.88,300.00,5.00,0.00,30.30,M,6.21,M,M,M,M,M,M,M,M,M,M,M,M,M,M,M,M,68.00,EHBK 061225Z AUTO 30005KT 220V020 CAVOK 20/08 Q1026 NOSIG,M
EHBK,2022-07-06 12:55,68.00,44.60,42.85,310.00,6.00,0.00,30.27,M,6.21,M,SCT,M,M,M,4600.00,M,M,M,M,M,M,M,M,M,M,68.00,EHBK 061255Z AUTO 31006KT 220V020 9999 SCT046 20/07 Q1025 NOSIG,M
EHBK,2022-07-06 13:25,69.80,48.20,46.16,320.00,6.00,0.00,30.27,M,6.21,M,SCT,M,M,M,4700.00,M,M,M,M,M,M,M,M,M,M,69.80,EHBK 061325Z AUTO 32006KT 250V050 9999 SCT047 21/09 Q1025 NOSIG,M
EHBK,2022-07-06 13:55,69.80,46.40,43.13,290.00,6.00,0.00,30.27,M,6.21,M,BKN,M,M,M,4700.00,M,M,M,M,M,M,M,M,M,M,69.80,EHBK 061355Z AUTO 29006KT 9999 BKN047 21/08 Q1025 NOSIG,M
EHBK,2022-07-06 14:25,68.00,48.20,49.10,270.00,5.00,0.00,30.27,M,6.21,M,BKN,M,M,M,4700.00,M,M,M,M,M,M,M,M,M,M,68.00,EHBK 061425Z AUTO 27005KT 210V330 9999 BKN047 20/09 Q1025 NOSIG,M
EHBK,2022-07-06 14:55,71.60,48.20,43.42,260.00,6.00,0.00,30.27,M,6.21,M,BKN,M,M,M,4700.00,M,M,M,M,M,M,M,M,M,M,71.60,EHBK 061455Z AUTO 26006KT 210V350 9999 BKN047 22/09 Q1025 NOSIG,M
EHBK,2022-07-06 15:25,71.60,50.00,46.43,280.00,5.00,0.00,30.24,M,6.21,M,SCT,M,M,M,4700.00,M,M,M,M,M,M,M,M,M,M,71.60,EHBK 061525Z AUTO 28005KT 220V360 9999 SCT047 22/10 Q1024 NOSIG,M
EHBK,2022-07-06 15:55,71.60,48.20,43.42,280.00,5.00,0.00,30.24,M,6.21,M,NSC,M,M,M,M,M,M,M,M,M,M,M,M,M,M,71.60,EHBK 061555Z AUTO 28005KT 9999 NSC 22/09 Q1024 NOSIG,M
EHBK,2022-07-06 16:25,69.80,50.00,49.37,260.00,6.00,0.00,30.24,M,6.21,M,FEW,M,M,M,4800.00,M,M,M,M,M,M,M,M,M,M,69.80,EHBK 061625Z AUTO 26006KT 200V300 9999 FEW048/// 21/10 Q1024 NOSIG,M
EHBK,2022-07-06 16:55,69.80,50.00,49.37,290.00,5.00,0.00,30.24,M,6.21,M,SCT,M,M,M,4700.00,M,M,M,M,M,M,M,M,M,M,69.80,EHBK 061655Z AUTO 29005KT 240V360 9999 SCT047/// 21/10 Q1024 NOSIG,M
EHBK,2022-07-06 17:25,68.00,50.00,52.51,310.00,5.00,0.00,30.21,M,6.21,M,NSC,M,M,M,M,M,M,M,M,M,M,M,M,M,M,68.00,EHBK 061725Z AUTO 31005KT 9999 NSC 20/10 Q1023 NOSIG,M
EHBK,2022-07-06 17:55,68.00,50.00,52.51,270.00,4.00,0.00,30.21,M,6.21,M,OVC,M,M,M,4600.00,M,M,M,M,M,M,M,M,M,M,68.00,EHBK 061755Z AUTO 27004KT 220V330 9999 OVC046/// 20/10 Q1023 NOSIG,M
EHBK,2022-07-06 18:25,68.00,50.00,52.51,290.00,4.00,0.00,30.21,M,6.21,M,BKN,M,M,M,4500.00,M,M,M,M,M,M,M,M,M,M,68.00,EHBK 061825Z AUTO 29004KT 230V360 9999 BKN045/// 20/10 Q1023 NOSIG,M
EHBK,2022-07-06 18:55,68.00,51.80,56.13,260.00,3.00,0.00,30.21,M,6.21,M,OVC,M,M,M,4700.00,M,M,M,M,M,M,M,M,M,M,68.00,EHBK 061855Z AUTO 26003KT 220V310 9999 OVC047/// 20/11 Q1023 NOSIG,M
EHBK,2022-07-06 19:25,66.20,51.80,59.74,250.00,4.00,0.00,30.21,M,6.21,M,NSC,M,M,M,M,M,M,M,M,M,M,M,M,M,M,66.20,EHBK 061925Z AUTO 25004KT 180V290 9999 NSC 19/11 Q1023 NOSIG,M
EHBK,2022-07-06 19:55,64.40,51.80,63.60,260.00,3.00,0.00,30.21,M,6.21,M,FEW,M,M,M,4500.00,M,M,M,M,M,M,M,M,M,M,64.40,EHBK 061955Z AUTO 26003KT 230V290 9999 FEW045/// 18/11 Q1023 NOSIG,M
EHBK,2022-07-06 20:25,64.40,51.80,63.60,260.00,3.00,0.00,30.21,M,6.21,M,NSC,M,M,M,M,M,M,M,M,M,M,M,M,M,M,64.40,EHBK 062025Z AUTO 26003KT 230V300 9999 NSC 18/11 Q1023 NOSIG,M
EHBK,2022-07-06 20:55,66.20,51.80,59.74,250.00,4.00,0.00,30.21,M,6.21,M,NSC,M,M,M,M,M,M,M,M,M,M,M,M,M,M,66.20,EHBK 062055Z AUTO 25004KT 220V290 9999 NSC 19/11 Q1023 NOSIG,M
EHBK,2022-07-06 21:25,64.40,53.60,67.95,270.00,3.00,0.00,30.21,M,6.21,M,BKN,M,M,M,4400.00,M,M,M,M,M,M,M,M,M,M,64.40,EHBK 062125Z AUTO 27003KT 230V330 9999 BKN044/// 18/12 Q1023,M
EHBK,2022-07-06 21:55,64.40,53.60,67.95,260.00,3.00,0.00,30.21,M,6.21,M,SCT,OVC,M,M,4200.00,4700.00,M,M,M,M,M,M,M,M,M,64.40,EHBK 062155Z AUTO 26003KT 220V310 9999 SCT042/// OVC047/// 18/12 Q1023,M
EHBK,2022-07-06 22:25,64.40,53.60,67.95,260.00,4.00,0.00,30.21,M,6.21,M,SCT,OVC,M,M,4200.00,4700.00,M,M,M,M,M,M,M,M,M,64.40,EHBK 062225Z AUTO 26004KT 220V300 9999 SCT042/// OVC047/// 18/12 Q1023,M
EHBK,2022-07-06 22:55,64.40,53.60,67.95,260.00,4.00,0.00,30.21,M,6.21,M,OVC,M,M,M,4100.00,M,M,M,M,M,M,M,M,M,M,64.40,EHBK 062255Z AUTO 26004KT 210V300 9999 OVC041/// 18/12 Q1023,M
EHBK,2022-07-06 23:25,62.60,53.60,72.38,250.00,5.00,0.00,30.18,M,6.21,M,NSC,M,M,M,M,M,M,M,M,M,M,M,M,M,M,62.60,EHBK 062325Z AUTO 25005KT 210V280 9999 NSC 17/12 Q1022,M
EHBK,2022-07-06 23:55,62.60,53.60,72.38,240.00,5.00,0.00,30.18,M,6.21,M,BKN,M,M,M,3700.00,M,M,M,M,M,M,M,M,M,M,62.60,EHBK 062355Z AUTO 24005KT 210V280 9999 BKN037/// 17/12 Q1022,M
EHBK,2022-07-07 00:25,62.60,53.60,72.38,230.00,5.00,0.00,30.18,M,6.21,M,SCT,M,M,M,4200.00,M,M,M,M,M,M,M,M,M,M,62.60,EHBK 070025Z AUTO 23005KT 9999 SCT042/// 17/12 Q1022,M
EHBK,2022-07-07 00:55,62.60,55.40,77.29,230.00,7.00,0.00,30.15,M,6.21,M,BKN,OVC,M,M,3200.00,3700.00,M,M,M,M,M,M,M,M,M,62.60,EHBK 070055Z AUTO 23007KT 9999 BKN032/// OVC037/// 17/13 Q1021,M
EHBK,2022-07-07 01:25,62.60,55.40,77.29,230.00,9.00,0.00,30.15,M,6.21,M,SCT,M,M,M,4600.00,M,M,M,M,M,M,M,M,M,M,62.60,EHBK 070125Z AUTO 23009KT 9999 SCT046/// 17/13 Q1021,M
EHBK,2022-07-07 01:55,62.60,55.40,77.29,230.00,9.00,0.00,30.15,M,6.21,M,NSC,M,M,M,M,M,M,M,M,M,M,M,M,M,M,62.60,EHBK 070155Z AUTO 23009KT 210V270 9999 NSC 17/13 Q1021,M
EHBK,2022-07-07 02:25,62.60,55.40,77.29,240.00,8.00,0.00,30.15,M,6.21,M,SCT,BKN,OVC,M,3500.00,3900.00,4400.00,M,M,M,M,M,M,M,M,62.60,EHBK 070225Z AUTO 24008KT 210V280 9999 SCT035/// BKN039/// OVC044/// 17/13 Q1021,M
EHBK,2022-07-07 02:55,62.60,55.40,77.29,250.00,8.00,0.00,30.12,M,6.21,M,BKN,M,M,M,4700.00,M,M,M,M,M,M,M,M,M,M,62.60,EHBK 070255Z AUTO 25008KT 210V300 9999 BKN047/// 17/13 Q1020,M
EHBK,2022-07-07 03:25,62.60,55.40,77.29,260.00,7.00,0.00,30.12,M,6.21,M,SCT,SCT,OVC,M,3600.00,4000.00,4700.00,M,M,M,M,M,M,M,M,62.60,EHBK 070325Z AUTO 26007KT 180V300 9999 SCT036/// SCT040/// OVC047/// 17/13 Q1020,M
EHBK,2022-07-07 03:55,62.60,57.20,82.50,250.00,7.00,0.00,30.12,M,6.21,M,FEW,BKN,OVC,M,3700.00,4100.00,4600.00,M,M,M,M,M,M,M,M,62.60,EHBK 070355Z AUTO 25007KT 210V310 9999 FEW037/// BKN041/// OVC046/// 17/14 Q1020,M
EHBK,2022-07-07 04:25,62.60,57.20,82.50,250.00,8.00,0.00,30.12,M,6.21,M,BKN,M,M,M,4700.00,M,M,M,M,M,M,M,M,M,M,62.60,EHBK 070425Z AUTO 25008KT 200V290 9999 BKN047/// 17/14 Q1020 NOSIG,M
EHBK,2022-07-07 04:55,62.60,57.20,82.50,250.00,6.00,0.00,30.12,M,6.21,M,FEW,SCT,BKN,M,2000.00,3000.00,4700.00,M,M,M,M,M,M,M,M,62.60,EHBK 070455Z AUTO 25006KT 210V290 9999 FEW020/// SCT030/// BKN047/// 17/14 Q1020 NOSIG,M
EHBK,2022-07-07 05:25,60.80,57.20,87.92,280.00,9.00,0.00,30.12,M,3.73,M,FEW,SCT,BKN,M,700.00,900.00,1000.00,M,SHRA,M,M,M,M,M,M,60.80,EHBK 070525Z AUTO 28009KT 220V340 6000 SHRA FEW007/// SCT009/// BKN010/// 16/14 Q1020 REDZ NOSIG,M
EHBK,2022-07-07 05:55,60.80,59.00,93.79,290.00,5.00,0.00,30.15,M,6.21,M,FEW,BKN,BKN,M,600.00,700.00,800.00,M,M,M,M,M,M,M,M,60.80,EHBK 070555Z AUTO 29005KT 240V330 9999 FEW006/// BKN007/// BKN008/// 16/15 Q1021 REDZ BECMG BKN020,M
EHBK,2022-07-07 06:25,60.80,59.00,93.79,290.00,6.00,0.00,30.15,M,6.21,M,FEW,SCT,OVC,M,800.00,1000.00,1300.00,M,-RADZ,M,M,M,M,M,M,60.80,EHBK 070625Z AUTO 29006KT 220V340 9999 -RADZ FEW008 SCT010 OVC013 16/15 Q1021 NOSIG,M
EHBK,2022-07-07 06:55,60.80,59.00,93.79,320.00,10.00,0.00,30.15,M,6.21,M,SCT,BKN,BKN,M,600.00,700.00,800.00,M,M,M,M,M,M,M,M,60.80,EHBK 070655Z AUTO 32010KT 240V360 9999 SCT006 BKN007 BKN008 16/15 Q1021 REDZ NOSIG,M
EHBK,2022-07-07 07:25,60.80,57.20,87.92,320.00,11.00,0.00,30.18,M,6.21,M,FEW,BKN,BKN,M,900.00,1100.00,1300.00,M,M,M,M,M,M,M,M,60.80,EHBK 070725Z AUTO 32011KT 280V010 9999 FEW009 BKN011 BKN013 16/14 Q1022 NOSIG,M
EHBK,2022-07-07 07:55,62.60,57.20,82.50,330.00,10.00,0.00,30.18,M,6.21,M,FEW,SCT,BKN,M,1300.00,1600.00,2200.00,M,M,M,M,M,M,M,M,62.60,EHBK 070755Z AUTO 33010KT 270V020 9999 FEW013 SCT016 BKN022 17/14 Q1022 NOSIG,M
EHBK,2022-07-07 08:25,62.60,55.40,77.29,320.00,10.00,0.00,30.18,M,6.21,M,SCT,BKN,OVC,M,1800.00,2200.00,2800.00,M,M,M,M,M,M,M,M,62.60,EHBK 070825Z AUTO 32010KT 280V020 9999 SCT018 BKN022 OVC028 17/13 Q1022 NOSIG,M
EHBK,2022-07-07 08:55,66.20,57.20,72.74,310.00,8.00,0.00,30.18,M,6.21,18.00,FEW,SCT,M,M,2100.00,2600.00,M,M,M,M,M,M,M,M,M,66.20,EHBK 070855Z AUTO 31008G18KT 240V030 9999 FEW021 SCT026 19/14 Q1022 NOSIG,M
EHBK,2022-07-07 09:25,62.60,55.40,77.29,300.00,10.00,0.00,30.21,M,6.21,M,FEW,BKN,OVC,M,1700.00,4100.00,4600.00,M,M,M,M,M,M,M,M,62.60,EHBK 070925Z AUTO 30010KT 210V010 9999 FEW017 BKN041 OVC046 17/13 Q1023 NOSIG,M
EHBK,2022-07-07 09:55,64.40,55.40,72.56,320.00,10.00,0.00,30.21,M,6.21,M,FEW,BKN,BKN,M,1800.00,2400.00,4700.00,M,,M,M,M,M,M,M,64.40,EHBK 070955Z AUTO 32010KT 250V360 9999 // FEW018 BKN024 BKN047 18/13 Q1023 NOSIG,M
EHBK,2022-07-07 10:55,62.60,53.60,72.38,320.00,9.00,0.00,30.24,M,6.21,M,BKN,BKN,OVC,M,2000.00,2300.00,2800.00,M,M,M,M,M,M,M,M,62.60,EHBK 071055Z AUTO 32009KT 230V350 9999 BKN020 BKN023 OVC028 17/12 Q1024 NOSIG,M
EHBK,2022-07-07 11:25,64.40,53.60,67.95,320.00,12.00,0.00,30.24,M,6.21,M,BKN,OVC,M,M,2100.00,2500.00,M,M,M,M,M,M,M,M,M,64.40,EHBK 071125Z AUTO 32012KT 9999 BKN021 OVC025 18/12 Q1024 NOSIG,M
EHBK,2022-07-07 11:55,64.40,53.60,67.95,300.00,8.00,0.00,30.24,M,6.21,M,FEW,SCT,OVC,M,2300.00,3100.00,3600.00,M,M,M,M,M,M,M,M,64.40,EHBK 071155Z AUTO 30008KT 240V350 9999 FEW023 SCT031 OVC036 18/12 Q1024 NOSIG,M
EHBK,2022-07-07 12:25,62.60,55.40,77.29,320.00,10.00,0.00,30.27,M,6.21,M,FEW,OVC,M,M,1800.00,2800.00,M,M,M,M,M,M,M,M,M,62.60,EHBK 071225Z AUTO 32010KT 240V360 9999 FEW018/// OVC028/// 17/13 Q1025 REDZ NOSIG,M
EHBK,2022-07-07 12:55,64.40,55.40,72.56,300.00,7.00,0.00,30.27,M,6.21,M,SCT,BKN,OVC,M,1800.00,2100.00,2500.00,M,M,M,M,M,M,M,M,64.40,EHBK 071255Z AUTO 30007KT 220V020 9999 SCT018 BKN021 OVC025 18/13 Q1025 NOSIG,M
EHBK,2022-07-07 13:25,64.40,57.20,77.45,300.00,7.00,0.00,30.27,M,6.21,M,FEW,SCT,BKN,M,1600.00,1900.00,2400.00,M,M,M,M,M,M,M,M,64.40,EHBK 071325Z AUTO 30007KT 230V340 9999 FEW016 SCT019 BKN024 18/14 Q1025 NOSIG,M
EHBK,2022-07-07 13:55,64.40,57.20,77.45,320.00,8.00,0.00,30.27,M,6.21,M,SCT,BKN,OVC,M,3100.00,3600.00,4100.00,M,M,M,M,M,M,M,M,64.40,EHBK 071355Z AUTO 32008KT 270V010 9999 SCT031 BKN036 OVC041 18/14 Q1025 NOSIG,M
EHBK,2022-07-07 14:25,64.40,55.40,72.56,310.00,9.00,0.00,30.30,M,6.21,19.00,SCT,BKN,BKN,M,2000.00,2300.00,2600.00,M,M,M,M,M,M,M,M,64.40,EHBK 071425Z AUTO 31009G19KT 230V030 9999 SCT020 BKN023 BKN026 18/13 Q1026 NOSIG,M
EHBK,2022-07-07 14:55,68.00,55.40,64.04,310.00,9.00,0.00,30.30,M,6.21,M,BKN,BKN,BKN,M,2300.00,2700.00,3200.00,M,M,M,M,M,M,M,M,68.00,EHBK 071455Z AUTO 31009KT 200V010 9999 BKN023 BKN027 BKN032 20/13 Q1026 NOSIG,M
EHBK,2022-07-07 15:25,68.00,55.40,64.04,300.00,8.00,0.00,30.30,M,6.21,M,FEW,M,M,M,2700.00,M,M,M,M,M,M,M,M,M,M,68.00,EHBK 071525Z AUTO 30008KT 240V360 9999 FEW027 20/13 Q1026 NOSIG,M
EHBK,2022-07-07 15:55,64.40,53.60,67.95,320.00,9.00,0.00,30.30,M,6.21,M,FEW,M,M,M,3100.00,M,M,M,M,M,M,M,M,M,M,64.40,EHBK 071555Z AUTO 32009KT 240V360 9999 FEW031 18/12 Q1026 NOSIG,M
EHBK,2022-07-07 16:25,66.20,51.80,59.74,320.00,12.00,0.00,30.30,M,6.21,M,FEW,SCT,M,M,3900.00,4600.00,M,M,M,M,M,M,M,M,M,66.20,EHBK 071625Z AUTO 32012KT 260V010 9999 FEW039 SCT046 19/11 Q1026 NOSIG,M
EHBK,2022-07-07 16:55,64.40,48.20,55.63,330.00,12.00,0.00,30.30,M,6.21,M,BKN,M,M,M,4300.00,M,M,M,M,M,M,M,M,M,M,64.40,EHBK 071655Z AUTO 33012KT 280V010 9999 BKN043 18/09 Q1026 NOSIG,M
EHBK,2022-07-07 17:25,64.40,48.20,55.63,330.00,12.00,0.00,30.33,M,6.21,M,BKN,M,M,M,4100.00,M,M,M,M,M,M,M,M,M,M,64.40,EHBK 071725Z AUTO 33012KT 280V020 9999 BKN041 18/09 Q1027 NOSIG,M
EHBK,2022-07-07 17:55,64.40,48.20,55.63,320.00,9.00,0.00,30.33,M,6.21,M,FEW,OVC,M,M,3600.00,4500.00,M,M,M,M,M,M,M,M,M,64.40,EHBK 071755Z AUTO 32009KT 9999 FEW036 OVC045 18/09 Q1027 NOSIG,M
EHBK,2022-07-07 18:25,62.60,48.20,59.26,320.00,8.00,0.00,30.33,M,6.21,M,SCT,OVC,M,M,3700.00,4200.00,M,M,M,M,M,M,M,M,M,62.60,EHBK 071825Z AUTO 32008KT 280V360 9999 SCT037 OVC042 17/09 Q1027 NOSIG,M
EHBK,2022-07-07 18:55,62.60,48.20,59.26,330.00,8.00,0.00,30.36,M,6.21,M,FEW,OVC,M,M,3200.00,4100.00,M,M,M,M,M,M,M,M,M,62.60,EHBK 071855Z AUTO 33008KT 290V030 9999 FEW032 OVC041 17/09 Q1028 NOSIG,M
EHBK,2022-07-07 19:25,60.80,48.20,63.15,320.00,9.00,0.00,30.36,M,6.21,M,SCT,OVC,M,M,3000.00,4100.00,M,M,M,M,M,M,M,M,M,60.80,EHBK 071925Z AUTO 32009KT 280V360 9999 SCT030 OVC041 16/09 Q1028 NOSIG,M
EHBK,2022-07-07 19:55,59.00,48.20,67.33,320.00,8.00,0.00,30.36,M,6.21,M,BKN,M,M,M,4200.00,M,M,M,M,M,M,M,M,M,M,59.00,EHBK 071955Z AUTO 32008KT 270V010 9999 BKN042 15/09 Q1028 NOSIG,M
EHBK,2022-07-07 20:25,59.00,48.20,67.33,330.00,7.00,0.00,30.39,M,6.21,M,FEW,OVC,M,M,3600.00,4100.00,M,M,M,M,M,M,M,M,M,59.00,EHBK 072025Z AUTO 33007KT 280V360 9999 FEW036 OVC041 15/09 Q1029 NOSIG,M
EHBK,2022-07-07 20:55,59.00,50.00,72.01,320.00,4.00,0.00,30.39,M,6.21,M,OVC,M,M,M,4100.00,M,M,M,M,M,M,M,M,M,M,59.00,EHBK 072055Z AUTO 32004KT 270V350 9999 OVC041 15/10 Q1029,M
EHBK,2022-07-07 21:25,59.00,50.00,72.01,330.00,6.00,0.00,30.39,M,6.21,M,OVC,M,M,M,3800.00,M,M,M,M,M,M,M,M,M,M,59.00,EHBK 072125Z AUTO 33006KT 9999 OVC038 15/10 Q1029,M
EHBK,2022-07-07 21:55,59.00,48.20,67.33,320.00,6.00,0.00,30.42,M,6.21,M,OVC,M,M,M,3700.00,M,M,M,M,M,M,M,M,M,M,59.00,EHBK 072155Z AUTO 32006KT 280V360 9999 OVC037 15/09 Q1030,M
EHBK,2022-07-07 22:25,59.00,48.20,67.33,330.00,6.00,0.00,30.42,M,6.21,M,OVC,M,M,M,3500.00,M,M,M,M,M,M,M,M,M,M,59.00,EHBK 072225Z AUTO 33006KT 290V020 9999 OVC035 15/09 Q1030,M
EHBK,2022-07-07 22:55,57.20,48.20,71.83,330.00,7.00,0.00,30.42,M,6.21,M,OVC,M,M,M,3800.00,M,M,M,M,M,M,M,M,M,M,57.20,EHBK 072255Z AUTO 33007KT 300V010 9999 OVC038 14/09 Q1030,M
EHBK,2022-07-07 23:25,57.20,48.20,71.83,340.00,6.00,0.00,30.42,M,6.21,M,OVC,M,M,M,3600.00,M,M,M,M,M,M,M,M,M,M,57.20,EHBK 072325Z AUTO 34006KT 300V010 9999 OVC036 14/09 Q1030,M
EHBK,2022-07-07 23:55,57.20,50.00,76.82,330.00,5.00,0.00,30.42,M,6.21,M,OVC,M,M,M,3600.00,M,M,M,M,M,M,M,M,M,M,57.20,EHBK 072355Z AUTO 33005KT 290V360 9999 OVC036 14/10 Q1030,M
EHBK,2022-07-08 00:25,55.40,50.00,81.99,310.00,4.00,0.00,30.42,M,6.21,M,OVC,M,M,M,3600.00,M,M,M,M,M,M,M,M,M,M,55.40,EHBK 080025Z AUTO 31004KT 270V350 9999 OVC036/// 13/10 Q1030,M
EHBK,2022-07-08 00:55,53.60,48.20,81.87,320.00,4.00,0.00,30.42,M,6.21,M,BKN,M,M,M,3600.00,M,M,M,M,M,M,M,M,M,M,53.60,EHBK 080055Z AUTO 32004KT 9999 BKN036 12/09 Q1030,M
EHBK,2022-07-08 01:25,53.60,48.20,81.87,300.00,3.00,0.00,30.42,M,6.21,M,BKN,M,M,M,3600.00,M,M,M,M,M,M,M,M,M,M,53.60,EHBK 080125Z AUTO 30003KT 260V340 9999 BKN036 12/09 Q1030,M
EHBK,2022-07-08 01:55,53.60,48.20,81.87,320.00,4.00,0.00,30.42,M,6.21,M,SCT,M,M,M,3500.00,M,M,M,M,M,M,M,M,M,M,53.60,EHBK 080155Z AUTO 32004KT 9999 SCT035 12/09 Q1030,M
EHBK,2022-07-08 02:25,51.80,48.20,87.47,330.00,3.00,0.00,30.42,M,6.21,M,FEW,M,M,M,3600.00,M,M,M,M,M,M,M,M,M,M,51.80,EHBK 080225Z AUTO 33003KT 9999 FEW036 11/09 Q1030,M
EHBK,2022-07-08 02:55,51.80,48.20,87.47,310.00,3.00,0.00,30.42,M,6.21,M,NSC,M,M,M,M,M,M,M,M,M,M,M,M,M,M,51.80,EHBK 080255Z AUTO 31003KT 250V350 9999 NSC 11/09 Q1030,M
EHBK,2022-07-08 03:25,51.80,48.20,87.47,320.00,3.00,0.00,30.42,M,6.21,M,FEW,M,M,M,3500.00,M,M,M,M,M,M,M,M,M,M,51.80,EHBK 080325Z AUTO 32003KT 290V350 9999 FEW035 11/09 Q1030,M
EHBK,2022-07-08 03:55,51.80,48.20,87.47,320.00,3.00,0.00,30.42,M,6.21,M,NSC,M,M,M,M,M,M,M,M,M,M,M,M,M,M,51.80,EHBK 080355Z AUTO 32003KT 290V350 9999 NSC 11/09 Q1030,M
EHBK,2022-07-08 04:25,51.80,48.20,87.47,320.00,3.00,0.00,30.45,M,6.21,M,NCD,M,M,M,M,M,M,M,M,M,M,M,M,M,M,51.80,EHBK 080425Z AUTO 32003KT 9999 NCD 11/09 Q1031 NOSIG,M
EHBK,2022-07-08 04:55,53.60,50.00,87.56,310.00,3.00,0.00,30.45,M,6.21,M,FEW,M,M,M,3100.00,M,M,M,M,M,M,M,M,M,M,53.60,EHBK 080455Z AUTO 31003KT 280V350 9999 FEW031 12/10 Q1031 NOSIG,M
EHBK,2022-07-08 05:25,55.40,50.00,81.99,300.00,3.00,0.00,30.45,M,6.21,M,NCD,M,M,M,M,M,M,M,M,M,M,M,M,M,M,55.40,EHBK 080525Z AUTO 30003KT 260V340 9999 NCD 13/10 Q1031 NOSIG,M
EHBK,2022-07-08 05:55,57.20,50.00,76.82,330.00,4.00,0.00,30.45,M,6.21,M,NSC,M,M,M,M,M,M,M,M,M,M,M,M,M,M,57.20,EHBK 080555Z AUTO 33004KT 290V010 9999 NSC 14/10 Q1031 NOSIG,M
EHBK,2022-07-08 06:25,59.00,50.00,72.01,330.00,4.00,0.00,30.45,M,6.21,M,FEW,M,M,M,3000.00,M,M,M,M,M,M,M,M,M,M,59.00,EHBK 080625Z AUTO 33004KT 300V020 9999 FEW030 15/10 Q1031 NOSIG,M
EHBK,2022-07-08 06:55,60.80,50.00,67.54,340.00,5.00,0.00,30.47,M,6.21,M,NCD,M,M,M,M,M,M,M,M,M,M,M,M,M,M,60.80,EHBK 080655Z AUTO 34005KT 300V030 9999 NCD 16/10 Q1032 NOSIG,M
EHBK,2022-07-08 07:25,62.60,50.00,63.38,290.00,4.00,0.00,30.45,M,6.21,M,FEW,M,M,M,3000.00,M,M,M,M,M,M,M,M,M,M,62.60,EHBK 080725Z AUTO 29004KT 240V360 9999 FEW030 17/10 Q1031 NOSIG,M
EHBK,2022-07-08 07:55,62.60,48.20,59.26,350.00,4.00,0.00,30.47,M,6.21,M,FEW,M,M,M,2600.00,M,M,M,M,M,M,M,M,M,M,62.60,EHBK 080755Z AUTO 35004KT 300V080 9999 FEW026/// 17/09 Q1032 NOSIG,M
EHBK,2022-07-08 08:25,64.40,48.20,55.63,330.00,4.00,0.00,30.47,M,6.21,M,FEW,M,M,M,2800.00,M,M,M,M,M,M,M,M,M,M,64.40,EHBK 080825Z AUTO 33004KT 230V040 9999 FEW028 18/09 Q1032 NOSIG,M
EHBK,2022-07-08 08:55,66.20,50.00,55.88,M,4.00,0.00,30.47,M,6.21,M,NSC,M,M,M,M,M,M,M,M,M,M,M,M,M,M,66.20,EHBK 080855Z AUTO VRB04KT 9999 NSC 19/10 Q1032 NOSIG,M
EHBK,2022-07-08 09:25,66.20,50.00,55.88,M,5.00,0.00,30.47,M,6.21,M,NSC,M,M,M,M,M,M,M,M,M,M,M,M,M,M,66.20,EHBK 080925Z AUTO VRB05KT 9999 NSC 19/10 Q1032 NOSIG,M
EHBK,2022-07-08 09:55,68.00,50.00,52.51,M,4.00,0.00,30.45,M,6.21,M,FEW,M,M,M,3500.00,M,M,M,M,M,M,M,M,M,M,68.00,EHBK 080955Z AUTO VRB04KT 9999 FEW035 20/10 Q1031 NOSIG,M
EHBK,2022-07-08 10:25,68.00,50.00,52.51,M,4.00,0.00,30.45,M,6.21,M,NSC,M,M,M,M,M,M,M,M,M,M,M,M,M,M,68.00,EHBK 081025Z AUTO VRB04KT 9999 NSC 20/10 Q1031 NOSIG,M
EHBK,2022-07-08 10:55,69.80,50.00,49.37,M,5.00,0.00,30.45,M,6.21,M,NSC,M,M,M,M,M,M,M,M,M,M,M,M,M,M,69.80,EHBK 081055Z AUTO VRB05KT 9999 NSC 21/10 Q1031 NOSIG,M
EHBK,2022-07-08 11:25,71.60,51.80,49.64,M,4.00,0.00,30.45,M,6.21,M,NSC,M,M,M,M,M,M,M,M,M,M,M,M,M,M,71.60,EHBK 081125Z AUTO VRB04KT 9999 NSC 22/11 Q1031 NOSIG,M
EHBK,2022-07-08 11:55,69.80,51.80,52.77,340.00,6.00,0.00,30.45,M,6.21,M,NSC,M,M,M,M,M,M,M,M,M,M,M,M,M,M,69.80,EHBK 081155Z AUTO 34006KT 290V050 9999 NSC 21/11 Q1031 NOSIG,M
EHBK,2022-07-08 12:25,73.40,51.80,46.71,350.00,6.00,0.00,30.45,M,6.21,M,NSC,M,M,M,M,M,M,M,M,M,M,M,M,M,M,73.40,EHBK 081225Z AUTO 35006KT 270V050 9999 NSC 23/11 Q1031 NOSIG,M
EHBK,2022-07-08 12:55,73.40,51.80,46.71,M,5.00,0.00,30.45,M,6.21,M,NSC,M,M,M,M,M,M,M,M,M,M,M,M,M,M,73.40,EHBK 081255Z AUTO VRB05KT 9999 NSC 23/11 Q1031 NOSIG,M
EHBK,2022-07-08 13:25,75.20,51.80,43.97,310.00,6.00,0.00,30.45,M,6.21,M,FEW,M,M,M,4400.00,M,M,M,M,M,M,M,M,M,M,75.20,EHBK 081325Z AUTO 31006KT 240V030 9999 FEW044 24/11 Q1031 NOSIG,M
EHBK,2022-07-08 13:55,75.20,53.60,46.98,330.00,5.00,0.00,30.45,M,6.21,M,FEW,M,M,M,4500.00,M,M,M,M,M,M,M,M,M,M,75.20,EHBK 081355Z AUTO 33005KT 260V030 9999 FEW045 24/12 Q1031 NOSIG,M
EHBK,2022-07-08 14:25,73.40,51.80,46.71,320.00,5.00,0.00,30.45,M,6.21,M,FEW,M,M,M,4400.00,M,M,M,M,M,M,M,M,M,M,73.40,EHBK 081425Z AUTO 32005KT 250V030 9999 FEW044 23/11 Q1031 NOSIG,M
EHBK,2022-07-08 14:55,73.40,53.60,49.90,350.00,7.00,0.00,30.42,M,6.21,M,NSC,M,M,M,M,M,M,M,M,M,M,M,M,M,M,73.40,EHBK 081455Z AUTO 35007KT 300V030 9999 NSC 23/12 Q1030 NOSIG,M
EHBK,2022-07-08 15:25,75.20,53.60,46.98,340.00,6.00,0.00,30.42,M,6.21,M,FEW,M,M,M,4500.00,M,M,M,M,M,M,M,M,M,M,75.20,EHBK 081525Z AUTO 34006KT 280V080 9999 FEW045 24/12 Q1030 NOSIG,M
EHBK,2022-07-08 15:55,73.40,53.60,49.90,330.00,5.00,0.00,30.42,M,6.21,M,NSC,M,M,M,M,M,M,M,M,M,M,M,M,M,M,73.40,EHBK 081555Z AUTO 33005KT 290V020 9999 NSC 23/12 Q1030 NOSIG,M
EHBK,2022-07-08 16:25,73.40,53.60,49.90,320.00,7.00,0.00,30.42,M,6.21,M,NSC,M,M,M,M,M,M,M,M,M,M,M,M,M,M,73.40,EHBK 081625Z AUTO 32007KT 290V360 9999 NSC 23/12 Q1030 NOSIG,M
EHBK,2022-07-08 16:55,73.40,53.60,49.90,330.00,6.00,0.00,30.42,M,6.21,M,NSC,M,M,M,M,M,M,M,M,M,M,M,M,M,M,73.40,EHBK 081655Z AUTO 33006KT 300V360 9999 NSC 23/12 Q1030 NOSIG,M
EHBK,2022-07-08 17:25,73.40,53.60,49.90,340.00,5.00,0.00,30.42,M,6.21,M,NSC,M,M,M,M,M,M,M,M,M,M,M,M,M,M,73.40,EHBK 081725Z AUTO 34005KT 320V020 9999 NSC 23/12 Q1030 NOSIG,M
EHBK,2022-07-08 17:55,73.40,55.40,53.29,340.00,4.00,0.00,30.39,M,6.21,M,NSC,M,M,M,M,M,M,M,M,M,M,M,M,M,M,73.40,EHBK 081755Z AUTO 34004KT 280V020 9999 NSC 23/13 Q1029 NOSIG,M
EHBK,2022-07-08 18:25,73.40,55.40,53.29,350.00,3.00,0.00,30.39,M,6.21,M,FEW,M,M,M,4500.00,M,M,M,M,M,M,M,M,M,M,73.40,EHBK 081825Z AUTO 35003KT 310V050 9999 FEW045 23/13 Q1029 NOSIG,M
EHBK,2022-07-08 18:55,71.60,55.40,56.63,10.00,4.00,0.00,30.39,M,6.21,M,NSC,M,M,M,M,M,M,M,M,M,M,M,M,M,M,71.60,EHBK 081855Z AUTO 01004KT 330V040 9999 NSC 22/13 Q1029 NOSIG,M
EHBK,2022-07-08 19:25,71.60,55.40,56.63,350.00,4.00,0.00,30.39,M,6.21,M,OVC,M,M,M,4400.00,M,M,M,M,M,M,M,M,M,M,71.60,EHBK 081925Z AUTO 35004KT 310V030 9999 OVC044 22/13 Q1029 NOSIG,M
EHBK,2022-07-08 19:55,68.00,55.40,64.04,350.00,3.00,0.00,30.39,M,6.21,M,FEW,M,M,M,4900.00,M,M,M,M,M,M,M,M,M,M,68.00,EHBK 081955Z AUTO 35003KT 9999 FEW049 20/13 Q1029 NOSIG,M
EHBK,2022-07-08 20:25,66.20,55.40,68.15,340.00,2.00,0.00,30.39,M,6.21,M,NSC,M,M,M,M,M,M,M,M,M,M,M,M,M,M,66.20,EHBK 082025Z AUTO 34002KT 9999 NSC 19/13 Q1029 NOSIG,M
EHBK,2022-07-08 20:55,66.20,53.60,63.82,340.00,3.00,0.00,30.39,M,6.21,M,NSC,M,M,M,M,M,M,M,M,M,M,M,M,M,M,66.20,EHBK 082055Z AUTO 34003KT 9999 NSC 19/12 Q1029 NOSIG,M
EHBK,2022-07-08 21:25,64.40,53.60,67.95,330.00,3.00,0.00,30.39,M,6.21,M,NSC,M,M,M,M,M,M,M,M,M,M,M,M,M,M,64.40,COR EHBK 082125Z AUTO 33003KT 9999 NSC 18/12 Q1029,M
EHBK,2022-07-08 21:55,64.40,53.60,67.95,320.00,2.00,0.00,30.39,M,6.21,M,NSC,M,M,M,M,M,M,M,M,M,M,M,M,M,M,64.40,EHBK 082155Z AUTO 32002KT 9999 NSC 18/12 Q1029,M
EHBK,2022-07-08 22:25,62.60,53.60,72.38,M,2.00,0.00,30.39,M,6.21,M,NSC,M,M,M,M,M,M,M,M,M,M,M,M,M,M,62.60,EHBK 082225Z AUTO VRB02KT 9999 NSC 17/12 Q1029,M
EHBK,2022-07-08 22:55,60.80,53.60,77.14,M,2.00,0.00,30.39,M,6.21,M,NSC,M,M,M,M,M,M,M,M,M,M,M,M,M,M,60.80,EHBK 082255Z AUTO VRB02KT 9999 NSC 16/12 Q1029,M
EHBK,2022-07-08 23:25,60.80,53.60,77.14,210.00,4.00,0.00,30.39,M,6.21,M,NSC,M,M,M,M,M,M,M,M,M,M,M,M,M,M,60.80,EHBK 082325Z AUTO 21004KT 9999 NSC 16/12 Q1029,M
EHBK,2022-07-08 23:55,59.00,55.40,87.83,220.00,5.00,0.00,30.39,M,6.21,M,NSC,M,M,M,M,M,M,M,M,M,M,M,M,M,M,59.00,EHBK 082355Z AUTO 22005KT 9999 NSC 15/13 Q1029,M
EHBK,2022-07-09 00:25,59.00,53.60,82.25,220.00,6.00,0.00,30.39,M,6.21,M,NSC,M,M,M,M,M,M,M,M,M,M,M,M,M,M,59.00,EHBK 090025Z AUTO 22006KT 9999 NSC 15/12 Q1029,M
EHBK,2022-07-09 00:55,57.20,53.60,87.74,210.00,4.00,0.00,30.36,M,6.21,M,NSC,M,M,M,M,M,M,M,M,M,M,M,M,M,M,57.20,EHBK 090055Z AUTO 21004KT 9999 NSC 14/12 Q1028,M
EHBK,2022-07-09 01:25,59.00,53.60,82.25,230.00,4.00,0.00,30.36,M,6.21,M,NSC,M,M,M,M,M,M,M,M,M,M,M,M,M,M,59.00,EHBK 090125Z AUTO 23004KT 9999 NSC 15/12 Q1028,M
EHBK,2022-07-09 01:55,57.20,53.60,87.74,230.00,4.00,0.00,30.36,M,6.21,M,NSC,M,M,M,M,M,M,M,M,M,M,M,M,M,M,57.20,EHBK 090155Z AUTO 23004KT 9999 NSC 14/12 Q1028,M
EHBK,2022-07-09 02:25,55.40,53.60,93.65,210.00,6.00,0.00,30.36,M,6.21,M,NSC,M,M,M,M,M,M,M,M,M,M,M,M,M,M,55.40,EHBK 090225Z AUTO 21006KT 9999 NSC 13/12 Q1028,M
EHBK,2022-07-09 02:55,55.40,53.60,93.65,220.00,6.00,0.00,30.36,M,6.21,M,NSC,M,M,M,M,M,M,M,M,M,M,M,M,M,M,55.40,EHBK 090255Z AUTO 22006KT 9999 NSC 13/12 Q1028,M
EHBK,2022-07-09 03:25,55.40,53.60,93.65,220.00,6.00,0.00,30.36,M,6.21,M,NSC,M,M,M,M,M,M,M,M,M,M,M,M,M,M,55.40,EHBK 090325Z AUTO 22006KT 9999 NSC 13/12 Q1028,M
EHBK,2022-07-09 03:55,55.40,53.60,93.65,220.00,6.00,0.00,30.36,M,6.21,M,NSC,M,M,M,M,M,M,M,M,M,M,M,M,M,M,55.40,EHBK 090355Z AUTO 22006KT 9999 NSC 13/12 Q1028 NOSIG,M
EHBK,2022-07-09 04:25,55.40,53.60,93.65,210.00,5.00,0.00,30.36,M,6.21,M,NSC,M,M,M,M,M,M,M,M,M,M,M,M,M,M,55.40,EHBK 090425Z AUTO 21005KT 9999 NSC 13/12 Q1028 NOSIG,M
EHBK,2022-07-09 04:55,57.20,55.40,93.69,210.00,6.00,0.00,30.36,M,6.21,M,NCD,M,M,M,M,M,M,M,M,M,M,M,M,M,M,57.20,EHBK 090455Z AUTO 21006KT 9999 NCD 14/13 Q1028 NOSIG,M
EHBK,2022-07-09 05:25,59.00,55.40,87.83,210.00,5.00,0.00,30.36,M,6.21,M,NSC,M,M,M,M,M,M,M,M,M,M,M,M,M,M,59.00,EHBK 090525Z AUTO 21005KT 9999 NSC 15/13 Q1028 NOSIG,M
EHBK,2022-07-09 05:55,60.80,57.20,87.92,210.00,5.00,0.00,30.36,M,6.21,M,NSC,M,M,M,M,M,M,M,M,M,M,M,M,M,M,60.80,EHBK 090555Z AUTO 21005KT 9999 NSC 16/14 Q1028 NOSIG,M
EHBK,2022-07-09 06:25,62.60,57.20,82.50,210.00,4.00,0.00,30.36,M,6.21,M,NSC,M,M,M,M,M,M,M,M,M,M,M,M,M,M,62.60,EHBK 090625Z AUTO 21004KT 180V240 9999 NSC 17/14 Q1028 NOSIG,M
EHBK,2022-07-09 06:55,66.20,59.00,77.60,210.00,4.00,0.00,30.36,M,6.21,M,FEW,M,M,M,4700.00,M,M,M,M,M,M,M,M,M,M,66.20,EHBK 090655Z AUTO 21004KT 170V260 9999 FEW047 19/15 Q1028 NOSIG,M
EHBK,2022-07-09 07:25,66.20,59.00,77.60,250.00,3.00,0.00,30.36,M,6.21,M,NSC,M,M,M,M,M,M,M,M,M,M,M,M,M,M,66.20,EHBK 090725Z AUTO 25003KT 180V300 9999 NSC 19/15 Q1028 NOSIG,M
EHBK,2022-07-09 07:55,68.00,57.20,68.35,230.00,3.00,0.00,30.36,M,6.21,M,NSC,M,M,M,M,M,M,M,M,M,M,M,M,M,M,68.00,EHBK 090755Z AUTO 23003KT 170V310 9999 NSC 20/14 Q1028 NOSIG,M
EHBK,2022-07-09 08:25,69.80,59.00,68.55,300.00,3.00,0.00,30.36,M,6.21,M,NSC,M,M,M,M,M,M,M,M,M,M,M,M,M,M,69.80,EHBK 090825Z AUTO 30003KT 240V030 9999 NSC 21/15 Q1028 NOSIG,M
EHBK,2022-07-09 08:55,69.80,57.20,64.26,240.00,4.00,0.00,30.33,M,6.21,M,BKN,M,M,M,4800.00,M,M,M,M,M,M,M,M,M,M,69.80,EHBK 090855Z AUTO 24004KT 180V320 9999 BKN048 21/14 Q1027 NOSIG,M
EHBK,2022-07-09 09:25,71.60,57.20,60.44,M,2.00,0.00,30.33,M,6.21,M,FEW,M,M,M,3000.00,M,M,M,M,M,M,M,M,M,M,71.60,EHBK 090925Z AUTO VRB02KT 9999 FEW030 22/14 Q1027 NOSIG,M
EHBK,2022-07-09 09:55,73.40,57.20,56.88,250.00,5.00,0.00,30.33,M,6.21,M,NSC,M,M,M,M,M,M,M,M,M,M,M,M,M,M,73.40,EHBK 090955Z AUTO 25005KT 180V350 9999 NSC 23/14 Q1027 NOSIG,M
EHBK,2022-07-09 10:25,71.60,57.20,60.44,250.00,6.00,0.00,30.33,M,6.21,M,SCT,M,M,M,3200.00,M,M,M,M,M,M,M,M,M,M,71.60,EHBK 091025Z AUTO 25006KT 200V320 9999 SCT032 22/14 Q1027 NOSIG,M
EHBK,2022-07-09 10:55,73.40,57.20,56.88,260.00,6.00,0.00,30.33,M,6.21,M,BKN,BKN,M,M,3800.00,4200.00,M,M,M,M,M,M,M,M,M,73.40,EHBK 091055Z AUTO 26006KT 210V310 9999 BKN038 BKN042 23/14 Q1027 NOSIG,M
EHBK,2022-07-09 11:25,73.40,57.20,56.88,260.00,7.00,0.00,30.30,M,6.21,M,FEW,M,M,M,3900.00,M,M,M,M,M,M,M,M,M,M,73.40,EHBK 091125Z AUTO 26007KT 190V320 9999 FEW039 23/14 Q1026 NOSIG,M
EHBK,2022-07-09 11:55,73.40,57.20,56.88,250.00,8.00,0.00,30.30,M,6.21,M,SCT,BKN,BKN,M,3400.00,4000.00,4600.00,M,M,M,M,M,M,M,M,73.40,EHBK 091155Z AUTO 25008KT 220V310 9999 SCT034 BKN040 BKN046 23/14 Q1026 NOSIG,M
EHBK,2022-07-09 12:25,75.20,57.20,53.55,280.00,8.00,0.00,30.30,M,6.21,M,BKN,BKN,M,M,3500.00,4700.00,M,M,M,M,M,M,M,M,M,75.20,EHBK 091225Z AUTO 28008KT 200V350 9999 BKN035 BKN047 24/14 Q1026 NOSIG,M
EHBK,2022-07-09 12:55,71.60,59.00,64.48,320.00,10.00,0.00,30.30,M,6.21,M,SCT,BKN,M,M,3000.00,3600.00,M,M,M,M,M,M,M,M,M,71.60,EHBK 091255Z AUTO 32010KT 9999 SCT030 BKN036 22/15 Q1026 NOSIG,M
EHBK,2022-07-09 13:25,73.40,57.20,56.88,320.00,10.00,0.00,30.30,M,6.21,M,SCT,SCT,BKN,M,3000.00,3400.00,4000.00,M,M,M,M,M,M,M,M,73.40,EHBK 091325Z AUTO 32010KT 250V010 9999 SCT030 SCT034 BKN040 23/14 Q1026 NOSIG,M
EHBK,2022-07-09 13:55,73.40,55.40,53.29,330.00,11.00,0.00,30.30,M,6.21,M,FEW,SCT,BKN,M,3700.00,4400.00,4800.00,M,M,M,M,M,M,M,M,73.40,EHBK 091355Z AUTO 33011KT 270V360 9999 FEW037 SCT044 BKN048 23/13 Q1026 NOSIG,M
EHBK,2022-07-09 14:25,75.20,53.60,46.98,320.00,10.00,0.00,30.30,M,6.21,M,BKN,M,M,M,4400.00,M,M,M,M,M,M,M,M,M,M,75.20,EHBK 091425Z AUTO 32010KT 250V020 9999 BKN044 24/12 Q1026 NOSIG,M
EHBK,2022-07-09 14:55,73.40,53.60,49.90,320.00,11.00,0.00,30.30,M,6.21,M,FEW,M,M,M,4400.00,M,M,M,M,M,M,M,M,M,M,73.40,EHBK 091455Z AUTO 32011KT 260V010 9999 FEW044 23/12 Q1026 NOSIG,M
EHBK,2022-07-09 15:25,75.20,53.60,46.98,330.00,12.00,0.00,30.30,M,6.21,M,BKN,BKN,M,M,4100.00,4500.00,M,M,M,M,M,M,M,M,M,75.20,EHBK 091525Z AUTO 33012KT 280V360 9999 BKN041 BKN045 24/12 Q1026 NOSIG,M
EHBK,2022-07-09 15:55,73.40,51.80,46.71,330.00,12.00,0.00,30.30,M,6.21,M,FEW,M,M,M,4400.00,M,M,M,M,M,M,M,M,M,M,73.40,EHBK 091555Z AUTO 33012KT 290V010 9999 FEW044 23/11 Q1026 NOSIG,M
EHBK,2022-07-09 16:25,71.60,51.80,49.64,350.00,12.00,0.00,30.30,M,6.21,M,NSC,M,M,M,M,M,M,M,M,M,M,M,M,M,M,71.60,EHBK 091625Z AUTO 35012KT 310V030 9999 NSC 22/11 Q1026 NOSIG,M
EHBK,2022-07-09 16:55,69.80,51.80,52.77,330.00,11.00,0.00,30.30,M,6.21,M,SCT,M,M,M,4200.00,M,M,M,M,M,M,M,M,M,M,69.80,EHBK 091655Z AUTO 33011KT 290V030 9999 SCT042 21/11 Q1026 NOSIG,M
EHBK,2022-07-09 17:25,69.80,48.20,46.16,330.00,10.00,0.00,30.30,M,6.21,M,NSC,M,M,M,M,M,M,M,M,M,M,M,M,M,M,69.80,EHBK 091725Z AUTO 33010KT 300V010 9999 NSC 21/09 Q1026 NOSIG,M
EHBK,2022-07-09 17:55,68.00,50.00,52.51,330.00,9.00,0.00,30.30,M,6.21,M,NSC,M,M,M,M,M,M,M,M,M,M,M,M,M,M,68.00,EHBK 091755Z AUTO 33009KT 290V360 9999 NSC 20/10 Q1026 NOSIG,M
EHBK,2022-07-09 18:25,68.00,51.80,56.13,330.00,8.00,0.00,30.30,M,6.21,M,NSC,M,M,M,M,M,M,M,M,M,M,M,M,M,M,68.00,EHBK 091825Z AUTO 33008KT 290V010 9999 NSC 20/11 Q1026 NOSIG,M
EHBK,2022-07-09 18:55,66.20,53.60,63.82,360.00,10.00,0.00,30.30,M,6.21,M,BKN,BKN,OVC,M,3200.00,3900.00,4800.00,M,M,M,M,M,M,M,M,66.20,EHBK 091855Z AUTO 36010KT 320V040 9999 BKN032 BKN039 OVC048 19/12 Q1026 NOSIG,M
EHBK,2022-07-09 19:25,64.40,51.80,63.60,360.00,12.00,0.00,30.30,M,6.21,M,FEW,BKN,BKN,M,3500.00,3900.00,4600.00,M,M,M,M,M,M,M,M,64.40,EHBK 091925Z AUTO 36012KT 320V040 9999 FEW035 BKN039 BKN046 18/11 Q1026 NOSIG,M
EHBK,2022-07-09 19:55,62.60,50.00,63.38,10.00,14.00,0.00,30.33,M,6.21,M,FEW,M,M,M,3900.00,M,M,M,M,M,M,M,M,M,M,62.60,EHBK 091955Z AUTO 01014KT 330V040 9999 FEW039 17/10 Q1027 NOSIG,M
EHBK,2022-07-09 20:25,60.80,50.00,67.54,10.00,11.00,0.00,30.33,M,6.21,M,FEW,M,M,M,4000.00,M,M,M,M,M,M,M,M,M,M,60.80,EHBK 092025Z AUTO 01011KT 340V050 9999 FEW040 16/10 Q1027 NOSIG,M
EHBK,2022-07-09 20:55,59.00,50.00,72.01,10.00,11.00,0.00,30.33,M,6.21,M,NSC,M,M,M,M,M,M,M,M,M,M,M,M,M,M,59.00,EHBK 092055Z AUTO 01011KT 330V040 9999 NSC 15/10 Q1027,M
EHBK,2022-07-09 21:25,59.00,48.20,67.33,10.00,7.00,0.00,30.36,M,6.21,M,NSC,M,M,M,M,M,M,M,M,M,M,M,M,M,M,59.00,EHBK 092125Z AUTO 01007KT 330V040 9999 NSC 15/09 Q1028,M
EHBK,2022-07-09 21:55,57.20,50.00,76.82,360.00,6.00,0.00,30.36,M,6.21,M,NSC,M,M,M,M,M,M,M,M,M,M,M,M,M,M,57.20,EHBK 092155Z AUTO 36006KT 320V040 9999 NSC 14/10 Q1028,M
EHBK,2022-07-09 22:25,55.40,48.20,76.66,350.00,5.00,0.00,30.33,M,6.21,M,NSC,M,M,M,M,M,M,M,M,M,M,M,M,M,M,55.40,EHBK 092225Z AUTO 35005KT 320V030 9999 NSC 13/09 Q1027,M
EHBK,2022-07-09 22:55,55.40,48.20,76.66,350.00,4.00,0.00,30.33,M,6.21,M,FEW,M,M,M,3600.00,M,M,M,M,M,M,M,M,M,M,55.40,EHBK 092255Z AUTO 35004KT 320V030 9999 FEW036/// 13/09 Q1027,M
EHBK,2022-07-09 23:25,55.40,48.20,76.66,330.00,4.00,0.00,30.36,M,6.21,M,NSC,M,M,M,M,M,M,M,M,M,M,M,M,M,M,55.40,EHBK 092325Z AUTO 33004KT 9999 NSC 13/09 Q1028,M
EHBK,2022-07-09 23:55,53.60,48.20,81.87,340.00,5.00,0.00,30.36,M,6.21,M,FEW,M,M,M,3800.00,M,M,M,M,M,M,M,M,M,M,53.60,EHBK 092355Z AUTO 34005KT 9999 FEW038 12/09 Q1028,M
EHBK,2022-07-10 00:25,53.60,48.20,81.87,350.00,3.00,0.00,30.33,M,6.21,M,NSC,M,M,M,M,M,M,M,M,M,M,M,M,M,M,53.60,EHBK 100025Z AUTO 35003KT 320V020 9999 NSC 12/09 Q1027,M
EHBK,2022-07-10 00:55,51.80,48.20,87.47,330.00,4.00,0.00,30.33,M,6.21,M,NSC,M,M,M,M,M,M,M,M,M,M,M,M,M,M,51.80,EHBK 100055Z AUTO 33004KT 300V360 9999 NSC 11/09 Q1027,M
EHBK,2022-07-10 01:25,51.80,48.20,87.47,310.00,3.00,0.00,30.33,M,6.21,M,FEW,M,M,M,3700.00,M,M,M,M,M,M,M,M,M,M,51.80,EHBK 100125Z AUTO 31003KT 280V350 9999 FEW037 11/09 Q1027,M
EHBK,2022-07-10 01:55,51.80,48.20,87.47,310.00,3.00,0.00,30.33,M,6.21,M,BKN,BKN,M,M,3400.00,3900.00,M,M,M,M,M,M,M,M,M,51.80,EHBK 100155Z AUTO 31003KT 270V330 9999 BKN034 BKN039 11/09 Q1027,M
EHBK,2022-07-10 02:25,51.80,48.20,87.47,350.00,3.00,0.00,30.33,M,6.21,M,FEW,M,M,M,4300.00,M,M,M,M,M,M,M,M,M,M,51.80,EHBK 100225Z AUTO 35003KT 320V020 9999 FEW043 11/09 Q1027,M
EHBK,2022-07-10 02:55,50.00,48.20,93.50,320.00,4.00,0.00,30.33,M,6.21,M,FEW,M,M,M,3500.00,M,M,M,M,M,M,M,M,M,M,50.00,EHBK 100255Z AUTO 32004KT 280V340 9999 FEW035 10/09 Q1027,M
EHBK,2022-07-10 03:25,50.00,46.40,87.37,M,2.00,0.00,30.33,M,6.21,M,BKN,M,M,M,3800.00,M,M,M,M,M,M,M,M,M,M,50.00,EHBK 100325Z AUTO VRB02KT 9999 BKN038 10/08 Q1027,M
EHBK,2022-07-10 03:55,50.00,48.20,93.50,M,2.00,0.00,30.33,M,6.21,M,BKN,M,M,M,3800.00,M,M,M,M,M,M,M,M,M,M,50.00,EHBK 100355Z AUTO VRB02KT 9999 BKN038 10/09 Q1027 NOSIG,M
EHBK,2022-07-10 04:25,51.80,48.20,87.47,M,2.00,0.00,30.33,M,6.21,M,OVC,M,M,M,3500.00,M,M,M,M,M,M,M,M,M,M,51.80,EHBK 100425Z AUTO VRB02KT 9999 OVC035 11/09 Q1027 NOSIG,M
EHBK,2022-07-10 04:55,53.60,50.00,87.56,M,2.00,0.00,30.33,M,6.21,M,OVC,M,M,M,3400.00,M,M,M,M,M,M,M,M,M,M,53.60,EHBK 100455Z AUTO VRB02KT 9999 OVC034 12/10 Q1027 NOSIG,M
EHBK,2022-07-10 05:25,55.40,50.00,81.99,M,2.00,0.00,30.33,M,6.21,M,OVC,M,M,M,3500.00,M,M,M,M,M,M,M,M,M,M,55.40,EHBK 100525Z AUTO VRB02KT 9999 OVC035 13/10 Q1027 NOSIG,M
EHBK,2022-07-10 05:55,55.40,50.00,81.99,M,2.00,0.00,30.33,M,6.21,M,OVC,M,M,M,3400.00,M,M,M,M,M,M,M,M,M,M,55.40,EHBK 100555Z AUTO VRB02KT 9999 OVC034 13/10 Q1027 NOSIG,M
EHBK,2022-07-10 06:25,57.20,50.00,76.82,M,2.00,0.00,30.33,M,6.21,M,OVC,M,M,M,3400.00,M,M,M,M,M,M,M,M,M,M,57.20,EHBK 100625Z AUTO VRB02KT 9999 OVC034 14/10 Q1027 NOSIG,M
EHBK,2022-07-10 06:55,57.20,51.80,82.12,M,1.00,0.00,30.33,M,6.21,M,OVC,M,M,M,3300.00,M,M,M,M,M,M,M,M,M,M,57.20,EHBK 100655Z AUTO VRB01KT 9999 OVC033 14/11 Q1027 NOSIG,M
EHBK,2022-07-10 07:25,59.00,51.80,76.98,330.00,5.00,0.00,30.33,M,6.21,M,BKN,OVC,M,M,3000.00,3600.00,M,M,M,M,M,M,M,M,M,59.00,EHBK 100725Z AUTO 33005KT 300V010 9999 BKN030 OVC036 15/11 Q1027 NOSIG,M
EHBK,2022-07-10 07:55,59.00,51.80,76.98,330.00,4.00,0.00,30.33,M,6.21,M,BKN,OVC,M,M,2700.00,3200.00,M,M,M,M,M,M,M,M,M,59.00,EHBK 100755Z AUTO 33004KT 280V020 9999 BKN027 OVC032 15/11 Q1027 NOSIG,M
EHBK,2022-07-10 08:25,60.80,50.00,67.54,M,4.00,0.00,30.33,M,6.21,M,BKN,OVC,M,M,2700.00,3100.00,M,M,M,M,M,M,M,M,M,60.80,EHBK 100825Z AUTO VRB04KT 9999 BKN027 OVC031 16/10 Q1027 NOSIG,M
EHBK,2022-07-10 08:55,62.60,50.00,63.38,330.00,4.00,0.00,30.33,M,6.21,M,FEW,OVC,M,M,2300.00,2700.00,M,M,M,M,M,M,M,M,M,62.60,EHBK 100855Z AUTO 33004KT 230V010 9999 FEW023 OVC027 17/10 Q1027 NOSIG,M
EHBK,2022-07-10 09:25,62.60,50.00,63.38,290.00,4.00,0.00,30.33,M,6.21,M,OVC,M,M,M,2300.00,M,M,M,M,M,M,M,M,M,M,62.60,EHBK 100925Z AUTO 29004KT 230V330 9999 OVC023 17/10 Q1027 NOSIG,M
EHBK,2022-07-10 09:55,62.60,50.00,63.38,310.00,3.00,0.00,30.30,M,6.21,M,SCT,OVC,M,M,2500.00,2900.00,M,M,M,M,M,M,M,M,M,62.60,EHBK 100955Z AUTO 31003KT 250V020 9999 SCT025 OVC029 17/10 Q1026 NOSIG,M
EHBK,2022-07-10 10:25,62.60,51.80,67.75,360.00,4.00,0.00,30.30,M,6.21,M,OVC,M,M,M,2400.00,M,M,M,M,M,M,M,M,M,M,62.60,EHBK 101025Z AUTO 36004KT 320V050 9999 OVC024 17/11 Q1026 NOSIG,M
EHBK,2022-07-10 10:55,66.20,51.80,59.74,330.00,5.00,0.00,30.30,M,6.21,M,SCT,BKN,BKN,M,2600.00,3000.00,3600.00,M,M,M,M,M,M,M,M,66.20,EHBK 101055Z AUTO 33005KT 250V050 9999 SCT026 BKN030 BKN036 19/11 Q1026 NOSIG,M
EHBK,2022-07-10 11:25,64.40,51.80,63.60,330.00,6.00,0.00,30.30,M,6.21,M,OVC,M,M,M,2500.00,M,M,M,M,M,M,M,M,M,M,64.40,EHBK 101125Z AUTO 33006KT 280V030 9999 OVC025 18/11 Q1026 NOSIG,M
EHBK,2022-07-10 11:55,64.40,51.80,63.60,330.00,5.00,0.00,30.30,M,6.21,M,BKN,OVC,M,M,2800.00,3100.00,M,M,M,M,M,M,M,M,M,64.40,EHBK 101155Z AUTO 33005KT 260V020 9999 BKN028 OVC031 18/11 Q1026 NOSIG,M
EHBK,2022-07-10 12:25,66.20,53.60,63.82,320.00,6.00,0.00,30.30,M,6.21,M,OVC,M,M,M,2500.00,M,M,M,M,M,M,M,M,M,M,66.20,EHBK 101225Z AUTO 32006KT 200V360 9999 OVC025 19/12 Q1026 NOSIG,M
EHBK,2022-07-10 12:55,68.00,53.60,59.97,280.00,4.00,0.00,30.30,M,6.21,M,SCT,SCT,BKN,M,2700.00,3800.00,4700.00,M,M,M,M,M,M,M,M,68.00,EHBK 101255Z AUTO 28004KT 9999 SCT027 SCT038 BKN047 20/12 Q1026 NOSIG,M
EHBK,2022-07-10 13:25,68.00,53.60,59.97,320.00,5.00,0.00,30.30,M,6.21,M,SCT,BKN,OVC,M,2900.00,3300.00,3800.00,M,M,M,M,M,M,M,M,68.00,EHBK 101325Z AUTO 32005KT 250V010 9999 SCT029/// BKN033/// OVC038/// 20/12 Q1026 NOSIG,M
EHBK,2022-07-10 13:55,66.20,53.60,63.82,320.00,6.00,0.00,30.30,M,6.21,M,OVC,M,M,M,3400.00,M,M,M,M,M,M,M,M,M,M,66.20,EHBK 101355Z AUTO 32006KT 250V360 9999 OVC034/// 19/12 Q1026 NOSIG,M
EHBK,2022-07-10 14:25,69.80,53.60,56.38,340.00,7.00,0.00,30.27,M,6.21,M,FEW,BKN,BKN,M,3100.00,3900.00,4700.00,M,M,M,M,M,M,M,M,69.80,EHBK 101425Z AUTO 34007KT 280V020 9999 FEW031/// BKN039/// BKN047/// 21/12 Q1025 NOSIG,M
EHBK,2022-07-10 14:55,69.80,53.60,56.38,350.00,6.00,0.00,30.27,M,6.21,M,SCT,OVC,M,M,3300.00,3700.00,M,M,M,M,M,M,M,M,M,69.80,EHBK 101455Z AUTO 35006KT 300V040 9999 SCT033 OVC037 21/12 Q1025 NOSIG,M
EHBK,2022-07-10 15:25,68.00,53.60,59.97,330.00,6.00,0.00,30.27,M,6.21,M,OVC,M,M,M,3600.00,M,M,M,M,M,M,M,M,M,M,68.00,EHBK 101525Z AUTO 33006KT 260V360 9999 OVC036 20/12 Q1025 NOSIG,M
EHBK,2022-07-10 15:55,68.00,53.60,59.97,320.00,6.00,0.00,30.27,M,6.21,M,SCT,OVC,M,M,3300.00,3700.00,M,M,M,M,M,M,M,M,M,68.00,EHBK 101555Z AUTO 32006KT 280V010 9999 SCT033 OVC037 20/12 Q1025 NOSIG,M
EHBK,2022-07-10 16:25,68.00,55.40,64.04,340.00,6.00,0.00,30.27,M,6.21,M,BKN,BKN,OVC,M,3300.00,3700.00,4300.00,M,M,M,M,M,M,M,M,68.00,EHBK 101625Z AUTO 34006KT 290V020 9999 BKN033 BKN037 OVC043 20/13 Q1025 NOSIG,M
EHBK,2022-07-10 16:55,68.00,55.40,64.04,340.00,6.00,0.00,30.27,M,6.21,M,BKN,OVC,M,M,3300.00,3900.00,M,M,M,M,M,M,M,M,M,68.00,EHBK 101655Z AUTO 34006KT 300V010 9999 BKN033 OVC039 20/13 Q1025 NOSIG,M
EHBK,2022-07-10 17:25,68.00,55.40,64.04,330.00,5.00,0.00,30.27,M,6.21,M,SCT,BKN,OVC,M,3300.00,3900.00,4400.00,M,M,M,M,M,M,M,M,68.00,EHBK 101725Z AUTO 33005KT 290V010 9999 SCT033 BKN039 OVC044 20/13 Q1025 NOSIG,M
EHBK,2022-07-10 17:55,69.80,53.60,56.38,350.00,6.00,0.00,30.24,M,6.21,M,OVC,M,M,M,4400.00,M,M,M,M,M,M,M,M,M,M,69.80,EHBK 101755Z AUTO 35006KT 300V030 9999 OVC044 21/12 Q1024 NOSIG,M
EHBK,2022-07-10 18:25,68.00,53.60,59.97,330.00,5.00,0.00,30.24,M,6.21,M,BKN,OVC,M,M,3500.00,3900.00,M,M,M,M,M,M,M,M,M,68.00,EHBK 101825Z AUTO 33005KT 290V010 9999 BKN035 OVC039 20/12 Q1024 NOSIG,M
EHBK,2022-07-10 18:55,68.00,53.60,59.97,330.00,4.00,0.00,30.24,M,6.21,M,BKN,M,M,M,4100.00,M,M,M,M,M,M,M,M,M,M,68.00,EHBK 101855Z AUTO 33004KT 300V010 9999 BKN041 20/12 Q1024 NOSIG,M
EHBK,2022-07-10 19:25,68.00,53.60,59.97,330.00,4.00,0.00,30.24,M,6.21,M,NSC,M,M,M,M,M,M,M,M,M,M,M,M,M,M,68.00,EHBK 101925Z AUTO 33004KT 300V010 9999 NSC 20/12 Q1024 NOSIG,M
EHBK,2022-07-10 19:55,66.20,53.60,63.82,320.00,3.00,0.00,30.24,M,6.21,M,FEW,M,M,M,4000.00,M,M,M,M,M,M,M,M,M,M,66.20,EHBK 101955Z AUTO 32003KT 280V360 9999 FEW040 19/12 Q1024 NOSIG,M
EHBK,2022-07-10 20:25,64.40,53.60,67.95,280.00,3.00,0.00,30.24,M,6.21,M,OVC,M,M,M,3700.00,M,M,M,M,M,M,M,M,M,M,64.40,EHBK 102025Z AUTO 28003KT 250V320 9999 OVC037 18/12 Q1024 NOSIG,M
EHBK,2022-07-10 20:55,64.40,53.60,67.95,290.00,3.00,0.00,30.24,M,6.21,M,OVC,M,M,M,3700.00,M,M,M,M,M,M,M,M,M,M,64.40,EHBK 102055Z AUTO 29003KT 240V340 9999 OVC037 18/12 Q1024,M
EHBK,2022-07-10 21:25,62.60,53.60,72.38,300.00,3.00,0.00,30.24,M,6.21,M,OVC,M,M,M,3700.00,M,M,M,M,M,M,M,M,M,M,62.60,EHBK 102125Z AUTO 30003KT 270V350 9999 OVC037 17/12 Q1024,M
EHBK,2022-07-10 21:55,62.60,53.60,72.38,310.00,3.00,0.00,30.27,M,6.21,M,OVC,M,M,M,3700.00,M,M,M,M,M,M,M,M,M,M,62.60,EHBK 102155Z AUTO 31003KT 280V350 9999 OVC037 17/12 Q1025,M
EHBK,2022-07-10 22:25,60.80,53.60,77.14,320.00,4.00,0.00,30.24,M,6.21,M,FEW,M,M,M,3800.00,M,M,M,M,M,M,M,M,M,M,60.80,EHBK 102225Z AUTO 32004KT 290V350 9999 FEW038 16/12 Q1024,M
EHBK,2022-07-10 22:55,60.80,53.60,77.14,310.00,3.00,0.00,30.24,M,6.21,M,NSC,M,M,M,M,M,M,M,M,M,M,M,M,M,M,60.80,EHBK 102255Z AUTO 31003KT 280V350 9999 NSC 16/12 Q1024,M
EHBK,2022-07-10 23:25,60.80,53.60,77.14,330.00,3.00,0.00,30.24,M,6.21,M,BKN,M,M,M,3500.00,M,M,M,M,M,M,M,M,M,M,60.80,EHBK 102325Z AUTO 33003KT 290V350 9999 BKN035 16/12 Q1024,M
EHBK,2022-07-10 23:55,59.00,53.60,82.25,350.00,3.00,0.00,30.24,M,6.21,M,SCT,M,M,M,3300.00,M,M,M,M,M,M,M,M,M,M,59.00,EHBK 102355Z AUTO 35003KT 320V020 9999 SCT033 15/12 Q1024,M
EHBK,2022-07-11 00:25,59.00,53.60,82.25,340.00,3.00,0.00,30.24,M,6.21,M,FEW,M,M,M,3400.00,M,M,M,M,M,M,M,M,M,M,59.00,EHBK 110025Z AUTO 34003KT 9999 FEW034/// 15/12 Q1024,M
EHBK,2022-07-11 00:55,57.20,53.60,87.74,340.00,1.00,0.00,30.24,M,6.21,M,NSC,M,M,M,M,M,M,M,M,M,M,M,M,M,M,57.20,EHBK 110055Z AUTO 34001KT 9999 NSC 14/12 Q1024,M
EHBK,2022-07-11 01:25,57.20,53.60,87.74,330.00,2.00,0.00,30.24,M,6.21,M,NSC,M,M,M,M,M,M,M,M,M,M,M,M,M,M,57.20,EHBK 110125Z AUTO 33002KT 9999 NSC 14/12 Q1024,M
EHBK,2022-07-11 01:55,57.20,53.60,87.74,330.00,1.00,0.00,30.24,M,6.21,M,NSC,M,M,M,M,M,M,M,M,M,M,M,M,M,M,57.20,EHBK 110155Z AUTO 33001KT 9999 NSC 14/12 Q1024,M
EHBK,2022-07-11 02:25,57.20,53.60,87.74,M,2.00,0.00,30.24,M,6.21,M,NSC,M,M,M,M,M,M,M,M,M,M,M,M,M,M,57.20,EHBK 110225Z AUTO VRB02KT 9999 NSC 14/12 Q1024,M
EHBK,2022-07-11 02:55,57.20,53.60,87.74,280.00,3.00,0.00,30.24,M,6.21,M,NSC,M,M,M,M,M,M,M,M,M,M,M,M,M,M,57.20,EHBK 110255Z AUTO 28003KT 240V310 9999 NSC 14/12 Q1024,M
EHBK,2022-07-11 03:25,55.40,53.60,93.65,270.00,1.00,0.00,30.24,M,6.21,M,NSC,M,M,M,M,M,M,M,M,M,M,M,M,M,M,55.40,EHBK 110325Z AUTO 27001KT 9999 NSC 13/12 Q1024,M
EHBK,2022-07-11 03:55,55.40,53.60,93.65,300.00,1.00,0.00,30.24,M,6.21,M,NSC,M,M,M,M,M,M,M,M,M,M,M,M,M,M,55.40,EHBK 110355Z AUTO 30001KT 9999 NSC 13/12 Q1024,M
EHBK,2022-07-11 04:25,57.20,55.40,93.69,M,1.00,0.00,30.24,M,6.21,M,OVC,M,M,M,3400.00,M,M,M,M,M,M,M,M,M,M,57.20,EHBK 110425Z AUTO VRB01KT 9999 OVC034 14/13 Q1024 BECMG BKN012,M
EHBK,2022-07-11 04:55,59.00,55.40,87.83,10.00,3.00,0.00,30.24,M,6.21,M,FEW,SCT,M,M,2500.00,4000.00,M,M,M,M,M,M,M,M,M,59.00,EHBK 110455Z AUTO 01003KT 320V050 9999 FEW025 SCT040 15/13 Q1024 BECMG BKN012,M
EHBK,2022-07-11 05:25,59.00,57.20,93.74,M,2.00,0.00,30.24,M,6.21,M,FEW,SCT,BKN,M,700.00,800.00,1000.00,M,M,M,M,M,M,M,M,59.00,EHBK 110525Z AUTO VRB02KT 9999 FEW007 SCT008 BKN010 15/14 Q1024 TEMPO BKN008,M
EHBK,2022-07-11 05:55,60.80,57.20,87.92,330.00,3.00,0.00,30.24,M,6.21,M,FEW,OVC,M,M,700.00,1100.00,M,M,M,M,M,M,M,M,M,60.80,EHBK 110555Z AUTO 33003KT 290V030 9999 FEW007 OVC011 16/14 Q1024 TEMPO BKN008,M
EHBK,2022-07-11 06:25,60.80,57.20,87.92,350.00,3.00,0.00,30.24,M,6.21,M,OVC,M,M,M,900.00,M,M,M,M,M,M,M,M,M,M,60.80,EHBK 110625Z AUTO 35003KT 310V040 9999 OVC009 16/14 Q1024 BECMG BKN012,M
EHBK,2022-07-11 06:55,60.80,57.20,87.92,20.00,4.00,0.00,30.24,M,6.21,M,OVC,M,M,M,900.00,M,M,M,M,M,M,M,M,M,M,60.80,EHBK 110655Z AUTO 02004KT 340V050 9999 OVC009 16/14 Q1024 BECMG BKN012,M
EHBK,2022-07-11 07:25,62.60,57.20,82.50,M,2.00,0.00,30.24,M,6.21,M,BKN,OVC,M,M,900.00,1100.00,M,M,M,M,M,M,M,M,M,62.60,EHBK 110725Z AUTO VRB02KT 9999 BKN009 OVC011 17/14 Q1024 BECMG BKN012,M
EHBK,2022-07-11 07:55,62.60,57.20,82.50,M,2.00,0.00,30.24,M,6.21,M,FEW,SCT,BKN,M,1000.00,1300.00,1800.00,M,M,M,M,M,M,M,M,62.60,EHBK 110755Z AUTO VRB02KT 9999 FEW010 SCT013 BKN018 17/14 Q1024 TEMPO BKN013,M
EHBK,2022-07-11 08:25,64.40,57.20,77.45,M,2.00,0.00,30.24,M,6.21,M,SCT,OVC,M,M,1200.00,1500.00,M,M,M,M,M,M,M,M,M,64.40,EHBK 110825Z AUTO VRB02KT 9999 SCT012 OVC015 18/14 Q1024 TEMPO BKN013,M
EHBK,2022-07-11 08:55,64.40,57.20,77.45,350.00,3.00,0.00,30.24,M,6.21,M,BKN,OVC,M,M,1200.00,1400.00,M,M,M,M,M,M,M,M,M,64.40,EHBK 110855Z AUTO 35003KT 290V030 9999 BKN012 OVC014 18/14 Q1024 BECMG BKN016,M
EHBK,2022-07-11 09:25,64.40,57.20,77.45,10.00,4.00,0.00,30.24,M,6.21,M,OVC,M,M,M,1200.00,M,M,M,M,M,M,M,M,M,M,64.40,EHBK 110925Z AUTO 01004KT 320V070 9999 OVC012 18/14 Q1024 BECMG BKN015,M
EHBK,2022-07-11 09:55,64.40,57.20,77.45,320.00,4.00,0.00,30.24,M,6.21,M,BKN,OVC,M,M,1300.00,1500.00,M,M,M,M,M,M,M,M,M,64.40,EHBK 110955Z AUTO 32004KT 290V010 9999 BKN013/// OVC015/// 18/14 Q1024 BECMG SCT013 BKN015,M
EHBK,2022-07-11 10:25,64.40,59.00,82.62,340.00,4.00,0.00,30.24,M,6.21,M,OVC,M,M,M,1400.00,M,M,M,M,M,M,M,M,M,M,64.40,EHBK 111025Z AUTO 34004KT 300V060 9999 OVC014 18/15 Q1024 BECMG SCT014 BKN017,M
EHBK,2022-07-11 10:55,64.40,59.00,82.62,340.00,6.00,0.00,30.27,M,6.21,M,FEW,OVC,M,M,1200.00,1600.00,M,M,M,M,M,M,M,M,M,64.40,EHBK 111055Z AUTO 34006KT 310V030 9999 FEW012/// OVC016/// 18/15 Q1025 NOSIG,M
EHBK,2022-07-11 11:25,66.20,59.00,77.60,280.00,3.00,0.00,30.27,M,6.21,M,SCT,OVC,M,M,1400.00,1700.00,M,M,M,M,M,M,M,M,M,66.20,EHBK 111125Z AUTO 28003KT 210V350 9999 SCT014 OVC017 19/15 Q1025 BECMG BKN015,M
EHBK,2022-07-11 11:55,68.00,57.20,68.35,M,2.00,0.00,30.24,M,6.21,M,BKN,OVC,M,M,1600.00,2000.00,M,M,M,M,M,M,M,M,M,68.00,EHBK 111155Z AUTO VRB02KT 9999 BKN016/// OVC020/// 20/14 Q1024 NOSIG,M
EHBK,2022-07-11 12:25,66.20,57.20,72.74,360.00,3.00,0.00,30.24,M,6.21,M,OVC,M,M,M,1800.00,M,M,M,M,M,M,M,M,M,M,66.20,EHBK 111225Z AUTO 36003KT 290V060 9999 OVC018/// 19/14 Q1024 NOSIG,M
EHBK,2022-07-11 12:55,68.00,59.00,72.92,30.00,4.00,0.00,30.24,M,6.21,M,BKN,OVC,M,M,1800.00,2200.00,M,M,M,M,M,M,M,M,M,68.00,EHBK 111255Z AUTO 03004KT 350V080 9999 BKN018 OVC022 20/15 Q1024 NOSIG,M
EHBK,2022-07-11 13:25,68.00,59.00,72.92,60.00,4.00,0.00,30.24,M,6.21,M,OVC,M,M,M,1800.00,M,M,M,M,M,M,M,M,M,M,68.00,EHBK 111325Z AUTO 06004KT 010V100 9999 OVC018/// 20/15 Q1024 NOSIG,M
EHBK,2022-07-11 13:55,68.00,59.00,72.92,60.00,4.00,0.00,30.24,M,6.21,M,BKN,OVC,M,M,1900.00,2200.00,M,M,M,M,M,M,M,M,M,68.00,EHBK 111355Z AUTO 06004KT 010V120 9999 BKN019/// OVC022/// 20/15 Q1024 NOSIG,M
EHBK,2022-07-11 14:25,69.80,59.00,68.55,70.00,4.00,0.00,30.24,M,6.21,M,OVC,M,M,M,2000.00,M,M,M,M,M,M,M,M,M,M,69.80,EHBK 111425Z AUTO 07004KT 350V100 9999 OVC020 21/15 Q1024 NOSIG,M
EHBK,2022-07-11 14:55,68.00,57.20,68.35,50.00,6.00,0.00,30.24,M,6.21,M,OVC,M,M,M,2200.00,M,M,M,M,M,M,M,M,M,M,68.00,EHBK 111455Z AUTO 05006KT 010V130 9999 OVC022 20/14 Q1024 NOSIG,M
EHBK,2022-07-11 15:25,69.80,57.20,64.26,M,2.00,0.00,30.24,M,6.21,M,BKN,OVC,M,M,2200.00,2600.00,M,M,M,M,M,M,M,M,M,69.80,EHBK 111525Z AUTO VRB02KT 9999 BKN022 OVC026 21/14 Q1024 NOSIG,M
EHBK,2022-07-11 15:55,69.80,57.20,64.26,70.00,4.00,0.00,30.24,M,6.21,M,OVC,M,M,M,2600.00,M,M,M,M,M,M,M,M,M,M,69.80,EHBK 111555Z AUTO 07004KT 020V110 9999 OVC026 21/14 Q1024 NOSIG,M
EHBK,2022-07-11 16:25,69.80,57.20,64.26,60.00,4.00,0.00,30.24,M,6.21,M,BKN,OVC,M,M,2700.00,3000.00,M,M,M,M,M,M,M,M,M,69.80,EHBK 111625Z AUTO 06004KT 010V100 9999 BKN027 OVC030 21/14 Q1024 NOSIG,M
EHBK,2022-07-11 16:55,69.80,57.20,64.26,70.00,4.00,0.00,30.24,M,6.21,M,SCT,BKN,M,M,2700.00,3100.00,M,M,M,M,M,M,M,M,M,69.80,EHBK 111655Z AUTO 07004KT 350V130 9999 SCT027 BKN031 21/14 Q1024 NOSIG,M
EHBK,2022-07-11 17:25,69.80,57.20,64.26,70.00,5.00,0.00,30.24,M,6.21,M,SCT,OVC,M,M,2800.00,3100.00,M,M,M,M,M,M,M,M,M,69.80,EHBK 111725Z AUTO 07005KT 020V150 9999 SCT028 OVC031 21/14 Q1024 NOSIG,M
EHBK,2022-07-11 17:55,69.80,57.20,64.26,70.00,5.00,0.00,30.24,M,6.21,M,FEW,M,M,M,3000.00,M,M,M,M,M,M,M,M,M,M,69.80,EHBK 111755Z AUTO 07005KT 9999 FEW030 21/14 Q1024 NOSIG,M
EHBK,2022-07-11 18:25,68.00,57.20,68.35,60.00,5.00,0.00,30.24,M,6.21,M,NSC,M,M,M,M,M,M,M,M,M,M,M,M,M,M,68.00,EHBK 111825Z AUTO 06005KT 9999 NSC 20/14 Q1024 NOSIG,M
EHBK,2022-07-11 18:55,66.20,57.20,72.74,60.00,4.00,0.00,30.24,M,6.21,M,NSC,M,M,M,M,M,M,M,M,M,M,M,M,M,M,66.20,EHBK 111855Z AUTO 06004KT 9999 NSC 19/14 Q1024 NOSIG,M
EHBK,2022-07-11 19:25,66.20,57.20,72.74,50.00,3.00,0.00,30.24,M,6.21,M,NSC,M,M,M,M,M,M,M,M,M,M,M,M,M,M,66.20,EHBK 111925Z AUTO 05003KT 9999 NSC 19/14 Q1024 NOSIG,M
EHBK,2022-07-11 19:55,62.60,57.20,82.50,80.00,1.00,0.00,30.24,M,6.21,M,NSC,M,M,M,M,M,M,M,-RA,M,M,M,M,M,M,62.60,EHBK 111955Z AUTO 08001KT 9999 -RA NSC 17/14 Q1024 NOSIG,M
EHBK,2022-07-11 20:25,62.60,57.20,82.50,60.00,3.00,0.00,30.24,M,6.21,M,NSC,M,M,M,M,M,M,M,RA,M,M,M,M,M,M,62.60,EHBK 112025Z AUTO 06003KT 9999 RA NSC 17/14 Q1024 NOSIG,M
EHBK,2022-07-11 20:55,60.80,55.40,82.37,70.00,2.00,0.00,30.24,M,6.21,M,NSC,M,M,M,M,M,M,M,M,M,M,M,M,M,M,60.80,EHBK 112055Z AUTO 07002KT 9999 NSC 16/13 Q1024 NOSIG,M
EHBK,2022-07-11 21:25,60.80,57.20,87.92,80.00,2.00,0.00,30.24,M,6.21,M,NSC,M,M,M,M,M,M,M,M,M,M,M,M,M,M,60.80,EHBK 112125Z AUTO 08002KT 9999 NSC 16/14 Q1024,M
EHBK,2022-07-11 21:55,60.80,55.40,82.37,70.00,1.00,0.00,30.24,M,6.21,M,NSC,M,M,M,M,M,M,M,M,M,M,M,M,M,M,60.80,EHBK 112155Z AUTO 07001KT 9999 NSC 16/13 Q1024,M
EHBK,2022-07-11 22:25,59.00,55.40,87.83,80.00,1.00,0.00,30.24,M,6.21,M,NSC,M,M,M,M,M,M,M,M,M,M,M,M,M,M,59.00,EHBK 112225Z AUTO 08001KT 9999 NSC 15/13 Q1024,M
EHBK,2022-07-11 22:55,60.80,57.20,87.92,80.00,1.00,0.00,30.24,M,6.21,M,NSC,M,M,M,M,M,M,M,M,M,M,M,M,M,M,60.80,EHBK 112255Z AUTO 08001KT 9999 NSC 16/14 Q1024,M
EHBK,2022-07-11 23:25,59.00,55.40,87.83,100.00,3.00,0.00,30.24,M,6.21,M,NSC,M,M,M,M,M,M,M,M,M,M,M,M,M,M,59.00,EHBK 112325Z AUTO 10003KT 9999 NSC 15/13 Q1024,M
EHBK,2022-07-11 23:55,59.00,55.40,87.83,130.00,4.00,0.00,30.24,M,6.21,M,FEW,M,M,M,3200.00,M,M,M,M,M,M,M,M,M,M,59.00,EHBK 112355Z AUTO 13004KT 9999 FEW032 15/13 Q1024,M