station,valid,tmpf,dwpf,relh,drct,sknt,p01i,alti,mslp,vsby,gust,skyc1,skyc2,skyc3,skyc4,skyl1,skyl2,skyl3,skyl4,wxcodes,ice_accretion_1hr,ice_accretion_3hr,ice_accretion_6hr,peak_wind_gust,peak_wind_drct,peak_wind_time,feel,metar,snowdepth
EHBK,2022-03-19 00:25,42.80,35.60,75.50,70.00,10.00,0.00,30.77,M,6.21,M,NCD,M,M,M,M,M,M,M,M,M,M,M,M,M,M,36.51,EHBK 190025Z AUTO 07010KT 9999 NCD 06/02 Q1042,M
EHBK,2022-03-19 00:55,42.80,35.60,75.50,70.00,13.00,0.00,30.77,M,6.21,M,NCD,M,M,M,M,M,M,M,M,M,M,M,M,M,M,35.40,EHBK 190055Z AUTO 07013KT 9999 NCD 06/02 Q1042,M
EHBK,2022-03-19 01:25,42.80,35.60,75.50,70.00,10.00,0.00,30.74,M,6.21,M,NCD,M,M,M,M,M,M,M,M,M,M,M,M,M,M,36.51,EHBK 190125Z AUTO 07010KT 040V110 9999 NCD 06/02 Q1041,M
EHBK,2022-03-19 01:55,41.00,33.80,75.33,60.00,9.00,0.00,30.74,M,6.21,M,NCD,M,M,M,M,M,M,M,M,M,M,M,M,M,M,34.70,EHBK 190155Z AUTO 06009KT 9999 NCD 05/01 Q1041,M
EHBK,2022-03-19 02:25,41.00,35.60,80.93,60.00,11.00,0.00,30.74,M,6.21,M,NCD,M,M,M,M,M,M,M,M,M,M,M,M,M,M,33.84,EHBK 190225Z AUTO 06011KT 9999 NCD 05/02 Q1041,M
EHBK,2022-03-19 02:55,41.00,33.80,75.33,60.00,10.00,0.00,30.74,M,6.21,M,NCD,M,M,M,M,M,M,M,M,M,M,M,M,M,M,34.25,EHBK 190255Z AUTO 06010KT 9999 NCD 05/01 Q1041,M
EHBK,2022-03-19 03:25,41.00,33.80,75.33,60.00,8.00,0.00,30.74,M,6.21,M,FEW,M,M,M,2700.00,M,M,M,M,M,M,M,M,M,M,35.20,EHBK 190325Z AUTO 06008KT 9999 FEW027 05/01 Q1041,M
EHBK,2022-03-19 03:55,39.20,33.80,80.79,70.00,8.00,0.00,30.74,M,6.21,M,NCD,M,M,M,M,M,M,M,M,M,M,M,M,M,M,32.98,EHBK 190355Z AUTO 07008KT 040V100 9999 NCD 04/01 Q1041,M
EHBK,2022-03-19 04:25,39.20,33.80,80.79,60.00,8.00,0.00,30.71,M,6.21,M,NCD,M,M,M,M,M,M,M,M,M,M,M,M,M,M,32.98,EHBK 190425Z AUTO 06008KT 9999 NCD 04/01 Q1040,M
EHBK,2022-03-19 04:55,39.20,33.80,80.79,50.00,8.00,0.00,30.71,M,6.21,M,NCD,M,M,M,M,M,M,M,M,M,M,M,M,M,M,32.98,EHBK 190455Z AUTO 05008KT 9999 NCD 04/01 Q1040 NOSIG,M
EHBK,2022-03-19 05:25,37.40,33.80,86.69,60.00,8.00,0.00,30.71,M,6.21,M,NCD,M,M,M,M,M,M,M,M,M,M,M,M,M,M,30.76,EHBK 190525Z AUTO 06008KT 9999 NCD 03/01 Q1040 NOSIG,M
EHBK,2022-03-19 05:55,37.40,33.80,86.69,60.00,8.00,0.00,30.71,M,6.21,M,NCD,M,M,M,M,M,M,M,M,M,M,M,M,M,M,30.76,EHBK 190555Z AUTO 06008KT 9999 NCD 03/01 Q1040 NOSIG,M
EHBK,2022-03-19 06:25,39.20,33.80,80.79,60.00,9.00,0.00,30.74,M,6.21,M,FEW,M,M,M,2800.00,M,M,M,M,M,M,M,M,M,M,32.47,EHBK 190625Z AUTO 06009KT 9999 FEW028 04/01 Q1041 NOSIG,M
EHBK,2022-03-19 06:55,41.00,35.60,80.93,60.00,8.00,0.00,30.74,M,6.21,M,NCD,M,M,M,M,M,M,M,M,M,M,M,M,M,M,35.20,EHBK 190655Z AUTO 06008KT 9999 NCD 05/02 Q1041 BECMG 07015KT,M
EHBK,2022-03-19 07:25,42.80,35.60,75.50,60.00,10.00,0.00,30.71,M,6.21,M,NCD,M,M,M,M,M,M,M,M,M,M,M,M,M,M,36.51,EHBK 190725Z AUTO 06010KT 9999 NCD 06/02 Q1040 BECMG 07015KT,M
EHBK,2022-03-19 07:55,44.60,37.40,75.68,60.00,11.00,0.00,30.71,M,6.21,M,NCD,M,M,M,M,M,M,M,M,M,M,M,M,M,M,38.39,EHBK 190755Z AUTO 06011KT 9999 NCD 07/03 Q1040 NOSIG,M
EHBK,2022-03-19 08:25,46.40,35.60,65.83,70.00,11.00,0.00,30.71,M,6.21,M,NCD,M,M,M,M,M,M,M,M,M,M,M,M,M,M,40.66,EHBK 190825Z AUTO 07011KT 030V110 9999 NCD 08/02 Q1040 NOSIG,M
EHBK,2022-03-19 08:55,50.00,35.60,57.52,70.00,14.00,0.00,30.71,M,6.21,M,NCD,M,M,M,M,M,M,M,M,M,M,M,M,M,M,50.00,EHBK 190855Z AUTO 07014KT 040V110 9999 NCD 10/02 Q1040 NOSIG,M
EHBK,2022-03-19 09:25,50.00,35.60,57.52,90.00,14.00,0.00,30.71,M,6.21,M,FEW,M,M,M,2700.00,M,M,M,M,M,M,M,M,M,M,50.00,EHBK 190925Z AUTO 09014KT 050V120 9999 FEW027 10/02 Q1040 NOSIG,M
EHBK,2022-03-19 09:55,51.80,33.80,50.08,90.00,18.00,0.00,30.71,M,6.21,M,NCD,M,M,M,M,M,M,M,M,M,M,M,M,M,M,51.80,EHBK 190955Z AUTO 09018KT 040V120 9999 NCD 11/01 Q1040 NOSIG,M
EHBK,2022-03-19 10:25,51.80,33.80,50.08,80.00,14.00,0.00,30.68,M,6.21,M,NCD,M,M,M,M,M,M,M,M,M,M,M,M,M,M,51.80,EHBK 191025Z AUTO 08014KT 030V110 9999 NCD 11/01 Q1039 NOSIG,M
EHBK,2022-03-19 10:55,53.60,35.60,50.36,70.00,16.00,0.00,30.68,M,6.21,M,NCD,M,M,M,M,M,M,M,M,M,M,M,M,M,M,53.60,EHBK 191055Z AUTO 07016KT 040V110 9999 NCD 12/02 Q1039 NOSIG,M
EHBK,2022-03-19 11:25,53.60,33.80,46.88,80.00,16.00,0.00,30.68,M,6.21,M,NCD,M,M,M,M,M,M,M,M,M,M,M,M,M,M,53.60,EHBK 191125Z AUTO 08016KT 050V120 9999 NCD 12/01 Q1039 NOSIG,M
EHBK,2022-03-19 11:55,55.40,32.00,40.84,60.00,16.00,0.00,30.65,M,6.21,M,NCD,M,M,M,M,M,M,M,M,M,M,M,M,M,M,55.40,EHBK 191155Z AUTO 06016KT 030V100 9999 NCD 13/00 Q1038 NOSIG,M
EHBK,2022-03-19 12:25,55.40,30.20,37.97,60.00,18.00,0.00,30.62,M,6.21,M,NCD,M,M,M,M,M,M,M,M,M,M,M,M,M,M,55.40,EHBK 191225Z AUTO 06018KT 9999 NCD 13/M01 Q1037 NOSIG,M
EHBK,2022-03-19 12:55,57.20,28.40,33.05,70.00,16.00,0.00,30.62,M,6.21,M,NCD,M,M,M,M,M,M,M,M,M,M,M,M,M,M,57.20,EHBK 191255Z AUTO 07016KT 040V120 9999 NCD 14/M02 Q1037 NOSIG,M
EHBK,2022-03-19 13:25,57.20,28.40,33.05,50.00,16.00,0.00,30.59,M,6.21,M,NCD,M,M,M,M,M,M,M,M,M,M,M,M,M,M,57.20,EHBK 191325Z AUTO 05016KT 010V070 9999 NCD 14/M02 Q1036 NOSIG,M
EHBK,2022-03-19 13:55,55.40,26.60,32.76,40.00,18.00,0.00,30.56,M,6.21,M,NCD,M,M,M,M,M,M,M,M,M,M,M,M,M,M,55.40,EHBK 191355Z AUTO 04018KT 020V080 9999 NCD 13/M03 Q1035 NOSIG,M
EHBK,2022-03-19 14:25,55.40,24.80,30.40,50.00,20.00,0.00,30.56,M,6.21,M,NCD,M,M,M,M,M,M,M,M,M,M,M,M,M,M,55.40,EHBK 191425Z AUTO 05020KT 9999 NCD 13/M04 Q1035 NOSIG,M
EHBK,2022-03-19 14:55,55.40,23.00,28.20,50.00,19.00,0.00,30.56,M,6.21,M,NCD,M,M,M,M,M,M,M,M,M,M,M,M,M,M,55.40,EHBK 191455Z AUTO 05019KT 020V090 9999 NCD 13/M05 Q1035 NOSIG,M
EHBK,2022-03-19 15:25,53.60,23.00,30.11,50.00,18.00,0.00,30.53,M,6.21,M,NCD,M,M,M,M,M,M,M,M,M,M,M,M,M,M,53.60,EHBK 191525Z AUTO 05018KT 020V080 9999 NCD 12/M05 Q1034 NOSIG,M
EHBK,2022-03-19 15:55,53.60,17.60,23.93,60.00,20.00,0.00,30.53,M,6.21,M,NCD,M,M,M,M,M,M,M,M,M,M,M,M,M,M,53.60,EHBK 191555Z AUTO 06020KT 020V080 9999 NCD 12/M08 Q1034 NOSIG,M
EHBK,2022-03-19 16:25,53.60,17.60,23.93,60.00,17.00,0.00,30.53,M,6.21,M,NCD,M,M,M,M,M,M,M,M,M,M,M,M,M,M,53.60,EHBK 191625Z AUTO 06017KT 9999 NCD 12/M08 Q1034 NOSIG,M
EHBK,2022-03-19 16:55,51.80,23.00,32.17,60.00,17.00,0.00,30.53,M,6.21,27.00,NCD,M,M,M,M,M,M,M,M,M,M,M,M,M,M,51.80,EHBK 191655Z AUTO 06017G27KT 030V090 9999 NCD 11/M05 Q1034 NOSIG,M
EHBK,2022-03-19 17:25,50.00,24.80,37.08,60.00,18.00,0.00,30.53,M,6.21,M,NCD,M,M,M,M,M,M,M,M,M,M,M,M,M,M,50.00,EHBK 191725Z AUTO 06018KT 030V090 9999 NCD 10/M04 Q1034 NOSIG,M
EHBK,2022-03-19 17:55,50.00,24.80,37.08,60.00,16.00,0.00,30.53,M,6.21,M,NCD,M,M,M,M,M,M,M,M,M,M,M,M,M,M,50.00,EHBK 191755Z AUTO 06016KT 030V090 9999 NCD 10/M04 Q1034 NOSIG,M
EHBK,2022-03-19 18:25,48.20,23.00,36.78,70.00,13.00,0.00,30.53,M,6.21,M,NCD,M,M,M,M,M,M,M,M,M,M,M,M,M,M,42.32,EHBK 191825Z AUTO 07013KT 9999 NCD 09/M05 Q1034 NOSIG,M
EHBK,2022-03-19 18:55,46.40,24.80,42.44,70.00,13.00,0.00,30.53,M,6.21,M,NCD,M,M,M,M,M,M,M,M,M,M,M,M,M,M,40.02,EHBK 191855Z AUTO 07013KT 9999 NCD 08/M04 Q1034 NOSIG,M
EHBK,2022-03-19 19:25,44.60,24.80,45.44,70.00,13.00,0.00,30.53,M,6.21,M,NCD,M,M,M,M,M,M,M,M,M,M,M,M,M,M,37.71,EHBK 191925Z AUTO 07013KT 9999 NCD 07/M04 Q1034 NOSIG,M
EHBK,2022-03-19 19:55,44.60,26.60,48.96,70.00,12.00,0.00,30.53,M,6.21,M,NCD,M,M,M,M,M,M,M,M,M,M,M,M,M,M,38.04,EHBK 191955Z AUTO 07012KT 040V100 9999 NCD 07/M03 Q1034 NOSIG,M
EHBK,2022-03-19 20:25,42.80,26.60,52.45,70.00,10.00,0.00,30.53,M,6.21,M,NCD,M,M,M,M,M,M,M,M,M,M,M,M,M,M,36.51,EHBK 192025Z AUTO 07010KT 9999 NCD 06/M03 Q1034 NOSIG,M
EHBK,2022-03-19 20:55,42.80,28.40,56.48,60.00,10.00,0.00,30.50,M,6.21,M,NCD,M,M,M,M,M,M,M,M,M,M,M,M,M,M,36.51,EHBK 192055Z AUTO 06010KT 9999 NCD 06/M02 Q1033 NOSIG,M
EHBK,2022-03-19 21:25,42.80,28.40,56.48,70.00,11.00,0.00,30.50,M,6.21,M,NSC,M,M,M,M,M,M,M,M,M,M,M,M,M,M,36.11,EHBK 192125Z AUTO 07011KT 040V100 9999 NSC 06/M02 Q1033 NOSIG,M
EHBK,2022-03-19 21:55,42.80,30.20,60.79,80.00,10.00,0.00,30.50,M,6.21,M,FEW,M,M,M,4800.00,M,M,M,M,M,M,M,M,M,M,36.51,EHBK 192155Z AUTO 08010KT 050V110 9999 FEW048 06/M01 Q1033 NOSIG,M
EHBK,2022-03-19 22:25,42.80,30.20,60.79,80.00,12.00,0.00,30.50,M,6.21,M,NSC,M,M,M,M,M,M,M,M,M,M,M,M,M,M,35.75,EHBK 192225Z AUTO 08012KT 060V120 9999 NSC 06/M01 Q1033 NOSIG,M
EHBK,2022-03-19 22:55,42.80,30.20,60.79,80.00,10.00,0.00,30.47,M,6.21,M,NSC,M,M,M,M,M,M,M,M,M,M,M,M,M,M,36.51,EHBK 192255Z AUTO 08010KT 040V100 9999 NSC 06/M01 Q1032,M
EHBK,2022-03-19 23:25,41.00,30.20,65.16,60.00,9.00,0.00,30.47,M,6.21,M,NSC,M,M,M,M,M,M,M,M,M,M,M,M,M,M,34.70,EHBK 192325Z AUTO 06009KT 9999 NSC 05/M01 Q1032,M
EHBK,2022-03-19 23:55,41.00,30.20,65.16,60.00,10.00,0.00,30.45,M,6.21,M,NCD,M,M,M,M,M,M,M,M,M,M,M,M,M,M,34.25,EHBK 192355Z AUTO 06010KT 9999 NCD 05/M01 Q1031,M
EHBK,2022-03-20 00:25,39.20,30.20,69.88,70.00,8.00,0.00,30.45,M,6.21,M,NCD,M,M,M,M,M,M,M,M,M,M,M,M,M,M,32.98,EHBK 200025Z AUTO 07008KT 040V100 9999 NCD 04/M01 Q1031,M
EHBK,2022-03-20 00:55,39.20,28.40,64.93,60.00,10.00,0.00,30.42,M,6.21,M,NSC,M,M,M,M,M,M,M,M,M,M,M,M,M,M,32.00,EHBK 200055Z AUTO 06010KT 9999 NSC 04/M02 Q1030,M
EHBK,2022-03-20 01:25,37.40,28.40,69.67,60.00,9.00,0.00,30.42,M,6.21,M,NCD,M,M,M,M,M,M,M,M,M,M,M,M,M,M,30.23,EHBK 200125Z AUTO 06009KT 9999 NCD 03/M02 Q1030,M
EHBK,2022-03-20 01:55,37.40,26.60,64.70,70.00,11.00,0.00,30.39,M,6.21,M,NSC,M,M,M,M,M,M,M,M,M,M,M,M,M,M,29.29,EHBK 200155Z AUTO 07011KT 9999 NSC 03/M03 Q1029,M
EHBK,2022-03-20 02:25,39.20,26.60,60.29,60.00,12.00,0.00,30.39,M,6.21,M,NSC,M,M,M,M,M,M,M,M,M,M,M,M,M,M,31.17,EHBK 200225Z AUTO 06012KT 9999 NSC 04/M03 Q1029,M
EHBK,2022-03-20 02:55,39.20,26.60,60.29,60.00,14.00,0.00,30.36,M,6.21,M,FEW,M,M,M,4300.00,M,M,M,M,M,M,M,M,M,M,30.44,EHBK 200255Z AUTO 06014KT 9999 FEW043 04/M03 Q1028,M
EHBK,2022-03-20 03:25,39.20,26.60,60.29,50.00,15.00,0.00,30.36,M,6.21,M,FEW,SCT,BKN,M,1700.00,2600.00,3900.00,M,M,M,M,M,M,M,M,30.11,EHBK 200325Z AUTO 05015KT 9999 FEW017 SCT026 BKN039 04/M03 Q1028,M
EHBK,2022-03-20 03:55,37.40,26.60,64.70,60.00,10.00,0.00,30.36,M,6.21,M,NSC,M,M,M,M,M,M,M,M,M,M,M,M,M,M,29.74,EHBK 200355Z AUTO 06010KT 9999 NSC 03/M03 Q1028,M
EHBK,2022-03-20 04:25,37.40,26.60,64.70,60.00,10.00,0.00,30.33,M,6.21,M,NSC,M,M,M,M,M,M,M,M,M,M,M,M,M,M,29.74,EHBK 200425Z AUTO 06010KT 9999 NSC 03/M03 Q1027,M
EHBK,2022-03-20 04:55,35.60,26.60,69.46,50.00,8.00,0.00,30.33,M,6.21,M,NSC,M,M,M,M,M,M,M,M,M,M,M,M,M,M,28.55,EHBK 200455Z AUTO 05008KT 9999 NSC 02/M03 Q1027 NOSIG,M
EHBK,2022-03-20 05:25,37.40,26.60,64.70,70.00,10.00,0.00,30.33,M,6.21,M,NSC,M,M,M,M,M,M,M,M,M,M,M,M,M,M,29.74,EHBK 200525Z AUTO 07010KT 9999 NSC 03/M03 Q1027 NOSIG,M
EHBK,2022-03-20 05:55,37.40,26.60,64.70,70.00,9.00,0.00,30.33,M,6.21,M,FEW,SCT,M,M,2300.00,4800.00,M,M,M,M,M,M,M,M,M,30.23,EHBK 200555Z AUTO 07009KT 9999 FEW023CB SCT048 03/M03 Q1027 NOSIG,M
EHBK,2022-03-20 06:25,37.40,26.60,64.70,70.00,8.00,0.00,30.30,M,6.21,M,SCT,BKN,M,M,3600.00,4200.00,M,M,M,M,M,M,M,M,M,30.76,EHBK 200625Z AUTO 07008KT 030V100 9999 SCT036 BKN042 03/M03 Q1026 NOSIG,M
EHBK,2022-03-20 06:55,39.20,26.60,60.29,80.00,7.00,0.00,30.30,M,6.21,M,SCT,OVC,M,M,3800.00,4200.00,M,M,M,M,M,M,M,M,M,33.56,EHBK 200655Z AUTO 08007KT 9999 SCT038 OVC042 04/M03 Q1026 NOSIG,M
EHBK,2022-03-20 07:25,39.20,26.60,60.29,70.00,7.00,0.00,30.30,M,6.21,M,SCT,BKN,M,M,3600.00,4700.00,M,M,M,M,M,M,M,M,M,33.56,EHBK 200725Z AUTO 07007KT 040V100 9999 SCT036 BKN047 04/M03 Q1026 NOSIG,M
EHBK,2022-03-20 07:55,39.20,26.60,60.29,80.00,6.00,0.00,30.30,M,6.21,M,NSC,M,M,M,M,M,M,M,M,M,M,M,M,M,M,34.20,EHBK 200755Z AUTO 08006KT 050V120 9999 NSC 04/M03 Q1026 NOSIG,M
EHBK,2022-03-20 08:25,41.00,28.40,60.54,90.00,8.00,0.00,30.30,M,6.21,M,NSC,M,M,M,M,M,M,M,M,M,M,M,M,M,M,35.20,EHBK 200825Z AUTO 09008KT 020V150 9999 NSC 05/M02 Q1026 NOSIG,M
EHBK,2022-03-20 08:55,42.80,26.60,52.45,100.00,8.00,0.00,30.30,M,6.21,M,NSC,M,M,M,M,M,M,M,M,M,M,M,M,M,M,37.42,EHBK 200855Z AUTO 10008KT 9999 NSC 06/M03 Q1026 NOSIG,M
EHBK,2022-03-20 09:25,42.80,26.60,52.45,100.00,8.00,0.00,30.30,M,6.21,M,FEW,M,M,M,3500.00,M,M,M,M,M,M,M,M,M,M,37.42,EHBK 200925Z AUTO 10008KT 060V140 9999 FEW035 06/M03 Q1026 NOSIG,M
EHBK,2022-03-20 09:55,42.80,26.60,52.45,90.00,8.00,0.00,30.30,M,6.21,M,NSC,M,M,M,M,M,M,M,M,M,M,M,M,M,M,37.42,EHBK 200955Z AUTO 09008KT 050V130 9999 NSC 06/M03 Q1026 NOSIG,M
EHBK,2022-03-20 10:25,42.80,28.40,56.48,100.00,8.00,0.00,30.30,M,6.21,M,NSC,M,M,M,M,M,M,M,M,M,M,M,M,M,M,37.42,EHBK 201025Z AUTO 10008KT 070V150 9999 NSC 06/M02 Q1026 NOSIG,M
EHBK,2022-03-20 10:55,42.80,30.20,60.79,120.00,6.00,0.00,30.30,M,6.21,M,NSC,M,M,M,M,M,M,M,M,M,M,M,M,M,M,38.54,EHBK 201055Z AUTO 12006KT 090V150 9999 NSC 06/M01 Q1026 NOSIG,M
EHBK,2022-03-20 11:25,44.60,28.40,52.72,110.00,4.00,0.00,30.30,M,6.21,M,OVC,M,M,M,4700.00,M,M,M,M,M,M,M,M,M,M,42.13,EHBK 201125Z AUTO 11004KT 080V150 9999 OVC047 07/M02 Q1026 NOSIG,M
EHBK,2022-03-20 11:55,44.60,28.40,52.72,100.00,3.00,0.00,30.30,M,6.21,M,BKN,OVC,M,M,4200.00,4600.00,M,M,M,M,M,M,M,M,M,43.09,EHBK 201155Z AUTO 10003KT 360V140 9999 BKN042 OVC046 07/M02 Q1026 NOSIG,M
EHBK,2022-03-20 12:25,44.60,30.20,56.74,90.00,3.00,0.00,30.30,M,6.21,M,FEW,OVC,M,M,4200.00,4700.00,M,M,M,M,M,M,M,M,M,43.09,EHBK 201225Z AUTO 09003KT 060V140 9999 FEW042 OVC047 07/M01 Q1026 NOSIG,M
EHBK,2022-03-20 12:55,48.20,30.20,49.53,M,2.00,0.00,30.30,M,6.21,M,FEW,SCT,M,M,3400.00,3800.00,M,M,M,M,M,M,M,M,M,48.20,EHBK 201255Z AUTO VRB02KT 9999 FEW034 SCT038 09/M01 Q1026 NOSIG,M
EHBK,2022-03-20 13:25,48.20,30.20,49.53,M,2.00,0.00,30.30,M,6.21,M,NSC,M,M,M,M,M,M,M,M,M,M,M,M,M,M,48.20,EHBK 201325Z AUTO VRB02KT 9999 NSC 09/M01 Q1026 NOSIG,M
EHBK,2022-03-20 13:55,48.20,32.00,53.27,M,2.00,0.00,30.30,M,6.21,M,NSC,M,M,M,M,M,M,M,M,M,M,M,M,M,M,48.20,EHBK 201355Z AUTO VRB02KT 9999 NSC 09/M00 Q1026 NOSIG,M
EHBK,2022-03-20 14:25,48.20,30.20,49.53,M,1.00,0.00,30.30,M,6.21,M,NSC,M,M,M,M,M,M,M,M,M,M,M,M,M,M,48.20,EHBK 201425Z AUTO VRB01KT 9999 NSC 09/M01 Q1026 NOSIG,M
EHBK,2022-03-20 14:55,50.00,30.20,46.31,M,2.00,0.00,30.30,M,6.21,M,NSC,M,M,M,M,M,M,M,M,M,M,M,M,M,M,50.00,EHBK 201455Z AUTO VRB02KT 9999 NSC 10/M01 Q1026 NOSIG,M
EHBK,2022-03-20 15:25,51.80,30.20,43.32,M,2.00,0.00,30.30,M,6.21,M,NCD,M,M,M,M,M,M,M,M,M,M,M,M,M,M,51.80,EHBK 201525Z AUTO VRB02KT 9999 NCD 11/M01 Q1026 NOSIG,M
EHBK,2022-03-20 15:55,51.80,28.40,40.25,180.00,1.00,0.00,30.30,M,6.21,M,NCD,M,M,M,M,M,M,M,M,M,M,M,M,M,M,51.80,EHBK 201555Z AUTO 18001KT 9999 NCD 11/M02 Q1026 NOSIG,M
EHBK,2022-03-20 16:25,50.00,32.00,49.81,250.00,2.00,0.00,30.30,M,6.21,M,NCD,M,M,M,M,M,M,M,M,M,M,M,M,M,M,50.00,EHBK 201625Z AUTO 25002KT 9999 NCD 10/M00 Q1026 NOSIG,M
EHBK,2022-03-20 16:55,51.80,28.40,40.25,M,2.00,0.00,30.30,M,6.21,M,NCD,M,M,M,M,M,M,M,M,M,M,M,M,M,M,51.80,EHBK 201655Z AUTO VRB02KT 9999 NCD 11/M02 Q1026 NOSIG,M
EHBK,2022-03-20 17:25,50.00,28.40,43.03,250.00,1.00,0.00,30.33,M,6.21,M,NCD,M,M,M,M,M,M,M,M,M,M,M,M,M,M,50.00,EHBK 201725Z AUTO 25001KT 9999 NCD 10/M02 Q1027 NOSIG,M
EHBK,2022-03-20 17:55,48.20,28.40,46.02,130.00,3.00,0.00,30.33,M,6.21,M,NCD,M,M,M,M,M,M,M,M,M,M,M,M,M,M,47.21,EHBK 201755Z AUTO 13003KT 110V190 9999 NCD 09/M02 Q1027 NOSIG,M
EHBK,2022-03-20 18:25,44.60,28.40,52.72,130.00,5.00,0.00,30.33,M,6.21,M,NCD,M,M,M,M,M,M,M,M,M,M,M,M,M,M,41.36,EHBK 201825Z AUTO 13005KT 9999 NCD 07/M02 Q1027 NOSIG,M
EHBK,2022-03-20 18:55,44.60,28.40,52.72,140.00,4.00,0.00,30.33,M,6.21,M,NSC,M,M,M,M,M,M,M,M,M,M,M,M,M,M,42.13,EHBK 201855Z AUTO 14004KT 9999 NSC 07/M02 Q1027 NOSIG,M
EHBK,2022-03-20 19:25,42.80,28.40,56.48,150.00,4.00,0.00,30.36,M,6.21,M,NSC,M,M,M,M,M,M,M,M,M,M,M,M,M,M,40.03,EHBK 201925Z AUTO 15004KT 9999 NSC 06/M02 Q1028 NOSIG,M
EHBK,2022-03-20 19:55,46.40,28.40,49.24,180.00,4.00,0.00,30.36,M,6.21,M,NSC,M,M,M,M,M,M,M,M,M,M,M,M,M,M,44.24,EHBK 201955Z AUTO 18004KT 9999 NSC 08/M02 Q1028 NOSIG,M
EHBK,2022-03-20 20:25,44.60,30.20,56.74,200.00,2.00,0.00,30.36,M,6.21,M,FEW,M,M,M,3200.00,M,M,M,M,M,M,M,M,M,M,44.60,EHBK 202025Z AUTO 20002KT 9999 FEW032CB 07/M01 Q1028 NOSIG,M
EHBK,2022-03-20 20:55,44.60,30.20,56.74,170.00,5.00,0.00,30.36,M,6.21,M,FEW,M,M,M,3300.00,M,M,M,M,M,M,M,M,M,M,41.36,EHBK 202055Z AUTO 17005KT 9999 FEW033CB 07/M01 Q1028 NOSIG,M
EHBK,2022-03-20 21:25,44.60,33.80,65.61,170.00,7.00,0.00,30.39,M,6.21,M,FEW,M,M,M,2500.00,M,M,M,M,M,M,M,M,M,M,40.14,EHBK 202125Z AUTO 17007KT 100V190 9999 FEW025CB 07/01 Q1029 NOSIG,M
EHBK,2022-03-20 21:55,42.80,33.80,70.28,180.00,6.00,0.00,30.39,M,6.21,M,FEW,M,M,M,2100.00,M,M,M,M,M,M,M,M,M,M,38.54,EHBK 202155Z AUTO 18006KT 9999 FEW021CB 06/01 Q1029 NOSIG,M
EHBK,2022-03-20 22:25,42.80,33.80,70.28,180.00,6.00,0.00,30.39,M,6.21,M,FEW,M,M,M,1900.00,M,M,M,M,M,M,M,M,M,M,38.54,EHBK 202225Z AUTO 18006KT 9999 FEW019CB 06/01 Q1029,M
EHBK,2022-03-20 22:55,41.00,33.80,75.33,190.00,4.00,0.00,30.39,M,6.21,M,NSC,M,M,M,M,M,M,M,M,M,M,M,M,M,M,37.93,EHBK 202255Z AUTO 19004KT 9999 NSC 05/01 Q1029,M
EHBK,2022-03-20 23:25,42.80,35.60,75.50,190.00,4.00,0.00,30.39,M,6.21,M,NSC,M,M,M,M,M,M,M,M,M,M,M,M,M,M,40.03,EHBK 202325Z AUTO 19004KT 9999 NSC 06/02 Q1029,M
EHBK,2022-03-20 23:55,41.00,35.60,80.93,190.00,3.00,0.00,30.39,M,6.21,M,NSC,M,M,M,M,M,M,M,M,M,M,M,M,M,M,38.98,EHBK 202355Z AUTO 19003KT 9999 NSC 05/02 Q1029,M
EHBK,2022-03-21 00:25,41.00,35.60,80.93,150.00,5.00,0.00,30.39,M,6.21,M,NSC,M,M,M,M,M,M,M,M,M,M,M,M,M,M,37.08,EHBK 210025Z AUTO 15005KT 9999 NSC 05/02 Q1029,M
EHBK,2022-03-21 00:55,41.00,35.60,80.93,180.00,3.00,0.00,30.39,M,6.21,M,NSC,M,M,M,M,M,M,M,M,M,M,M,M,M,M,38.98,EHBK 210055Z AUTO 18003KT 9999 NSC 05/02 Q1029,M
EHBK,2022-03-21 01:25,39.20,35.60,86.79,140.00,4.00,0.00,30.39,M,6.21,M,BKN,M,M,M,4400.00,M,M,M,M,M,M,M,M,M,M,35.83,EHBK 210125Z AUTO 14004KT 9999 BKN044 04/02 Q1029,M
EHBK,2022-03-21 01:55,41.00,37.40,86.89,120.00,5.00,0.00,30.39,M,6.21,M,NSC,M,M,M,M,M,M,M,M,M,M,M,M,M,M,37.08,EHBK 210155Z AUTO 12005KT 9999 NSC 05/03 Q1029,M
EHBK,2022-03-21 02:25,42.80,37.40,81.07,120.00,4.00,0.00,30.39,M,6.21,M,BKN,BKN,M,M,4400.00,4900.00,M,M,M,M,M,M,M,M,M,40.03,EHBK 210225Z AUTO 12004KT 9999 BKN044 BKN049 06/03 Q1029,M
EHBK,2022-03-21 02:55,42.80,37.40,81.07,M,2.00,0.00,30.39,M,6.21,M,BKN,M,M,M,4300.00,M,M,M,M,M,M,M,M,M,M,42.80,EHBK 210255Z AUTO VRB02KT 9999 BKN043 06/03 Q1029,M
EHBK,2022-03-21 03:25,41.00,37.40,86.89,100.00,4.00,0.00,30.39,M,6.21,M,NSC,M,M,M,M,M,M,M,M,M,M,M,M,M,M,37.93,EHBK 210325Z AUTO 10004KT 9999 NSC 05/03 Q1029,M
EHBK,2022-03-21 03:55,39.20,35.60,86.79,90.00,3.00,0.00,30.39,M,6.21,M,NCD,M,M,M,M,M,M,M,M,M,M,M,M,M,M,36.92,EHBK 210355Z AUTO 09003KT 9999 NCD 04/02 Q1029,M
EHBK,2022-03-21 04:25,41.00,37.40,86.89,110.00,3.00,0.00,30.39,M,6.21,M,NCD,M,M,M,M,M,M,M,M,M,M,M,M,M,M,38.98,EHBK 210425Z AUTO 11003KT 9999 NCD 05/03 Q1029,M
EHBK,2022-03-21 04:55,39.20,35.60,86.79,120.00,3.00,0.00,30.39,M,6.21,M,NCD,M,M,M,M,M,M,M,M,M,M,M,M,M,M,36.92,EHBK 210455Z AUTO 12003KT 9999 NCD 04/02 Q1029 NOSIG,M
EHBK,2022-03-21 05:25,37.40,35.60,93.14,M,2.00,0.00,30.39,M,4.97,M,NCD,M,M,M,M,M,M,M,M,M,M,M,M,M,M,37.40,EHBK 210525Z AUTO VRB02KT 8000 NCD 03/02 Q1029 NOSIG,M
EHBK,2022-03-21 05:55,35.60,33.80,93.08,40.00,3.00,0.00,30.42,M,5.59,M,NCD,M,M,M,M,M,M,M,M,M,M,M,M,M,M,32.80,EHBK 210555Z AUTO 04003KT 9000 NCD 02/01 Q1030 NOSIG,M
EHBK,2022-03-21 06:25,37.40,35.60,93.14,120.00,4.00,0.00,30.42,M,5.59,M,NCD,M,M,M,M,M,M,M,M,M,M,M,M,M,M,33.73,EHBK 210625Z AUTO 12004KT 040V150 9000 NCD 03/02 Q1030 NOSIG,M
EHBK,2022-03-21 06:55,39.20,37.40,93.19,M,1.00,0.00,30.42,M,6.21,M,SCT,M,M,M,4900.00,M,M,M,M,M,M,M,M,M,M,39.20,EHBK 210655Z AUTO VRB01KT 9999 SCT049 04/03 Q1030 NOSIG,M
EHBK,2022-03-21 07:25,44.60,39.20,81.20,160.00,2.00,0.00,30.42,M,6.21,M,NCD,M,M,M,M,M,M,M,M,M,M,M,M,M,M,44.60,EHBK 210725Z AUTO 16002KT 9999 NCD 07/04 Q1030 NOSIG,M
EHBK,2022-03-21 07:55,48.20,41.00,76.01,160.00,4.00,0.00,30.42,M,6.21,M,NCD,M,M,M,M,M,M,M,M,M,M,M,M,M,M,46.34,EHBK 210755Z AUTO 16004KT 9999 NCD 09/05 Q1030 NOSIG,M
EHBK,2022-03-21 08:25,50.00,39.20,66.27,160.00,3.00,0.00,30.42,M,6.21,M,NCD,M,M,M,M,M,M,M,M,M,M,M,M,M,M,50.00,EHBK 210825Z AUTO 16003KT 120V200 9999 NCD 10/04 Q1030 NOSIG,M
EHBK,2022-03-21 08:55,53.60,41.00,62.23,140.00,3.00,0.00,30.42,M,6.21,M,NCD,M,M,M,M,M,M,M,M,M,M,M,M,M,M,53.60,EHBK 210855Z AUTO 14003KT 100V210 9999 NCD 12/05 Q1030 NOSIG,M
EHBK,2022-03-21 09:25,53.60,41.00,62.23,200.00,5.00,0.00,30.42,M,6.21,M,NCD,M,M,M,M,M,M,M,M,M,M,M,M,M,M,53.60,EHBK 210925Z AUTO 20005KT 150V250 9999 NCD 12/05 Q1030 NOSIG,M
EHBK,2022-03-21 09:55,55.40,41.00,58.27,200.00,8.00,0.00,30.42,M,6.21,M,NCD,M,M,M,M,M,M,M,M,M,M,M,M,M,M,55.40,EHBK 210955Z AUTO 20008KT 9999 NCD 13/05 Q1030 NOSIG,M
EHBK,2022-03-21 10:25,59.00,42.80,54.86,200.00,5.00,0.00,30.42,M,6.21,M,NCD,M,M,M,M,M,M,M,M,M,M,M,M,M,M,59.00,EHBK 211025Z AUTO 20005KT 140V250 9999 NCD 15/06 Q1030 NOSIG,M
EHBK,2022-03-21 10:55,60.80,42.80,51.45,180.00,4.00,0.00,30.42,M,6.21,M,NCD,M,M,M,M,M,M,M,M,M,M,M,M,M,M,60.80,EHBK 211055Z AUTO 18004KT 120V260 9999 NCD 16/06 Q1030 NOSIG,M
EHBK,2022-03-21 11:25,60.80,42.80,51.45,210.00,5.00,0.00,30.42,M,6.21,M,NCD,M,M,M,M,M,M,M,M,M,M,M,M,M,M,60.80,EHBK 211125Z AUTO 21005KT 140V260 9999 NCD 16/06 Q1030 NOSIG,M
EHBK,2022-03-21 11:55,62.60,42.80,48.28,220.00,7.00,0.00,30.42,M,6.21,M,NCD,M,M,M,M,M,M,M,M,M,M,M,M,M,M,62.60,EHBK 211155Z AUTO 22007KT 180V260 9999 NCD 17/06 Q1030 NOSIG,M
EHBK,2022-03-21 12:25,62.60,42.80,48.28,220.00,8.00,0.00,30.42,M,6.21,M,NCD,M,M,M,M,M,M,M,M,M,M,M,M,M,M,62.60,EHBK 211225Z AUTO 22008KT 180V250 9999 NCD 17/06 Q1030 NOSIG,M
EHBK,2022-03-21 12:55,62.60,41.00,45.04,210.00,5.00,0.00,30.39,M,6.21,M,NCD,M,M,M,M,M,M,M,M,M,M,M,M,M,M,62.60,EHBK 211255Z AUTO 21005KT 130V280 9999 NCD 17/05 Q1029 NOSIG,M
EHBK,2022-03-21 13:25,64.40,42.80,45.32,190.00,7.00,0.00,30.39,M,6.21,M,NCD,M,M,M,M,M,M,M,M,M,M,M,M,M,M,64.40,EHBK 211325Z AUTO 19007KT 150V230 9999 NCD 18/06 Q1029 NOSIG,M
EHBK,2022-03-21 13:55,64.40,42.80,45.32,240.00,3.00,0.00,30.39,M,6.21,M,NCD,M,M,M,M,M,M,M,M,M,M,M,M,M,M,64.40,EHBK 211355Z AUTO 24003KT 170V320 9999 NCD 18/06 Q1029 NOSIG,M
EHBK,2022-03-21 14:25,64.40,41.00,42.28,150.00,4.00,0.00,30.39,M,6.21,M,NSC,M,M,M,M,M,M,M,M,M,M,M,M,M,M,64.40,EHBK 211425Z AUTO 15004KT 070V190 9999 NSC 18/05 Q1029 NOSIG,M
EHBK,2022-03-21 14:55,66.20,42.80,42.57,M,2.00,0.00,30.39,M,6.21,M,NSC,M,M,M,M,M,M,M,M,M,M,M,M,M,M,66.20,EHBK 211455Z AUTO VRB02KT 9999 NSC 19/06 Q1029 NOSIG,M
EHBK,2022-03-21 15:25,66.20,42.80,42.57,140.00,4.00,0.00,30.39,M,6.21,M,NSC,M,M,M,M,M,M,M,M,M,M,M,M,M,M,66.20,EHBK 211525Z AUTO 14004KT 070V240 9999 NSC 19/06 Q1029 NOSIG,M
EHBK,2022-03-21 15:55,64.40,42.80,45.32,70.00,5.00,0.00,30.39,M,6.21,M,NSC,M,M,M,M,M,M,M,M,M,M,M,M,M,M,64.40,EHBK 211555Z AUTO 07005KT 040V120 9999 NSC 18/06 Q1029 NOSIG,M
EHBK,2022-03-21 16:25,62.60,44.60,51.72,70.00,7.00,0.00,30.39,M,6.21,M,NSC,M,M,M,M,M,M,M,M,M,M,M,M,M,M,62.60,EHBK 211625Z AUTO 07007KT 9999 NSC 17/07 Q1029 NOSIG,M
EHBK,2022-03-21 16:55,60.80,44.60,55.12,60.00,6.00,0.00,30.39,M,6.21,M,NSC,M,M,M,M,M,M,M,M,M,M,M,M,M,M,60.80,EHBK 211655Z AUTO 06006KT 9999 NSC 16/07 Q1029 NOSIG,M
EHBK,2022-03-21 17:25,59.00,44.60,58.77,60.00,6.00,0.00,30.39,M,6.21,M,NSC,M,M,M,M,M,M,M,M,M,M,M,M,M,M,59.00,EHBK 211725Z AUTO 06006KT 9999 NSC 15/07 Q1029 NOSIG,M
EHBK,2022-03-21 17:55,57.20,44.60,62.69,70.00,6.00,0.00,30.39,M,6.21,M,NSC,M,M,M,M,M,M,M,M,M,M,M,M,M,M,57.20,EHBK 211755Z AUTO 07006KT 030V130 9999 NSC 14/07 Q1029 NOSIG,M
EHBK,2022-03-21 18:25,57.20,42.80,58.52,80.00,6.00,0.00,30.39,M,6.21,M,NSC,M,M,M,M,M,M,M,M,M,M,M,M,M,M,57.20,EHBK 211825Z AUTO 08006KT 9999 NSC 14/06 Q1029 NOSIG,M
EHBK,2022-03-21 18:55,55.40,42.80,62.46,100.00,4.00,0.00,30.39,M,6.21,M,NCD,M,M,M,M,M,M,M,M,M,M,M,M,M,M,55.40,EHBK 211855Z AUTO 10004KT 050V160 9999 NCD 13/06 Q1029 NOSIG,M
EHBK,2022-03-21 19:25,55.40,42.80,62.46,100.00,6.00,0.00,30.39,M,6.21,M,NCD,M,M,M,M,M,M,M,M,M,M,M,M,M,M,55.40,EHBK 211925Z AUTO 10006KT 9999 NCD 13/06 Q1029 NOSIG,M
EHBK,2022-03-21 19:55,53.60,42.80,66.70,110.00,5.00,0.00,30.39,M,6.21,M,NCD,M,M,M,M,M,M,M,M,M,M,M,M,M,M,53.60,EHBK 211955Z AUTO 11005KT 9999 NCD 12/06 Q1029 NOSIG,M
EHBK,2022-03-21 20:25,53.60,42.80,66.70,120.00,5.00,0.00,30.42,M,6.21,M,NCD,M,M,M,M,M,M,M,M,M,M,M,M,M,M,53.60,EHBK 212025Z AUTO 12005KT 9999 NCD 12/06 Q1030 NOSIG,M
EHBK,2022-03-21 20:55,53.60,42.80,66.70,140.00,5.00,0.00,30.42,M,6.21,M,NCD,M,M,M,M,M,M,M,M,M,M,M,M,M,M,53.60,EHBK 212055Z AUTO 14005KT 9999 NCD 12/06 Q1030 NOSIG,M
EHBK,2022-03-21 21:25,53.60,41.00,62.23,130.00,5.00,0.00,30.42,M,6.21,M,NCD,M,M,M,M,M,M,M,M,M,M,M,M,M,M,53.60,EHBK 212125Z AUTO 13005KT 9999 NCD 12/05 Q1030 NOSIG,M
EHBK,2022-03-21 21:55,51.80,39.20,61.99,160.00,2.00,0.00,30.42,M,6.21,M,NCD,M,M,M,M,M,M,M,M,M,M,M,M,M,M,51.80,EHBK 212155Z AUTO 16002KT 9999 NCD 11/04 Q1030,M
EHBK,2022-03-21 22:25,50.00,39.20,66.27,150.00,4.00,0.00,30.42,M,6.21,M,NCD,M,M,M,M,M,M,M,M,M,M,M,M,M,M,50.00,EHBK 212225Z AUTO 15004KT 9999 NCD 10/04 Q1030,M
EHBK,2022-03-21 22:55,50.00,39.20,66.27,140.00,4.00,0.00,30.42,M,6.21,M,NCD,M,M,M,M,M,M,M,M,M,M,M,M,M,M,50.00,EHBK 212255Z AUTO 14004KT 9999 NCD 10/04 Q1030,M
EHBK,2022-03-21 23:25,50.00,37.40,61.76,150.00,4.00,0.00,30.42,M,6.21,M,NCD,M,M,M,M,M,M,M,M,M,M,M,M,M,M,50.00,EHBK 212325Z AUTO 15004KT 9999 NCD 10/03 Q1030,M
EHBK,2022-03-21 23:55,48.20,37.40,66.05,170.00,5.00,0.00,30.42,M,6.21,M,NSC,M,M,M,M,M,M,M,M,M,M,M,M,M,M,45.63,EHBK 212355Z AUTO 17005KT 9999 NSC 09/03 Q1030,M
EHBK,2022-03-22 00:25,48.20,37.40,66.05,180.00,6.00,0.00,30.42,M,6.21,M,NSC,M,M,M,M,M,M,M,M,M,M,M,M,M,M,45.04,EHBK 220025Z AUTO 18006KT 9999 NSC 09/03 Q1030,M
EHBK,2022-03-22 00:55,50.00,37.40,61.76,170.00,5.00,0.00,30.42,M,6.21,M,NSC,M,M,M,M,M,M,M,M,M,M,M,M,M,M,50.00,EHBK 220055Z AUTO 17005KT 9999 NSC 10/03 Q1030,M
EHBK,2022-03-22 01:25,48.20,37.40,66.05,180.00,5.00,0.00,30.42,M,6.21,M,NSC,M,M,M,M,M,M,M,M,M,M,M,M,M,M,45.63,EHBK 220125Z AUTO 18005KT 9999 NSC 09/03 Q1030,M
EHBK,2022-03-22 01:55,48.20,37.40,66.05,180.00,6.00,0.00,30.42,M,6.21,M,NSC,M,M,M,M,M,M,M,M,M,M,M,M,M,M,45.04,EHBK 220155Z AUTO 18006KT 9999 NSC 09/03 Q1030,M
EHBK,2022-03-22 02:25,48.20,37.40,66.05,180.00,6.00,0.00,30.42,M,6.21,M,NCD,M,M,M,M,M,M,M,M,M,M,M,M,M,M,45.04,EHBK 220225Z AUTO 18006KT 9999 NCD 09/03 Q1030,M
EHBK,2022-03-22 02:55,48.20,37.40,66.05,190.00,5.00,0.00,30.42,M,6.21,M,NSC,M,M,M,M,M,M,M,M,M,M,M,M,M,M,45.63,EHBK 220255Z AUTO 19005KT 9999 NSC 09/03 Q1030,M
EHBK,2022-03-22 03:25,46.40,35.60,65.83,180.00,4.00,0.00,30.42,M,6.21,M,NSC,M,M,M,M,M,M,M,M,M,M,M,M,M,M,44.24,EHBK 220325Z AUTO 18004KT 9999 NSC 08/02 Q1030,M
EHBK,2022-03-22 03:55,46.40,35.60,65.83,170.00,1.00,0.00,30.42,M,6.21,M,NSC,M,M,M,M,M,M,M,M,M,M,M,M,M,M,46.40,EHBK 220355Z AUTO 17001KT 9999 NSC 08/02 Q1030,M
EHBK,2022-03-22 04:25,42.80,35.60,75.50,110.00,3.00,0.00,30.42,M,6.21,M,NSC,M,M,M,M,M,M,M,M,M,M,M,M,M,M,41.03,EHBK 220425Z AUTO 11003KT 080V140 9999 NSC 06/02 Q1030,M
EHBK,2022-03-22 04:55,41.00,33.80,75.33,100.00,3.00,0.00,30.42,M,6.21,M,NSC,M,M,M,M,M,M,M,M,M,M,M,M,M,M,38.98,EHBK 220455Z AUTO 10003KT 9999 NSC 05/01 Q1030 NOSIG,M
EHBK,2022-03-22 05:25,41.00,35.60,80.93,110.00,3.00,0.00,30.42,M,6.21,M,NSC,M,M,M,M,M,M,M,M,M,M,M,M,M,M,38.98,EHBK 220525Z AUTO 11003KT 9999 NSC 05/02 Q1030 NOSIG,M
EHBK,2022-03-22 05:55,41.00,35.60,80.93,100.00,2.00,0.00,30.45,M,6.21,M,NSC,M,M,M,M,M,M,M,M,M,M,M,M,M,M,41.00,EHBK 220555Z AUTO 10002KT 9999 NSC 05/02 Q1031 NOSIG,M
EHBK,2022-03-22 06:25,42.80,35.60,75.50,120.00,4.00,0.00,30.45,M,6.21,M,NSC,M,M,M,M,M,M,M,M,M,M,M,M,M,M,40.03,EHBK 220625Z AUTO 12004KT 9999 NSC 06/02 Q1031 NOSIG,M
EHBK,2022-03-22 06:55,46.40,39.20,75.84,100.00,4.00,0.00,30.45,M,6.21,M,NSC,M,M,M,M,M,M,M,M,M,M,M,M,M,M,44.24,EHBK 220655Z AUTO 10004KT 9999 NSC 08/04 Q1031 NOSIG,M
EHBK,2022-03-22 07:25,50.00,39.20,66.27,100.00,6.00,0.00,30.45,M,6.21,M,NSC,M,M,M,M,M,M,M,M,M,M,M,M,M,M,50.00,EHBK 220725Z AUTO 10006KT 9999 NSC 10/04 Q1031 NOSIG,M
EHBK,2022-03-22 07:55,53.60,39.20,58.02,100.00,4.00,0.00,30.45,M,6.21,M,NSC,M,M,M,M,M,M,M,M,M,M,M,M,M,M,53.60,EHBK 220755Z AUTO 10004KT 070V190 9999 NSC 12/04 Q1031 NOSIG,M
EHBK,2022-03-22 08:25,55.40,37.40,50.64,90.00,4.00,0.00,30.45,M,6.21,M,NCD,M,M,M,M,M,M,M,M,M,M,M,M,M,M,55.40,EHBK 220825Z AUTO 09004KT 060V130 9999 NCD 13/03 Q1031 NOSIG,M
EHBK,2022-03-22 08:55,57.20,39.20,50.91,100.00,6.00,0.00,30.45,M,6.21,M,NCD,M,M,M,M,M,M,M,M,M,M,M,M,M,M,57.20,EHBK 220855Z AUTO 10006KT 9999 NCD 14/04 Q1031 NOSIG,M
EHBK,2022-03-22 09:25,59.00,39.20,47.72,100.00,5.00,0.00,30.45,M,6.21,M,NCD,M,M,M,M,M,M,M,M,M,M,M,M,M,M,59.00,EHBK 220925Z AUTO 10005KT 9999 NCD 15/04 Q1031 NOSIG,M
EHBK,2022-03-22 09:55,60.80,37.40,41.71,120.00,4.00,0.00,30.45,M,6.21,M,NCD,M,M,M,M,M,M,M,M,M,M,M,M,M,M,60.80,EHBK 220955Z AUTO 12004KT 070V160 9999 NCD 16/03 Q1031 NOSIG,M
EHBK,2022-03-22 10:25,62.60,33.80,33.93,M,3.00,0.00,30.45,M,6.21,M,NCD,M,M,M,M,M,M,M,M,M,M,M,M,M,M,62.60,EHBK 221025Z AUTO VRB03KT 9999 NCD 17/01 Q1031 NOSIG,M
EHBK,2022-03-22 10:55,64.40,33.80,31.85,90.00,3.00,0.00,30.45,M,6.21,M,NCD,M,M,M,M,M,M,M,M,M,M,M,M,M,M,64.40,EHBK 221055Z AUTO 09003KT 360V170 9999 NCD 18/01 Q1031 NOSIG,M
EHBK,2022-03-22 11:25,64.40,33.80,31.85,40.00,6.00,0.00,30.45,M,6.21,M,NCD,M,M,M,M,M,M,M,M,M,M,M,M,M,M,64.40,EHBK 221125Z AUTO 04006KT 340V100 9999 NCD 18/01 Q1031 NOSIG,M
EHBK,2022-03-22 11:55,64.40,37.40,36.74,70.00,5.00,0.00,30.42,M,6.21,M,NCD,M,M,M,M,M,M,M,M,M,M,M,M,M,M,64.40,EHBK 221155Z AUTO 07005KT 350V160 9999 NCD 18/03 Q1030 NOSIG,M
EHBK,2022-03-22 12:25,66.20,35.60,32.14,M,5.00,0.00,30.42,M,6.21,M,NCD,M,M,M,M,M,M,M,M,M,M,M,M,M,M,66.20,EHBK 221225Z AUTO VRB05KT 9999 NCD 19/02 Q1030 NOSIG,M
EHBK,2022-03-22 12:55,66.20,32.00,27.83,100.00,10.00,0.00,30.42,M,6.21,M,NCD,M,M,M,M,M,M,M,M,M,M,M,M,M,M,66.20,EHBK 221255Z AUTO 10010KT 050V140 9999 NCD 19/M00 Q1030 NOSIG,M
EHBK,2022-03-22 13:25,66.20,30.20,25.88,70.00,11.00,0.00,30.42,M,6.21,M,NCD,M,M,M,M,M,M,M,M,M,M,M,M,M,M,66.20,EHBK 221325Z AUTO 07011KT 040V120 9999 NCD 19/M01 Q1030 NOSIG,M
EHBK,2022-03-22 13:55,66.20,30.20,25.88,100.00,9.00,0.00,30.42,M,6.21,M,NCD,M,M,M,M,M,M,M,M,M,M,M,M,M,M,66.20,EHBK 221355Z AUTO 10009KT 050V130 9999 NCD 19/M01 Q1030 NOSIG,M
EHBK,2022-03-22 14:25,66.20,32.00,27.83,60.00,10.00,0.00,30.39,M,6.21,M,NCD,M,M,M,M,M,M,M,M,M,M,M,M,M,M,66.20,EHBK 221425Z AUTO 06010KT 030V120 9999 NCD 19/M00 Q1029 NOSIG,M
EHBK,2022-03-22 14:55,64.40,28.40,25.60,90.00,13.00,0.00,30.39,M,6.21,M,NCD,M,M,M,M,M,M,M,M,M,M,M,M,M,M,64.40,EHBK 221455Z AUTO 09013KT 060V120 9999 NCD 18/M02 Q1029 NOSIG,M
EHBK,2022-03-22 15:25,62.60,26.60,25.32,70.00,11.00,0.00,30.39,M,6.21,M,NCD,M,M,M,M,M,M,M,M,M,M,M,M,M,M,62.60,EHBK 221525Z AUTO 07011KT 040V110 9999 NCD 17/M03 Q1029 NOSIG,M
EHBK,2022-03-22 15:55,62.60,24.80,23.50,90.00,9.00,0.00,30.39,M,6.21,M,NCD,M,M,M,M,M,M,M,M,M,M,M,M,M,M,62.60,EHBK 221555Z AUTO 09009KT 050V150 9999 NCD 17/M04 Q1029 NOSIG,M
EHBK,2022-03-22 16:25,62.60,26.60,25.32,90.00,8.00,0.00,30.39,M,6.21,M,NCD,M,M,M,M,M,M,M,M,M,M,M,M,M,M,62.60,EHBK 221625Z AUTO 09008KT 050V120 9999 NCD 17/M03 Q1029 NOSIG,M
EHBK,2022-03-22 16:55,60.80,24.80,25.04,80.00,8.00,0.00,30.39,M,6.21,M,NCD,M,M,M,M,M,M,M,M,M,M,M,M,M,M,60.80,EHBK 221655Z AUTO 08008KT 9999 NCD 16/M04 Q1029 NOSIG,M
EHBK,2022-03-22 17:25,57.20,24.80,28.48,80.00,6.00,0.00,30.39,M,6.21,M,NCD,M,M,M,M,M,M,M,M,M,M,M,M,M,M,57.20,EHBK 221725Z AUTO 08006KT 050V110 9999 NCD 14/M04 Q1029 NOSIG,M
EHBK,2022-03-22 17:55,55.40,24.80,30.40,90.00,5.00,0.00,30.39,M,6.21,M,NCD,M,M,M,M,M,M,M,M,M,M,M,M,M,M,55.40,EHBK 221755Z AUTO 09005KT 9999 NCD 13/M04 Q1029 NOSIG,M
EHBK,2022-03-22 18:25,53.60,24.80,32.46,90.00,4.00,0.00,30.39,M,6.21,M,NCD,M,M,M,M,M,M,M,M,M,M,M,M,M,M,53.60,EHBK 221825Z AUTO 09004KT 9999 NCD 12/M04 Q1029 NOSIG,M
EHBK,2022-03-22 18:55,53.60,24.80,32.46,90.00,5.00,0.00,30.39,M,6.21,M,NCD,M,M,M,M,M,M,M,M,M,M,M,M,M,M,53.60,EHBK 221855Z AUTO 09005KT 9999 NCD 12/M04 Q1029 NOSIG,M
EHBK,2022-03-22 19:25,50.00,24.80,37.08,80.00,4.00,0.00,30.39,M,6.21,M,NCD,M,M,M,M,M,M,M,M,M,M,M,M,M,M,50.00,EHBK 221925Z AUTO 08004KT 050V110 9999 NCD 10/M04 Q1029 NOSIG,M
EHBK,2022-03-22 19:55,51.80,24.80,34.69,100.00,4.00,0.00,30.39,M,6.21,M,NCD,M,M,M,M,M,M,M,M,M,M,M,M,M,M,51.80,EHBK 221955Z AUTO 10004KT 9999 NCD 11/M04 Q1029 NOSIG,M
EHBK,2022-03-22 20:25,51.80,26.60,37.38,100.00,5.00,0.00,30.39,M,6.21,M,NCD,M,M,M,M,M,M,M,M,M,M,M,M,M,M,51.80,EHBK 222025Z AUTO 10005KT 9999 NCD 11/M03 Q1029 NOSIG,M
EHBK,2022-03-22 20:55,50.00,26.60,39.95,100.00,5.00,0.00,30.42,M,6.21,M,NCD,M,M,M,M,M,M,M,M,M,M,M,M,M,M,50.00,EHBK 222055Z AUTO 10005KT 9999 NCD 10/M03 Q1030 NOSIG,M
EHBK,2022-03-22 21:25,50.00,28.40,43.03,150.00,5.00,0.00,30.42,M,6.21,M,NCD,M,M,M,M,M,M,M,M,M,M,M,M,M,M,50.00,EHBK 222125Z AUTO 15005KT 120V190 9999 NCD 10/M02 Q1030 NOSIG,M
EHBK,2022-03-22 21:55,50.00,28.40,43.03,140.00,3.00,0.00,30.42,M,6.21,M,NCD,M,M,M,M,M,M,M,M,M,M,M,M,M,M,50.00,EHBK 222155Z AUTO 14003KT 9999 NCD 10/M02 Q1030 NOSIG,M
EHBK,2022-03-22 22:25,48.20,26.60,42.73,50.00,3.00,0.00,30.39,M,6.21,M,NCD,M,M,M,M,M,M,M,M,M,M,M,M,M,M,47.21,EHBK 222225Z AUTO 05003KT 360V140 9999 NCD 09/M03 Q1029 NOSIG,M
EHBK,2022-03-22 22:55,46.40,28.40,49.24,110.00,3.00,0.00,30.42,M,6.21,M,NCD,M,M,M,M,M,M,M,M,M,M,M,M,M,M,45.15,EHBK 222255Z AUTO 11003KT 9999 NCD 08/M02 Q1030 NOSIG,M
EHBK,2022-03-22 23:25,44.60,28.40,52.72,160.00,3.00,0.00,30.42,M,6.21,M,NCD,M,M,M,M,M,M,M,M,M,M,M,M,M,M,43.09,EHBK 222325Z AUTO 16003KT 9999 NCD 07/M02 Q1030 NOSIG,M
EHBK,2022-03-22 23:55,42.80,28.40,56.48,90.00,2.00,0.00,30.39,M,6.21,M,NCD,M,M,M,M,M,M,M,M,M,M,M,M,M,M,42.80,EHBK 222355Z AUTO 09002KT 9999 NCD 06/M02 Q1029 NOSIG,M
EHBK,2022-03-23 00:25,44.60,30.20,56.74,M,2.00,0.00,30.39,M,6.21,M,NCD,M,M,M,M,M,M,M,M,M,M,M,M,M,M,44.60,EHBK 230025Z AUTO VRB02KT 9999 NCD 07/M01 Q1029 NOSIG,M
EHBK,2022-03-23 00:55,42.80,28.40,56.48,100.00,4.00,0.00,30.39,M,6.21,M,NCD,M,M,M,M,M,M,M,M,M,M,M,M,M,M,40.03,EHBK 230055Z AUTO 10004KT 9999 NCD 06/M02 Q1029,M
EHBK,2022-03-23 01:25,41.00,28.40,60.54,130.00,5.00,0.00,30.39,M,6.21,M,NCD,M,M,M,M,M,M,M,M,M,M,M,M,M,M,37.08,EHBK 230125Z AUTO 13005KT 9999 NCD 05/M02 Q1029,M
EHBK,2022-03-23 01:55,41.00,28.40,60.54,160.00,3.00,0.00,30.39,M,6.21,M,NCD,M,M,M,M,M,M,M,M,M,M,M,M,M,M,38.98,EHBK 230155Z AUTO 16003KT 9999 NCD 05/M02 Q1029,M
EHBK,2022-03-23 02:25,41.00,28.40,60.54,150.00,3.00,0.00,30.39,M,6.21,M,NCD,M,M,M,M,M,M,M,M,M,M,M,M,M,M,38.98,EHBK 230225Z AUTO 15003KT 9999 NCD 05/M02 Q1029,M
EHBK,2022-03-23 02:55,39.20,30.20,69.88,160.00,4.00,0.00,30.39,M,6.21,M,NCD,M,M,M,M,M,M,M,M,M,M,M,M,M,M,35.83,EHBK 230255Z AUTO 16004KT 9999 NCD 04/M01 Q1029,M
EHBK,2022-03-23 03:25,41.00,28.40,60.54,180.00,4.00,0.00,30.39,M,6.21,M,NCD,M,M,M,M,M,M,M,M,M,M,M,M,M,M,37.93,EHBK 230325Z AUTO 18004KT 9999 NCD 05/M02 Q1029,M
EHBK,2022-03-23 03:55,41.00,28.40,60.54,190.00,4.00,0.00,30.39,M,6.21,M,NCD,M,M,M,M,M,M,M,M,M,M,M,M,M,M,37.93,EHBK 230355Z AUTO 19004KT 9999 NCD 05/M02 Q1029,M
EHBK,2022-03-23 04:25,39.20,28.40,64.93,170.00,3.00,0.00,30.39,M,6.21,M,NCD,M,M,M,M,M,M,M,M,M,M,M,M,M,M,36.92,EHBK 230425Z AUTO 17003KT 9999 NCD 04/M02 Q1029,M
EHBK,2022-03-23 04:55,39.20,28.40,64.93,180.00,3.00,0.00,30.39,M,6.21,M,NCD,M,M,M,M,M,M,M,M,M,M,M,M,M,M,36.92,EHBK 230455Z AUTO 18003KT 9999 NCD 04/M02 Q1029,M
EHBK,2022-03-23 05:25,39.20,28.40,64.93,190.00,5.00,0.00,30.42,M,6.21,M,NCD,M,M,M,M,M,M,M,M,M,M,M,M,M,M,34.95,EHBK 230525Z AUTO 19005KT 9999 NCD 04/M02 Q1030 NOSIG,M
EHBK,2022-03-23 05:55,39.20,28.40,64.93,190.00,5.00,0.00,30.42,M,6.21,M,NCD,M,M,M,M,M,M,M,M,M,M,M,M,M,M,34.95,EHBK 230555Z AUTO 19005KT 9999 NCD 04/M02 Q1030 NOSIG,M
EHBK,2022-03-23 06:25,42.80,28.40,56.48,200.00,5.00,0.00,30.42,M,6.21,M,NCD,M,M,M,M,M,M,M,M,M,M,M,M,M,M,39.22,EHBK 230625Z AUTO 20005KT 9999 NCD 06/M02 Q1030 NOSIG,M
EHBK,2022-03-23 06:55,42.80,33.80,70.28,190.00,5.00,0.00,30.42,M,6.21,M,NCD,M,M,M,M,M,M,M,M,M,M,M,M,M,M,39.22,EHBK 230655Z AUTO 19005KT 9999 NCD 06/01 Q1030 NOSIG,M
EHBK,2022-03-23 07:25,46.40,33.80,61.28,200.00,4.00,0.00,30.42,M,6.21,M,NCD,M,M,M,M,M,M,M,M,M,M,M,M,M,M,44.24,EHBK 230725Z AUTO 20004KT 170V230 9999 NCD 08/01 Q1030 NOSIG,M
EHBK,2022-03-23 07:55,48.20,33.80,57.26,200.00,5.00,0.00,30.42,M,6.21,M,NCD,M,M,M,M,M,M,M,M,M,M,M,M,M,M,45.63,EHBK 230755Z AUTO 20005KT 9999 NCD 09/01 Q1030 NOSIG,M
EHBK,2022-03-23 08:25,50.00,33.80,53.54,210.00,7.00,0.00,30.45,M,6.21,M,NCD,M,M,M,M,M,M,M,M,M,M,M,M,M,M,50.00,EHBK 230825Z AUTO 21007KT 9999 NCD 10/01 Q1031 NOSIG,M
EHBK,2022-03-23 08:55,53.60,35.60,50.36,210.00,6.00,0.00,30.45,M,6.21,M,NCD,M,M,M,M,M,M,M,M,M,M,M,M,M,M,53.60,EHBK 230855Z AUTO 21006KT 9999 NCD 12/02 Q1031 NOSIG,M
EHBK,2022-03-23 09:25,55.40,35.60,47.16,220.00,5.00,0.00,30.45,M,6.21,M,NCD,M,M,M,M,M,M,M,M,M,M,M,M,M,M,55.40,EHBK 230925Z AUTO 22005KT 180V250 9999 NCD 13/02 Q1031 NOSIG,M
EHBK,2022-03-23 09:55,57.20,35.60,44.19,220.00,5.00,0.00,30.45,M,6.21,M,NCD,M,M,M,M,M,M,M,M,M,M,M,M,M,M,57.20,EHBK 230955Z AUTO 22005KT 190V260 9999 NCD 14/02 Q1031 NOSIG,M
EHBK,2022-03-23 10:25,59.00,33.80,38.56,230.00,5.00,0.00,30.45,M,6.21,M,NCD,M,M,M,M,M,M,M,M,M,M,M,M,M,M,59.00,EHBK 231025Z AUTO 23005KT 200V280 9999 NCD 15/01 Q1031 NOSIG,M
EHBK,2022-03-23 10:55,60.80,33.80,36.16,250.00,4.00,0.00,30.45,M,6.21,M,NCD,M,M,M,M,M,M,M,M,M,M,M,M,M,M,60.80,EHBK 231055Z AUTO 25004KT 190V320 9999 NCD 16/01 Q1031 NOSIG,M
EHBK,2022-03-23 11:25,62.60,32.00,31.56,230.00,5.00,0.00,30.45,M,6.21,M,NCD,M,M,M,M,M,M,M,M,M,M,M,M,M,M,62.60,EHBK 231125Z AUTO 23005KT 160V300 9999 NCD 17/00 Q1031 NOSIG,M
EHBK,2022-03-23 11:55,64.40,30.20,27.55,240.00,5.00,0.00,30.42,M,6.21,M,NCD,M,M,M,M,M,M,M,M,M,M,M,M,M,M,64.40,EHBK 231155Z AUTO 24005KT 200V300 9999 NCD 18/M01 Q1030 NOSIG,M
EHBK,2022-03-23 12:25,64.40,32.00,29.63,220.00,6.00,0.00,30.42,M,6.21,M,NCD,M,M,M,M,M,M,M,M,M,M,M,M,M,M,64.40,EHBK 231225Z AUTO 22006KT 160V270 9999 NCD 18/00 Q1030 NOSIG,M
EHBK,2022-03-23 12:55,64.40,30.20,27.55,250.00,6.00,0.00,30.42,M,6.21,M,NCD,M,M,M,M,M,M,M,M,M,M,M,M,M,M,64.40,EHBK 231255Z AUTO 25006KT 180V310 9999 NCD 18/M01 Q1030 NOSIG,M
EHBK,2022-03-23 13:25,64.40,32.00,29.63,230.00,6.00,0.00,30.42,M,6.21,M,NCD,M,M,M,M,M,M,M,M,M,M,M,M,M,M,64.40,EHBK 231325Z AUTO 23006KT 180V290 9999 NCD 18/M00 Q1030 NOSIG,M
EHBK,2022-03-23 13:55,64.40,32.00,29.63,220.00,7.00,0.00,30.39,M,6.21,M,NCD,M,M,M,M,M,M,M,M,M,M,M,M,M,M,64.40,EHBK 231355Z AUTO 22007KT 170V260 9999 NCD 18/00 Q1029 NOSIG,M
EHBK,2022-03-23 14:25,66.20,33.80,29.92,M,5.00,0.00,30.39,M,6.21,M,NCD,M,M,M,M,M,M,M,M,M,M,M,M,M,M,66.20,EHBK 231425Z AUTO VRB05KT 9999 NCD 19/01 Q1029 NOSIG,M
EHBK,2022-03-23 14:55,64.40,30.20,27.55,240.00,6.00,0.00,30.39,M,6.21,M,NCD,M,M,M,M,M,M,M,M,M,M,M,M,M,M,64.40,EHBK 231455Z AUTO 24006KT 170V290 9999 NCD 18/M01 Q1029 NOSIG,M
EHBK,2022-03-23 15:25,64.40,32.00,29.63,240.00,4.00,0.00,30.39,M,6.21,M,NCD,M,M,M,M,M,M,M,M,M,M,M,M,M,M,64.40,EHBK 231525Z AUTO 24004KT 150V290 9999 NCD 18/00 Q1029 NOSIG,M
EHBK,2022-03-23 15:55,64.40,28.40,25.60,250.00,3.00,0.00,30.39,M,6.21,M,NCD,M,M,M,M,M,M,M,M,M,M,M,M,M,M,64.40,EHBK 231555Z AUTO 25003KT 190V320 9999 NCD 18/M02 Q1029 NOSIG,M
EHBK,2022-03-23 16:25,64.40,32.00,29.63,260.00,5.00,0.00,30.36,M,6.21,M,NCD,M,M,M,M,M,M,M,M,M,M,M,M,M,M,64.40,EHBK 231625Z AUTO 26005KT 230V310 9999 NCD 18/M00 Q1028 NOSIG,M
EHBK,2022-03-23 16:55,62.60,32.00,31.56,230.00,4.00,0.00,30.39,M,6.21,M,NCD,M,M,M,M,M,M,M,M,M,M,M,M,M,M,62.60,EHBK 231655Z AUTO 23004KT 210V270 9999 NCD 17/00 Q1029 NOSIG,M
EHBK,2022-03-23 17:25,60.80,30.20,31.28,250.00,2.00,0.00,30.39,M,6.21,M,NCD,M,M,M,M,M,M,M,M,M,M,M,M,M,M,60.80,EHBK 231725Z AUTO 25002KT 9999 NCD 16/M01 Q1029 NOSIG,M
EHBK,2022-03-23 17:55,59.00,32.00,35.87,M,2.00,0.00,30.39,M,6.21,M,NCD,M,M,M,M,M,M,M,M,M,M,M,M,M,M,59.00,EHBK 231755Z AUTO VRB02KT 9999 NCD 15/M00 Q1029 NOSIG,M
EHBK,2022-03-23 18:25,57.20,32.00,38.26,M,2.00,0.00,30.39,M,6.21,M,NCD,M,M,M,M,M,M,M,M,M,M,M,M,M,M,57.20,EHBK 231825Z AUTO VRB02KT 9999 NCD 14/M00 Q1029 NOSIG,M
EHBK,2022-03-23 18:55,55.40,30.20,37.97,280.00,2.00,0.00,30.39,M,6.21,M,NCD,M,M,M,M,M,M,M,M,M,M,M,M,M,M,55.40,EHBK 231855Z AUTO 28002KT 9999 NCD 13/M01 Q1029 NOSIG,M
EHBK,2022-03-23 19:25,57.20,30.20,35.57,M,2.00,0.00,30.39,M,6.21,M,NCD,M,M,M,M,M,M,M,M,M,M,M,M,M,M,57.20,EHBK 231925Z AUTO VRB02KT 9999 NCD 14/M01 Q1029 NOSIG,M
EHBK,2022-03-23 19:55,55.40,28.40,35.28,340.00,3.00,0.00,30.39,M,6.21,M,NCD,M,M,M,M,M,M,M,M,M,M,M,M,M,M,55.40,EHBK 231955Z AUTO 34003KT 320V040 9999 NCD 13/M02 Q1029 NOSIG,M
EHBK,2022-03-23 20:25,51.80,30.20,43.32,50.00,4.00,0.00,30.39,M,6.21,M,NCD,M,M,M,M,M,M,M,M,M,M,M,M,M,M,51.80,EHBK 232025Z AUTO 05004KT 010V080 9999 NCD 11/M01 Q1029 NOSIG,M
EHBK,2022-03-23 20:55,53.60,30.20,40.54,340.00,4.00,0.00,30.39,M,6.21,M,NCD,M,M,M,M,M,M,M,M,M,M,M,M,M,M,53.60,EHBK 232055Z AUTO 34004KT 9999 NCD 12/M01 Q1029 NOSIG,M
EHBK,2022-03-23 21:25,50.00,30.20,46.31,350.00,4.00,0.00,30.39,M,6.21,M,NCD,M,M,M,M,M,M,M,M,M,M,M,M,M,M,50.00,EHBK 232125Z AUTO 35004KT 9999 NCD 10/M01 Q1029 NOSIG,M
EHBK,2022-03-23 21:55,48.20,32.00,53.27,90.00,3.00,0.00,30.39,M,6.21,M,NCD,M,M,M,M,M,M,M,M,M,M,M,M,M,M,47.21,EHBK 232155Z AUTO 09003KT 9999 NCD 09/M00 Q1029 NOSIG,M
EHBK,2022-03-23 22:25,48.20,30.20,49.53,140.00,2.00,0.00,30.39,M,6.21,M,NSC,M,M,M,M,M,M,M,M,M,M,M,M,M,M,48.20,EHBK 232225Z AUTO 14002KT 9999 NSC 09/M01 Q1029,M
EHBK,2022-03-23 22:55,46.40,32.00,57.00,180.00,2.00,0.00,30.39,M,6.21,M,NCD,M,M,M,M,M,M,M,M,M,M,M,M,M,M,46.40,EHBK 232255Z AUTO 18002KT 9999 NCD 08/00 Q1029,M
EHBK,2022-03-23 23:25,44.60,32.00,61.03,160.00,1.00,0.00,30.39,M,6.21,M,NCD,M,M,M,M,M,M,M,M,M,M,M,M,M,M,44.60,EHBK 232325Z AUTO 16001KT 9999 NCD 07/M00 Q1029,M
EHBK,2022-03-23 23:55,44.60,32.00,61.03,160.00,4.00,0.00,30.39,M,6.21,M,NCD,M,M,M,M,M,M,M,M,M,M,M,M,M,M,42.13,EHBK 232355Z AUTO 16004KT 9999 NCD 07/00 Q1029,M
EHBK,2022-03-24 00:25,44.60,33.80,65.61,170.00,4.00,0.00,30.39,M,6.21,M,NCD,M,M,M,M,M,M,M,M,M,M,M,M,M,M,42.13,EHBK 240025Z AUTO 17004KT 9999 NCD 07/01 Q1029,M
EHBK,2022-03-24 00:55,42.80,32.00,65.38,170.00,3.00,0.00,30.39,M,6.21,M,NCD,M,M,M,M,M,M,M,M,M,M,M,M,M,M,41.03,EHBK 240055Z AUTO 17003KT 9999 NCD 06/00 Q1029,M
EHBK,2022-03-24 01:25,42.80,32.00,65.38,180.00,3.00,0.00,30.39,M,6.21,M,NSC,M,M,M,M,M,M,M,M,M,M,M,M,M,M,41.03,EHBK 240125Z AUTO 18003KT 9999 NSC 06/M00 Q1029,M
EHBK,2022-03-24 01:55,44.60,32.00,61.03,200.00,4.00,0.00,30.39,M,6.21,M,NCD,M,M,M,M,M,M,M,M,M,M,M,M,M,M,42.13,EHBK 240155Z AUTO 20004KT 9999 NCD 07/M00 Q1029,M
EHBK,2022-03-24 02:25,42.80,32.00,65.38,210.00,4.00,0.00,30.39,M,6.21,M,NCD,M,M,M,M,M,M,M,M,M,M,M,M,M,M,40.03,EHBK 240225Z AUTO 21004KT 9999 NCD 06/00 Q1029,M
EHBK,2022-03-24 02:55,39.20,32.00,75.16,210.00,5.00,0.00,30.39,M,6.21,M,NCD,M,M,M,M,M,M,M,M,M,M,M,M,M,M,34.95,EHBK 240255Z AUTO 21005KT 9999 NCD 04/M00 Q1029,M
EHBK,2022-03-24 03:25,39.20,32.00,75.16,210.00,6.00,0.00,30.39,M,6.21,M,NCD,M,M,M,M,M,M,M,M,M,M,M,M,M,M,34.20,EHBK 240325Z AUTO 21006KT 9999 NCD 04/M00 Q1029,M
EHBK,2022-03-24 03:55,39.20,32.00,75.16,210.00,6.00,0.00,30.39,M,6.21,M,NCD,M,M,M,M,M,M,M,M,M,M,M,M,M,M,34.20,EHBK 240355Z AUTO 21006KT 9999 NCD 04/M00 Q1029,M
EHBK,2022-03-24 04:25,37.40,30.20,74.98,200.00,5.00,0.00,30.39,M,6.21,M,NCD,M,M,M,M,M,M,M,M,M,M,M,M,M,M,32.81,EHBK 240425Z AUTO 20005KT 9999 NCD 03/M01 Q1029,M
EHBK,2022-03-24 04:55,39.20,32.00,75.16,190.00,5.00,0.00,30.39,M,6.21,M,NCD,M,M,M,M,M,M,M,M,M,M,M,M,M,M,34.95,EHBK 240455Z AUTO 19005KT 9999 NCD 04/M00 Q1029,M
EHBK,2022-03-24 05:25,37.40,30.20,74.98,200.00,6.00,0.00,30.39,M,6.21,M,NCD,M,M,M,M,M,M,M,M,M,M,M,M,M,M,32.03,EHBK 240525Z AUTO 20006KT 9999 NCD 03/M01 Q1029,M
EHBK,2022-03-24 05:55,37.40,30.20,74.98,200.00,5.00,0.00,30.39,M,6.21,M,NCD,M,M,M,M,M,M,M,M,M,M,M,M,M,M,32.81,EHBK 240555Z AUTO 20005KT 9999 NCD 03/M01 Q1029 NOSIG,M
EHBK,2022-03-24 06:25,41.00,33.80,75.33,200.00,5.00,0.00,30.39,M,6.21,M,NCD,M,M,M,M,M,M,M,M,M,M,M,M,M,M,37.08,EHBK 240625Z AUTO 20005KT 160V220 9999 NCD 05/01 Q1029 NOSIG,M
EHBK,2022-03-24 06:55,42.80,35.60,75.50,200.00,4.00,0.00,30.39,M,6.21,M,NCD,M,M,M,M,M,M,M,M,M,M,M,M,M,M,40.03,EHBK 240655Z AUTO 20004KT 9999 NCD 06/02 Q1029 NOSIG,M
EHBK,2022-03-24 07:25,42.80,35.60,75.50,200.00,4.00,0.00,30.39,M,6.21,M,NCD,M,M,M,M,M,M,M,M,M,M,M,M,M,M,40.03,EHBK 240725Z AUTO 20004KT 9999 NCD 06/02 Q1029 NOSIG,M
EHBK,2022-03-24 07:55,48.20,35.60,61.52,200.00,4.00,0.00,30.39,M,6.21,M,NCD,M,M,M,M,M,M,M,M,M,M,M,M,M,M,46.34,EHBK 240755Z AUTO 20004KT 9999 NCD 09/02 Q1029 NOSIG,M
EHBK,2022-03-24 08:25,48.20,37.40,66.05,220.00,4.00,0.00,30.39,M,6.21,M,NCD,M,M,M,M,M,M,M,M,M,M,M,M,M,M,46.34,EHBK 240825Z AUTO 22004KT 190V250 9999 NCD 09/03 Q1029 NOSIG,M
EHBK,2022-03-24 08:55,51.80,35.60,53.81,210.00,4.00,0.00,30.39,M,6.21,M,NCD,M,M,M,M,M,M,M,M,M,M,M,M,M,M,51.80,EHBK 240855Z AUTO 21004KT 9999 NCD 11/02 Q1029 NOSIG,M
EHBK,2022-03-24 09:25,55.40,35.60,47.16,210.00,3.00,0.00,30.42,M,6.21,M,NCD,M,M,M,M,M,M,M,M,M,M,M,M,M,M,55.40,EHBK 240925Z AUTO 21003KT 170V250 9999 NCD 13/02 Q1030 NOSIG,M
EHBK,2022-03-24 09:55,57.20,35.60,44.19,M,2.00,0.00,30.42,M,6.21,M,NCD,M,M,M,M,M,M,M,M,M,M,M,M,M,M,57.20,EHBK 240955Z AUTO VRB02KT 9999 NCD 14/02 Q1030 NOSIG,M
EHBK,2022-03-24 10:25,59.00,32.00,35.87,340.00,4.00,0.00,30.42,M,6.21,M,NCD,M,M,M,M,M,M,M,M,M,M,M,M,M,M,59.00,EHBK 241025Z AUTO 34004KT 290V030 9999 NCD 15/M00 Q1030 NOSIG,M
EHBK,2022-03-24 10:55,60.80,28.40,29.06,350.00,4.00,0.00,30.39,M,6.21,M,NCD,M,M,M,M,M,M,M,M,M,M,M,M,M,M,60.80,EHBK 241055Z AUTO 35004KT 300V030 9999 NCD 16/M02 Q1029 NOSIG,M
EHBK,2022-03-24 11:25,60.80,28.40,29.06,M,3.00,0.00,30.39,M,6.21,M,NCD,M,M,M,M,M,M,M,M,M,M,M,M,M,M,60.80,EHBK 241125Z AUTO VRB03KT 9999 NCD 16/M02 Q1029 NOSIG,M
EHBK,2022-03-24 11:55,62.60,26.60,25.32,M,3.00,0.00,30.39,M,6.21,M,NCD,M,M,M,M,M,M,M,M,M,M,M,M,M,M,62.60,EHBK 241155Z AUTO VRB03KT 9999 NCD 17/M03 Q1029 NOSIG,M
EHBK,2022-03-24 12:25,62.60,28.40,27.27,M,2.00,0.00,30.39,M,6.21,M,NCD,M,M,M,M,M,M,M,M,M,M,M,M,M,M,62.60,EHBK 241225Z AUTO VRB02KT 9999 NCD 17/M02 Q1029 NOSIG,M
EHBK,2022-03-24 12:55,64.40,32.00,29.63,M,4.00,0.00,30.36,M,6.21,M,NCD,M,M,M,M,M,M,M,M,M,M,M,M,M,M,64.40,EHBK 241255Z AUTO VRB04KT 9999 NCD 18/M00 Q1028 NOSIG,M
EHBK,2022-03-24 13:25,62.60,28.40,27.27,340.00,4.00,0.00,30.36,M,6.21,M,NCD,M,M,M,M,M,M,M,M,M,M,M,M,M,M,62.60,EHBK 241325Z AUTO 34004KT 270V050 9999 NCD 17/M02 Q1028 NOSIG,M
EHBK,2022-03-24 13:55,64.40,30.20,27.55,M,2.00,0.00,30.36,M,6.21,M,NCD,M,M,M,M,M,M,M,M,M,M,M,M,M,M,64.40,EHBK 241355Z AUTO VRB02KT 9999 NCD 18/M01 Q1028 NOSIG,M
EHBK,2022-03-24 14:25,64.40,30.20,27.55,320.00,5.00,0.00,30.36,M,6.21,M,NCD,M,M,M,M,M,M,M,M,M,M,M,M,M,M,64.40,EHBK 241425Z AUTO 32005KT 270V010 9999 NCD 18/M01 Q1028 NOSIG,M
EHBK,2022-03-24 14:55,64.40,30.20,27.55,350.00,7.00,0.00,30.33,M,6.21,M,NCD,M,M,M,M,M,M,M,M,M,M,M,M,M,M,64.40,EHBK 241455Z AUTO 35007KT 320V040 9999 NCD 18/M01 Q1027 NOSIG,M
EHBK,2022-03-24 15:25,62.60,28.40,27.27,20.00,6.00,0.00,30.33,M,6.21,M,NCD,M,M,M,M,M,M,M,M,M,M,M,M,M,M,62.60,EHBK 241525Z AUTO 02006KT 340V060 9999 NCD 17/M02 Q1027 NOSIG,M
EHBK,2022-03-24 15:55,62.60,28.40,27.27,20.00,6.00,0.00,30.33,M,6.21,M,NCD,M,M,M,M,M,M,M,M,M,M,M,M,M,M,62.60,EHBK 241555Z AUTO 02006KT 340V050 9999 NCD 17/M02 Q1027 NOSIG,M
EHBK,2022-03-24 16:25,60.80,28.40,29.06,10.00,6.00,0.00,30.33,M,6.21,M,NCD,M,M,M,M,M,M,M,M,M,M,M,M,M,M,60.80,EHBK 241625Z AUTO 01006KT 330V040 9999 NCD 16/M02 Q1027 NOSIG,M
EHBK,2022-03-24 16:55,59.00,28.40,30.98,10.00,6.00,0.00,30.33,M,6.21,M,NCD,M,M,M,M,M,M,M,M,M,M,M,M,M,M,59.00,EHBK 241655Z AUTO 01006KT 340V040 9999 NCD 15/M02 Q1027 NOSIG,M
EHBK,2022-03-24 17:25,57.20,30.20,35.57,20.00,7.00,0.00,30.36,M,6.21,M,NCD,M,M,M,M,M,M,M,M,M,M,M,M,M,M,57.20,EHBK 241725Z AUTO 02007KT 9999 NCD 14/M01 Q1028 NOSIG,M
EHBK,2022-03-24 17:55,55.40,28.40,35.28,20.00,5.00,0.00,30.36,M,6.21,M,NCD,M,M,M,M,M,M,M,M,M,M,M,M,M,M,55.40,EHBK 241755Z AUTO 02005KT 9999 NCD 13/M02 Q1028 NOSIG,M
EHBK,2022-03-24 18:25,53.60,28.40,37.67,30.00,2.00,0.00,30.36,M,6.21,M,NCD,M,M,M,M,M,M,M,M,M,M,M,M,M,M,53.60,EHBK 241825Z AUTO 03002KT 9999 NCD 12/M02 Q1028 NOSIG,M
EHBK,2022-03-24 18:55,53.60,26.60,34.98,20.00,2.00,0.00,30.36,M,6.21,M,NCD,M,M,M,M,M,M,M,M,M,M,M,M,M,M,53.60,EHBK 241855Z AUTO 02002KT 9999 NCD 12/M03 Q1028 NOSIG,M
EHBK,2022-03-24 19:25,53.60,28.40,37.67,M,2.00,0.00,30.36,M,6.21,M,NCD,M,M,M,M,M,M,M,M,M,M,M,M,M,M,53.60,EHBK 241925Z AUTO VRB02KT 9999 NCD 12/M02 Q1028 NOSIG,M
EHBK,2022-03-24 19:55,53.60,26.60,34.98,M,2.00,0.00,30.36,M,6.21,M,NCD,M,M,M,M,M,M,M,M,M,M,M,M,M,M,53.60,EHBK 241955Z AUTO VRB02KT 9999 NCD 12/M03 Q1028 NOSIG,M
EHBK,2022-03-24 20:25,51.80,26.60,37.38,20.00,3.00,0.00,30.36,M,6.21,M,NSC,M,M,M,M,M,M,M,M,M,M,M,M,M,M,51.80,EHBK 242025Z AUTO 02003KT 9999 NSC 11/M03 Q1028 NOSIG,M
EHBK,2022-03-24 20:55,51.80,28.40,40.25,30.00,2.00,0.00,30.36,M,6.21,M,NCD,M,M,M,M,M,M,M,M,M,M,M,M,M,M,51.80,EHBK 242055Z AUTO 03002KT 9999 NCD 11/M02 Q1028 NOSIG,M
EHBK,2022-03-24 21:25,48.20,28.40,46.02,50.00,2.00,0.00,30.36,M,6.21,M,NCD,M,M,M,M,M,M,M,M,M,M,M,M,M,M,48.20,EHBK 242125Z AUTO 05002KT 9999 NCD 09/M02 Q1028 NOSIG,M
EHBK,2022-03-24 21:55,50.00,28.40,43.03,M,2.00,0.00,30.36,M,6.21,M,NCD,M,M,M,M,M,M,M,M,M,M,M,M,M,M,50.00,EHBK 242155Z AUTO VRB02KT 9999 NCD 10/M02 Q1028 NOSIG,M
EHBK,2022-03-24 22:25,48.20,30.20,49.53,350.00,5.00,0.00,30.39,M,6.21,M,NCD,M,M,M,M,M,M,M,M,M,M,M,M,M,M,45.63,EHBK 242225Z AUTO 35005KT 320V020 9999 NCD 09/M01 Q1029,M
EHBK,2022-03-24 22:55,46.40,30.20,53.00,10.00,3.00,0.00,30.39,M,6.21,M,NCD,M,M,M,M,M,M,M,M,M,M,M,M,M,M,45.15,EHBK 242255Z AUTO 01003KT 340V040 9999 NCD 08/M01 Q1029,M
EHBK,2022-03-24 23:25,48.20,32.00,53.27,20.00,7.00,0.00,30.39,M,6.21,M,NCD,M,M,M,M,M,M,M,M,M,M,M,M,M,M,44.53,EHBK 242325Z AUTO 02007KT 9999 NCD 09/M00 Q1029,M
EHBK,2022-03-24 23:55,44.60,35.60,70.48,30.00,7.00,0.00,30.39,M,6.21,M,NCD,M,M,M,M,M,M,M,M,M,M,M,M,M,M,40.14,EHBK 242355Z AUTO 03007KT 9999 NCD 07/02 Q1029,M
EHBK,2022-03-25 00:25,44.60,32.00,61.03,20.00,4.00,0.00,30.39,M,6.21,M,NSC,M,M,M,M,M,M,M,M,M,M,M,M,M,M,42.13,EHBK 250025Z AUTO 02004KT 350V050 9999 NSC 07/00 Q1029,M
EHBK,2022-03-25 00:55,44.60,33.80,65.61,50.00,4.00,0.00,30.39,M,6.21,M,NCD,M,M,M,M,M,M,M,M,M,M,M,M,M,M,42.13,EHBK 250055Z AUTO 05004KT 9999 NCD 07/01 Q1029,M
EHBK,2022-03-25 01:25,42.80,33.80,70.28,340.00,4.00,0.00,30.39,M,6.21,M,NCD,M,M,M,M,M,M,M,M,M,M,M,M,M,M,40.03,EHBK 250125Z AUTO 34004KT 9999 NCD 06/01 Q1029,M
EHBK,2022-03-25 01:55,42.80,33.80,70.28,350.00,4.00,0.00,30.36,M,6.21,M,NCD,M,M,M,M,M,M,M,M,M,M,M,M,M,M,40.03,EHBK 250155Z AUTO 35004KT 9999 NCD 06/01 Q1028,M
EHBK,2022-03-25 02:25,41.00,33.80,75.33,10.00,3.00,0.00,30.36,M,6.21,M,NCD,M,M,M,M,M,M,M,M,M,M,M,M,M,M,38.98,EHBK 250225Z AUTO 01003KT 9999 NCD 05/01 Q1028,M
EHBK,2022-03-25 02:55,41.00,33.80,75.33,10.00,3.00,0.00,30.36,M,5.59,M,NCD,M,M,M,M,M,M,M,M,M,M,M,M,M,M,38.98,EHBK 250255Z AUTO 01003KT 9000 NCD 05/01 Q1028,M
EHBK,2022-03-25 03:25,39.20,33.80,80.79,360.00,3.00,0.00,30.36,M,4.97,M,NCD,M,M,M,M,M,M,M,M,M,M,M,M,M,M,36.92,EHBK 250325Z AUTO 36003KT 8000 NCD 04/01 Q1028,M
EHBK,2022-03-25 03:55,41.00,35.60,80.93,M,M,0.00,30.36,M,4.35,M,NCD,M,M,M,M,M,M,M,M,M,M,M,M,M,M,M,EHBK 250355Z AUTO /////KT 7000 NCD 05/02 Q1028,M
EHBK,2022-03-25 04:25,41.00,35.60,80.93,360.00,4.00,0.00,30.39,M,3.73,M,NCD,M,M,M,M,M,M,M,M,M,M,M,M,M,M,37.93,EHBK 250425Z AUTO 36004KT 6000 NCD 05/02 Q1029,M
EHBK,2022-03-25 04:55,41.00,35.60,80.93,10.00,2.00,0.00,30.39,M,3.11,M,NCD,M,M,M,M,M,M,M,M,M,M,M,M,M,M,41.00,COR EHBK 250455Z AUTO 01002KT 5000 NCD 05/02 Q1029 NOSIG,M
EHBK,2022-03-25 05:25,37.40,33.80,86.69,40.00,1.00,0.00,30.39,M,3.73,M,NCD,M,M,M,M,M,M,M,M,M,M,M,M,M,M,37.40,EHBK 250525Z AUTO 04001KT 6000 NCD 03/01 Q1029 NOSIG,M
EHBK,2022-03-25 05:55,37.40,35.60,93.14,30.00,1.00,0.00,30.39,M,3.11,M,NCD,M,M,M,M,M,M,M,M,M,M,M,M,M,M,37.40,EHBK 250555Z AUTO 03001KT 5000 NCD 03/02 Q1029 NOSIG,M
EHBK,2022-03-25 06:25,37.40,33.80,86.69,M,1.00,0.00,30.39,M,3.11,M,NCD,M,M,M,M,M,M,M,M,M,M,M,M,M,M,37.40,EHBK 250625Z AUTO VRB01KT 5000 NCD 03/01 Q1029 NOSIG,M
EHBK,2022-03-25 06:55,39.20,35.60,86.79,180.00,2.00,0.00,30.39,M,2.92,M,NCD,M,M,M,M,M,M,M,BR,M,M,M,M,M,M,39.20,EHBK 250655Z AUTO 18002KT 4700 BR NCD 04/02 Q1029 NOSIG,M
EHBK,2022-03-25 07:25,44.60,39.20,81.20,0.00,0.00,0.00,30.39,M,3.11,M,NCD,M,M,M,M,M,M,M,M,M,M,M,M,M,M,44.60,EHBK 250725Z AUTO 00000KT 5000 NCD 07/04 Q1029 BECMG CAVOK,M
EHBK,2022-03-25 07:55,44.60,37.40,75.68,M,1.00,0.00,30.39,M,3.11,M,NCD,M,M,M,M,M,M,M,M,M,M,M,M,M,M,44.60,EHBK 250755Z AUTO VRB01KT 5000 NCD 07/03 Q1029 BECMG CAVOK,M
EHBK,2022-03-25 08:25,46.40,39.20,75.84,350.00,3.00,0.00,30.42,M,3.73,M,NCD,M,M,M,M,M,M,M,M,M,M,M,M,M,M,45.15,EHBK 250825Z AUTO 35003KT 300V050 6000 NCD 08/04 Q1030 BECMG CAVOK,M
EHBK,2022-03-25 08:55,48.20,39.20,70.88,360.00,3.00,0.00,30.42,M,3.73,M,NCD,M,M,M,M,M,M,M,M,M,M,M,M,M,M,47.21,EHBK 250855Z AUTO 36003KT 310V050 6000 NCD 09/04 Q1030 BECMG CAVOK,M
EHBK,2022-03-25 09:25,51.80,41.00,66.48,350.00,3.00,0.00,30.42,M,4.35,M,NCD,M,M,M,M,M,M,M,M,M,M,M,M,M,M,51.80,EHBK 250925Z AUTO 35003KT 310V050 7000 NCD 11/05 Q1030 BECMG CAVOK,M
EHBK,2022-03-25 09:55,53.60,37.40,54.07,30.00,4.00,0.00,30.42,M,4.97,M,NCD,M,M,M,M,M,M,M,M,M,M,M,M,M,M,53.60,EHBK 250955Z AUTO 03004KT 330V080 8000 NCD 12/03 Q1030 BECMG CAVOK,M
EHBK,2022-03-25 10:25,57.20,37.40,47.44,30.00,5.00,0.00,30.42,M,6.21,M,NCD,M,M,M,M,M,M,M,M,M,M,M,M,M,M,57.20,EHBK 251025Z AUTO 03005KT 350V130 9999 NCD 14/03 Q1030 NOSIG,M
EHBK,2022-03-25 10:55,57.20,39.20,50.91,30.00,5.00,0.00,30.42,M,6.21,M,NCD,M,M,M,M,M,M,M,M,M,M,M,M,M,M,57.20,EHBK 251055Z AUTO 03005KT 340V080 9999 NCD 14/04 Q1030 NOSIG,M
EHBK,2022-03-25 11:25,59.00,39.20,47.72,10.00,6.00,0.00,30.42,M,5.59,M,NCD,M,M,M,M,M,M,M,M,M,M,M,M,M,M,59.00,EHBK 251125Z AUTO 01006KT 320V060 9000 NCD 15/04 Q1030 NOSIG,M
EHBK,2022-03-25 11:55,60.80,37.40,41.71,M,5.00,0.00,30.42,M,6.21,M,NCD,M,M,M,M,M,M,M,M,M,M,M,M,M,M,60.80,EHBK 251155Z AUTO VRB05KT 9999 NCD 16/03 Q1030 NOSIG,M
EHBK,2022-03-25 12:25,60.80,35.60,38.85,50.00,8.00,0.00,30.39,M,6.21,M,NCD,M,M,M,M,M,M,M,M,M,M,M,M,M,M,60.80,EHBK 251225Z AUTO 05008KT 9999 NCD 16/02 Q1029 NOSIG,M
EHBK,2022-03-25 12:55,60.80,35.60,38.85,60.00,8.00,0.00,30.39,M,6.21,M,NSC,M,M,M,M,M,M,M,M,M,M,M,M,M,M,60.80,EHBK 251255Z AUTO 06008KT 010V120 9999 NSC 16/02 Q1029 NOSIG,M
EHBK,2022-03-25 13:25,60.80,33.80,36.16,50.00,10.00,0.00,30.39,M,6.21,M,NSC,M,M,M,M,M,M,M,M,M,M,M,M,M,M,60.80,EHBK 251325Z AUTO 05010KT 010V090 9999 NSC 16/01 Q1029 NOSIG,M
EHBK,2022-03-25 13:55,60.80,35.60,38.85,50.00,10.00,0.00,30.39,M,6.21,M,NSC,M,M,M,M,M,M,M,M,M,M,M,M,M,M,60.80,EHBK 251355Z AUTO 05010KT 010V090 9999 NSC 16/02 Q1029 NOSIG,M
EHBK,2022-03-25 14:25,62.60,33.80,33.93,40.00,11.00,0.00,30.39,M,6.21,M,NSC,M,M,M,M,M,M,M,M,M,M,M,M,M,M,62.60,EHBK 251425Z AUTO 04011KT 010V070 9999 NSC 17/01 Q1029 NOSIG,M
EHBK,2022-03-25 14:55,60.80,35.60,38.85,50.00,9.00,0.00,30.36,M,6.21,M,NSC,M,M,M,M,M,M,M,M,M,M,M,M,M,M,60.80,EHBK 251455Z AUTO 05009KT 020V080 9999 NSC 16/02 Q1028 NOSIG,M
EHBK,2022-03-25 15:25,60.80,35.60,38.85,40.00,11.00,0.00,30.36,M,6.21,M,NSC,M,M,M,M,M,M,M,M,M,M,M,M,M,M,60.80,EHBK 251525Z AUTO 04011KT 360V070 9999 NSC 16/02 Q1028 NOSIG,M
EHBK,2022-03-25 15:55,60.80,33.80,36.16,60.00,11.00,0.00,30.36,M,6.21,M,NCD,M,M,M,M,M,M,M,M,M,M,M,M,M,M,60.80,EHBK 251555Z AUTO 06011KT 010V090 9999 NCD 16/01 Q1028 NOSIG,M
EHBK,2022-03-25 16:25,59.00,33.80,38.56,50.00,10.00,0.00,30.36,M,6.21,M,NCD,M,M,M,M,M,M,M,M,M,M,M,M,M,M,59.00,EHBK 251625Z AUTO 05010KT 020V110 9999 NCD 15/01 Q1028 NOSIG,M
EHBK,2022-03-25 16:55,59.00,33.80,38.56,50.00,8.00,0.00,30.36,M,6.21,M,NCD,M,M,M,M,M,M,M,M,M,M,M,M,M,M,59.00,EHBK 251655Z AUTO 05008KT 360V080 9999 NCD 15/01 Q1028 NOSIG,M
EHBK,2022-03-25 17:25,57.20,35.60,44.19,50.00,8.00,0.00,30.36,M,6.21,M,NCD,M,M,M,M,M,M,M,M,M,M,M,M,M,M,57.20,EHBK 251725Z AUTO 05008KT 9999 NCD 14/02 Q1028 NOSIG,M
EHBK,2022-03-25 17:55,51.80,33.80,50.08,50.00,6.00,0.00,30.36,M,6.21,M,NCD,M,M,M,M,M,M,M,M,M,M,M,M,M,M,51.80,EHBK 251755Z AUTO 05006KT 9999 NCD 11/01 Q1028 NOSIG,M
EHBK,2022-03-25 18:25,50.00,33.80,53.54,40.00,5.00,0.00,30.36,M,6.21,M,NCD,M,M,M,M,M,M,M,M,M,M,M,M,M,M,50.00,EHBK 251825Z AUTO 04005KT 9999 NCD 10/01 Q1028 NOSIG,M
EHBK,2022-03-25 18:55,50.00,33.80,53.54,30.00,6.00,0.00,30.39,M,6.21,M,NSC,M,M,M,M,M,M,M,M,M,M,M,M,M,M,50.00,EHBK 251855Z AUTO 03006KT 9999 NSC 10/01 Q1029 NOSIG,M
EHBK,2022-03-25 19:25,48.20,33.80,57.26,30.00,7.00,0.00,30.39,M,6.21,M,NCD,M,M,M,M,M,M,M,M,M,M,M,M,M,M,44.53,EHBK 251925Z AUTO 03007KT 9999 NCD 09/01 Q1029 NOSIG,M
EHBK,2022-03-25 19:55,46.40,33.80,61.28,40.00,7.00,0.00,30.39,M,6.21,M,NCD,M,M,M,M,M,M,M,M,M,M,M,M,M,M,42.33,EHBK 251955Z AUTO 04007KT 9999 NCD 08/01 Q1029 NOSIG,M
EHBK,2022-03-25 20:25,51.80,33.80,50.08,50.00,6.00,0.00,30.39,M,6.21,M,NCD,M,M,M,M,M,M,M,M,M,M,M,M,M,M,51.80,EHBK 252025Z AUTO 05006KT 010V080 9999 NCD 11/01 Q1029 NOSIG,M
EHBK,2022-03-25 20:55,44.60,33.80,65.61,40.00,7.00,0.00,30.39,M,6.21,M,NCD,M,M,M,M,M,M,M,M,M,M,M,M,M,M,40.14,EHBK 252055Z AUTO 04007KT 9999 NCD 07/01 Q1029 NOSIG,M
EHBK,2022-03-25 21:25,46.40,33.80,61.28,40.00,8.00,0.00,30.39,M,6.21,M,NCD,M,M,M,M,M,M,M,M,M,M,M,M,M,M,41.85,EHBK 252125Z AUTO 04008KT 9999 NCD 08/01 Q1029 NOSIG,M
EHBK,2022-03-25 21:55,46.40,33.80,61.28,50.00,8.00,0.00,30.42,M,6.21,M,NCD,M,M,M,M,M,M,M,M,M,M,M,M,M,M,41.85,COR EHBK 252155Z AUTO 05008KT 9999 NCD 08/01 Q1030,M
EHBK,2022-03-25 22:25,46.40,33.80,61.28,50.00,7.00,0.00,30.42,M,6.21,M,NCD,M,M,M,M,M,M,M,M,M,M,M,M,M,M,42.33,EHBK 252225Z AUTO 05007KT 9999 NCD 08/01 Q1030,M
EHBK,2022-03-25 22:55,42.80,33.80,70.28,40.00,7.00,0.00,30.42,M,6.21,M,NCD,M,M,M,M,M,M,M,M,M,M,M,M,M,M,37.94,EHBK 252255Z AUTO 04007KT 9999 NCD 06/01 Q1030,M
EHBK,2022-03-25 23:25,42.80,33.80,70.28,40.00,7.00,0.00,30.42,M,6.21,M,NCD,M,M,M,M,M,M,M,M,M,M,M,M,M,M,37.94,EHBK 252325Z AUTO 04007KT 9999 NCD 06/01 Q1030,M
EHBK,2022-03-25 23:55,44.60,33.80,65.61,60.00,6.00,0.00,30.42,M,6.21,M,NCD,M,M,M,M,M,M,M,M,M,M,M,M,M,M,40.71,EHBK 252355Z AUTO 06006KT 9999 NCD 07/01 Q1030,M
EHBK,2022-03-26 00:25,42.80,33.80,70.28,50.00,7.00,0.00,30.42,M,6.21,M,NCD,M,M,M,M,M,M,M,M,M,M,M,M,M,M,37.94,EHBK 260025Z AUTO 05007KT 9999 NCD 06/01 Q1030,M
EHBK,2022-03-26 00:55,41.00,33.80,75.33,50.00,6.00,0.00,30.42,M,6.21,M,NCD,M,M,M,M,M,M,M,M,M,M,M,M,M,M,36.37,EHBK 260055Z AUTO 05006KT 9999 NCD 05/01 Q1030,M
EHBK,2022-03-26 01:25,39.20,32.00,75.16,50.00,5.00,0.00,30.42,M,6.21,M,NCD,M,M,M,M,M,M,M,M,M,M,M,M,M,M,34.95,EHBK 260125Z AUTO 05005KT 9999 NCD 04/00 Q1030,M
EHBK,2022-03-26 01:55,42.80,33.80,70.28,70.00,5.00,0.00,30.42,M,6.21,M,NSC,M,M,M,M,M,M,M,M,M,M,M,M,M,M,39.22,EHBK 260155Z AUTO 07005KT 9999 NSC 06/01 Q1030,M
EHBK,2022-03-26 02:25,39.20,32.00,75.16,50.00,5.00,0.00,30.42,M,6.21,M,NSC,M,M,M,M,M,M,M,M,M,M,M,M,M,M,34.95,EHBK 260225Z AUTO 05005KT 9999 NSC 04/M00 Q1030,M
EHBK,2022-03-26 02:55,39.20,32.00,75.16,50.00,6.00,0.00,30.42,M,5.59,M,NSC,M,M,M,M,M,M,M,M,M,M,M,M,M,M,34.20,EHBK 260255Z AUTO 05006KT 9000 NSC 04/M00 Q1030,M
EHBK,2022-03-26 03:25,37.40,32.00,80.65,50.00,6.00,0.00,30.42,M,5.59,M,NSC,M,M,M,M,M,M,M,M,M,M,M,M,M,M,32.03,EHBK 260325Z AUTO 05006KT 9000 NSC 03/M00 Q1030,M
EHBK,2022-03-26 03:55,37.40,32.00,80.65,50.00,7.00,0.00,30.42,M,4.97,M,NSC,M,M,M,M,M,M,M,M,M,M,M,M,M,M,31.36,EHBK 260355Z AUTO 05007KT 8000 NSC 03/00 Q1030,M
EHBK,2022-03-26 04:25,39.20,33.80,80.79,70.00,4.00,0.00,30.42,M,4.97,M,NSC,M,M,M,M,M,M,M,M,M,M,M,M,M,M,35.83,EHBK 260425Z AUTO 07004KT 8000 NSC 04/01 Q1030,M
EHBK,2022-03-26 04:55,37.40,32.00,80.65,70.00,4.00,0.00,30.42,M,4.97,M,NSC,M,M,M,M,M,M,M,M,M,M,M,M,M,M,33.73,EHBK 260455Z AUTO 07004KT 8000 NSC 03/00 Q1030,M
EHBK,2022-03-26 05:25,39.20,32.00,75.16,M,2.00,0.00,30.42,M,4.35,M,FEW,M,M,M,4500.00,M,M,M,M,M,M,M,M,M,M,39.20,EHBK 260525Z AUTO VRB02KT 7000 FEW045 04/00 Q1030 NOSIG,M
EHBK,2022-03-26 05:55,37.40,32.00,80.65,70.00,3.00,0.00,30.42,M,4.35,M,FEW,M,M,M,4200.00,M,M,M,M,M,M,M,M,M,M,34.86,EHBK 260555Z AUTO 07003KT 040V100 7000 FEW042 03/00 Q1030 NOSIG,M
EHBK,2022-03-26 06:25,39.20,33.80,80.79,30.00,5.00,0.00,30.45,M,3.73,M,FEW,M,M,M,4200.00,M,M,M,M,M,M,M,M,M,M,34.95,EHBK 260625Z AUTO 03005KT 6000 FEW042 04/01 Q1031 NOSIG,M
EHBK,2022-03-26 06:55,42.80,37.40,81.07,50.00,4.00,0.00,30.45,M,3.73,M,NCD,M,M,M,M,M,M,M,M,M,M,M,M,M,M,40.03,EHBK 260655Z AUTO 05004KT 6000 NCD 06/03 Q1031 NOSIG,M
EHBK,2022-03-26 07:25,46.40,37.40,70.68,40.00,6.00,0.00,30.45,M,4.35,M,NCD,M,M,M,M,M,M,M,M,M,M,M,M,M,M,42.87,EHBK 260725Z AUTO 04006KT 7000 NCD 08/03 Q1031 NOSIG,M
EHBK,2022-03-26 07:55,48.20,37.40,66.05,70.00,6.00,0.00,30.45,M,4.97,M,NCD,M,M,M,M,M,M,M,M,M,M,M,M,M,M,45.04,EHBK 260755Z AUTO 07006KT 8000 NCD 09/03 Q1031 NOSIG,M
EHBK,2022-03-26 08:25,50.00,39.20,66.27,60.00,6.00,0.00,30.45,M,4.97,M,NCD,M,M,M,M,M,M,M,M,M,M,M,M,M,M,50.00,EHBK 260825Z AUTO 06006KT 020V080 8000 NCD 10/04 Q1031 NOSIG,M
EHBK,2022-03-26 08:55,53.60,39.20,58.02,50.00,5.00,0.00,30.47,M,5.59,M,NCD,M,M,M,M,M,M,M,M,M,M,M,M,M,M,53.60,EHBK 260855Z AUTO 05005KT 020V080 9000 NCD 12/04 Q1032 NOSIG,M
EHBK,2022-03-26 09:25,55.40,37.40,50.64,50.00,5.00,0.00,30.45,M,6.21,M,NCD,M,M,M,M,M,M,M,M,M,M,M,M,M,M,55.40,EHBK 260925Z AUTO 05005KT 010V090 9999 NCD 13/03 Q1031 NOSIG,M
EHBK,2022-03-26 09:55,57.20,37.40,47.44,60.00,6.00,0.00,30.45,M,6.21,M,NCD,M,M,M,M,M,M,M,M,M,M,M,M,M,M,57.20,EHBK 260955Z AUTO 06006KT 020V090 9999 NCD 14/03 Q1031 NOSIG,M
EHBK,2022-03-26 10:25,59.00,37.40,44.47,50.00,7.00,0.00,30.45,M,6.21,M,NCD,M,M,M,M,M,M,M,M,M,M,M,M,M,M,59.00,EHBK 261025Z AUTO 05007KT 020V090 9999 NCD 15/03 Q1031 NOSIG,M
EHBK,2022-03-26 10:55,60.80,37.40,41.71,50.00,10.00,0.00,30.45,M,6.21,M,NCD,M,M,M,M,M,M,M,M,M,M,M,M,M,M,60.80,EHBK 261055Z AUTO 05010KT 010V080 9999 NCD 16/03 Q1031 NOSIG,M
EHBK,2022-03-26 11:25,60.80,37.40,41.71,60.00,10.00,0.00,30.45,M,6.21,M,NCD,M,M,M,M,M,M,M,M,M,M,M,M,M,M,60.80,EHBK 261125Z AUTO 06010KT 030V110 9999 NCD 16/03 Q1031 NOSIG,M
EHBK,2022-03-26 11:55,62.60,35.60,36.45,50.00,10.00,0.00,30.45,M,6.21,M,NCD,M,M,M,M,M,M,M,M,M,M,M,M,M,M,62.60,EHBK 261155Z AUTO 05010KT 020V080 9999 NCD 17/02 Q1031 NOSIG,M
EHBK,2022-03-26 12:25,62.60,37.40,39.14,50.00,10.00,0.00,30.45,M,6.21,M,NCD,M,M,M,M,M,M,M,M,M,M,M,M,M,M,62.60,EHBK 261225Z AUTO 05010KT 010V080 9999 NCD 17/03 Q1031 NOSIG,M
EHBK,2022-03-26 12:55,62.60,35.60,36.45,50.00,11.00,0.00,30.45,M,6.21,M,NCD,M,M,M,M,M,M,M,M,M,M,M,M,M,M,62.60,EHBK 261255Z AUTO 05011KT 010V090 9999 NCD 17/02 Q1031 NOSIG,M
EHBK,2022-03-26 13:25,62.60,35.60,36.45,50.00,11.00,0.00,30.42,M,6.21,M,NCD,M,M,M,M,M,M,M,M,M,M,M,M,M,M,62.60,EHBK 261325Z AUTO 05011KT 010V080 9999 NCD 17/02 Q1030 NOSIG,M
EHBK,2022-03-26 13:55,62.60,39.20,42.00,60.00,11.00,0.00,30.42,M,6.21,M,NCD,M,M,M,M,M,M,M,M,M,M,M,M,M,M,62.60,EHBK 261355Z AUTO 06011KT 020V090 9999 NCD 17/04 Q1030 NOSIG,M
EHBK,2022-03-26 14:25,62.60,37.40,39.14,50.00,11.00,0.00,30.42,M,6.21,M,NCD,M,M,M,M,M,M,M,M,M,M,M,M,M,M,62.60,EHBK 261425Z AUTO 05011KT 010V080 9999 NCD 17/03 Q1030 NOSIG,M
EHBK,2022-03-26 14:55,62.60,37.40,39.14,40.00,11.00,0.00,30.42,M,6.21,M,NCD,M,M,M,M,M,M,M,M,M,M,M,M,M,M,62.60,EHBK 261455Z AUTO 04011KT 9999 NCD 17/03 Q1030 NOSIG,M
EHBK,2022-03-26 15:25,62.60,39.20,42.00,60.00,10.00,0.00,30.39,M,6.21,M,NCD,M,M,M,M,M,M,M,M,M,M,M,M,M,M,62.60,EHBK 261525Z AUTO 06010KT 030V100 9999 NCD 17/04 Q1029 NOSIG,M
EHBK,2022-03-26 15:55,62.60,39.20,42.00,50.00,11.00,0.00,30.39,M,6.21,M,NCD,M,M,M,M,M,M,M,M,M,M,M,M,M,M,62.60,EHBK 261555Z AUTO 05011KT 020V080 9999 NCD 17/04 Q1029 NOSIG,M
EHBK,2022-03-26 16:25,62.60,39.20,42.00,50.00,9.00,0.00,30.39,M,6.21,M,NCD,M,M,M,M,M,M,M,M,M,M,M,M,M,M,62.60,EHBK 261625Z AUTO 05009KT 010V090 9999 NCD 17/04 Q1029 NOSIG,M
EHBK,2022-03-26 16:55,60.80,39.20,44.76,40.00,10.00,0.00,30.39,M,6.21,M,NCD,M,M,M,M,M,M,M,M,M,M,M,M,M,M,60.80,EHBK 261655Z AUTO 04010KT 360V070 9999 NCD 16/04 Q1029 NOSIG,M
EHBK,2022-03-26 17:25,59.00,39.20,47.72,40.00,10.00,0.00,30.39,M,6.21,M,NCD,M,M,M,M,M,M,M,M,M,M,M,M,M,M,59.00,EHBK 261725Z AUTO 04010KT 010V080 9999 NCD 15/04 Q1029 NOSIG,M
EHBK,2022-03-26 17:55,57.20,39.20,50.91,40.00,9.00,0.00,30.39,M,6.21,M,NCD,M,M,M,M,M,M,M,M,M,M,M,M,M,M,57.20,EHBK 261755Z AUTO 04009KT 9999 NCD 14/04 Q1029 NOSIG,M
EHBK,2022-03-26 18:25,53.60,39.20,58.02,30.00,7.00,0.00,30.42,M,6.21,M,NCD,M,M,M,M,M,M,M,M,M,M,M,M,M,M,53.60,EHBK 261825Z AUTO 03007KT 9999 NCD 12/04 Q1030 NOSIG,M
EHBK,2022-03-26 18:55,53.60,39.20,58.02,30.00,7.00,0.00,30.42,M,6.21,M,NCD,M,M,M,M,M,M,M,M,M,M,M,M,M,M,53.60,EHBK 261855Z AUTO 03007KT 9999 NCD 12/04 Q1030 NOSIG,M
EHBK,2022-03-26 19:25,53.60,39.20,58.02,30.00,9.00,0.00,30.42,M,6.21,M,NCD,M,M,M,M,M,M,M,M,M,M,M,M,M,M,53.60,EHBK 261925Z AUTO 03009KT 9999 NCD 12/04 Q1030 NOSIG,M
EHBK,2022-03-26 19:55,51.80,39.20,61.99,30.00,8.00,0.00,30.42,M,6.21,M,NCD,M,M,M,M,M,M,M,M,M,M,M,M,M,M,51.80,EHBK 261955Z AUTO 03008KT 9999 NCD 11/04 Q1030 NOSIG,M
EHBK,2022-03-26 20:25,50.00,37.40,61.76,40.00,7.00,0.00,30.42,M,6.21,M,FEW,M,M,M,4400.00,M,M,M,M,M,M,M,M,M,M,50.00,EHBK 262025Z AUTO 04007KT 9999 FEW044 10/03 Q1030 NOSIG,M
EHBK,2022-03-26 20:55,48.20,37.40,66.05,40.00,7.00,0.00,30.42,M,6.21,M,NCD,M,M,M,M,M,M,M,M,M,M,M,M,M,M,44.53,EHBK 262055Z AUTO 04007KT 9999 NCD 09/03 Q1030 NOSIG,M
EHBK,2022-03-26 21:25,46.40,37.40,70.68,40.00,6.00,0.00,30.42,M,6.21,M,NCD,M,M,M,M,M,M,M,M,M,M,M,M,M,M,42.87,EHBK 262125Z AUTO 04006KT 9999 NCD 08/03 Q1030 NOSIG,M
EHBK,2022-03-26 21:55,46.40,37.40,70.68,40.00,8.00,0.00,30.45,M,6.21,M,NCD,M,M,M,M,M,M,M,M,M,M,M,M,M,M,41.85,EHBK 262155Z AUTO 04008KT 9999 NCD 08/03 Q1031 NOSIG,M
EHBK,2022-03-26 22:25,46.40,39.20,75.84,40.00,8.00,0.00,30.45,M,6.21,M,NCD,M,M,M,M,M,M,M,M,M,M,M,M,M,M,41.85,EHBK 262225Z AUTO 04008KT 9999 NCD 08/04 Q1031,M
EHBK,2022-03-26 22:55,46.40,39.20,75.84,50.00,5.00,0.00,30.45,M,6.21,M,NCD,M,M,M,M,M,M,M,M,M,M,M,M,M,M,43.50,EHBK 262255Z AUTO 05005KT 9999 NCD 08/04 Q1031,M
EHBK,2022-03-26 23:25,44.60,37.40,75.68,40.00,7.00,0.00,30.45,M,6.21,M,NCD,M,M,M,M,M,M,M,M,M,M,M,M,M,M,40.14,EHBK 262325Z AUTO 04007KT 9999 NCD 07/03 Q1031,M
EHBK,2022-03-26 23:55,44.60,39.20,81.20,40.00,7.00,0.00,30.45,M,6.21,M,NCD,M,M,M,M,M,M,M,M,M,M,M,M,M,M,40.14,EHBK 262355Z AUTO 04007KT 9999 NCD 07/04 Q1031,M
EHBK,2022-03-27 00:25,44.60,39.20,81.20,40.00,7.00,0.00,30.45,M,6.21,M,NCD,M,M,M,M,M,M,M,M,M,M,M,M,M,M,40.14,EHBK 270025Z AUTO 04007KT 9999 NCD 07/04 Q1031,M
EHBK,2022-03-27 00:55,44.60,39.20,81.20,40.00,7.00,0.00,30.45,M,6.21,M,NCD,M,M,M,M,M,M,M,M,M,M,M,M,M,M,40.14,EHBK 270055Z AUTO 04007KT 9999 NCD 07/04 Q1031,M
EHBK,2022-03-27 01:25,42.80,39.20,86.99,40.00,6.00,0.00,30.45,M,6.21,M,NCD,M,M,M,M,M,M,M,M,M,M,M,M,M,M,38.54,EHBK 270125Z AUTO 04006KT 9999 NCD 06/04 Q1031,M
EHBK,2022-03-27 01:55,42.80,39.20,86.99,30.00,5.00,0.00,30.42,M,6.21,M,NCD,M,M,M,M,M,M,M,M,M,M,M,M,M,M,39.22,EHBK 270155Z AUTO 03005KT 9999 NCD 06/04 Q1030,M
EHBK,2022-03-27 02:25,44.60,41.00,87.09,30.00,6.00,0.00,30.42,M,6.21,M,NCD,M,M,M,M,M,M,M,M,M,M,M,M,M,M,40.71,EHBK 270225Z AUTO 03006KT 9999 NCD 07/05 Q1030,M
EHBK,2022-03-27 02:55,42.80,39.20,86.99,30.00,7.00,0.00,30.42,M,6.21,M,NCD,M,M,M,M,M,M,M,M,M,M,M,M,M,M,37.94,EHBK 270255Z AUTO 03007KT 9999 NCD 06/04 Q1030,M
EHBK,2022-03-27 03:25,42.80,39.20,86.99,30.00,7.00,0.00,30.42,M,6.21,M,NCD,M,M,M,M,M,M,M,M,M,M,M,M,M,M,37.94,EHBK 270325Z AUTO 03007KT 9999 NCD 06/04 Q1030,M
EHBK,2022-03-27 03:55,42.80,41.00,93.30,30.00,6.00,0.00,30.42,M,6.21,M,NCD,M,M,M,M,M,M,M,M,M,M,M,M,M,M,38.54,EHBK 270355Z AUTO 03006KT 9999 NCD 06/05 Q1030 NOSIG,M
EHBK,2022-03-27 04:25,42.80,41.00,93.30,30.00,6.00,0.00,30.42,M,4.35,M,NCD,M,M,M,M,M,M,M,M,M,M,M,M,M,M,38.54,EHBK 270425Z AUTO 03006KT 7000 NCD 06/05 Q1030 NOSIG,M
EHBK,2022-03-27 04:55,41.00,41.00,100.00,30.00,5.00,0.00,30.42,M,3.73,M,FEW,M,M,M,3600.00,M,M,M,M,M,M,M,M,M,M,37.08,EHBK 270455Z AUTO 03005KT 6000 FEW036 05/05 Q1030 NOSIG,M
EHBK,2022-03-27 05:25,41.00,39.20,93.24,40.00,6.00,0.00,30.42,M,2.24,M,FEW,M,M,M,3600.00,M,M,M,BR,M,M,M,M,M,M,36.37,EHBK 270525Z AUTO 04006KT 3600 BR FEW036 05/04 Q1030 BECMG 2000 BR,M
EHBK,2022-03-27 05:55,41.00,41.00,100.00,30.00,8.00,0.00,30.42,M,1.99,M,BKN,M,M,M,100.00,M,M,M,BR,M,M,M,M,M,M,35.20,EHBK 270555Z AUTO 03008KT 3200 BR BKN001 05/05 Q1030 TEMPO BKN004,M
EHBK,2022-03-27 06:25,44.60,42.80,93.35,40.00,5.00,0.00,30.45,M,1.37,M,OVC,M,M,M,100.00,M,M,M,BR,M,M,M,M,M,M,41.36,EHBK 270625Z AUTO 04005KT 2200 BR OVC001 07/06 Q1031 TEMPO BKN004,M
EHBK,2022-03-27 06:55,44.60,42.80,93.35,40.00,8.00,0.00,30.45,M,0.09,M,VV ,M,M,M,0.00,M,M,M,-RA,M,M,M,M,M,M,39.63,EHBK 270655Z AUTO 04008KT 0150 R03/0275D -RA VV000 07/06 Q1031 BECMG 2000 BR BKN004,M
EHBK,2022-03-27 07:25,44.60,44.60,100.00,50.00,8.00,0.00,30.45,M,0.09,M,VV ,M,M,M,0.00,M,M,M,-RA,M,M,M,M,M,M,39.63,EHBK 270725Z AUTO 05008KT 0150 R03/0325N -RA VV000 07/07 Q1031 BECMG 2000 BR BKN004,M
EHBK,2022-03-27 07:55,44.60,44.60,100.00,40.00,8.00,0.00,30.45,M,0.09,M,VV ,M,M,M,0.00,M,M,M,-RA,M,M,M,M,M,M,39.63,EHBK 270755Z AUTO 04008KT 0150 R03/0250N -RA VV000 07/07 Q1031 REDZRA BECMG 2000 BR BKN004,M
EHBK,2022-03-27 08:25,44.60,44.60,100.00,40.00,7.00,0.00,30.45,M,0.09,M,VV ,M,M,M,0.00,M,M,M,-DZ,M,M,M,M,M,M,40.14,EHBK 270825Z AUTO 04007KT 010V090 0150 R03/0300N -DZ VV000 07/07 Q1031 REDZ BECMG 2000 BR BKN004,M
EHBK,2022-03-27 08:55,46.40,44.60,93.40,40.00,8.00,0.00,30.45,M,0.09,M,VV ,M,M,M,0.00,M,M,M,-DZ,M,M,M,M,M,M,41.85,EHBK 270855Z AUTO 04008KT 010V070 0150 R03/0300N -DZ VV000 08/07 Q1031 REDZ BECMG 2000 BR BKN004,M
EHBK,2022-03-27 09:25,46.40,46.40,100.00,50.00,7.00,0.00,30.45,M,0.09,M,VV ,M,M,M,0.00,M,M,M,FG,M,M,M,M,M,M,42.33,EHBK 270925Z AUTO 05007KT 020V090 0150 R03/0350N FG VV000 08/08 Q1031 BECMG 2000 BR BKN004,M
EHBK,2022-03-27 09:55,46.40,46.40,100.00,50.00,8.00,0.00,30.45,M,0.22,M,VV ,M,M,M,100.00,M,M,M,FG,M,M,M,M,M,M,41.85,EHBK 270955Z AUTO 05008KT 020V090 0350 R03/0800U FG VV001 08/08 Q1031 BECMG 2000 BR BKN004,M
EHBK,2022-03-27 10:25,48.20,46.40,93.45,40.00,8.00,0.00,30.45,M,0.31,M,VV ,M,M,M,100.00,M,M,M,FG,M,M,M,M,M,M,44.07,EHBK 271025Z AUTO 04008KT 020V080 0500 R03/1100N FG VV001 09/08 Q1031 BECMG 2000 BR BKN004,M
EHBK,2022-03-27 10:55,48.20,48.20,100.00,40.00,7.00,0.00,30.45,M,0.75,M,OVC,M,M,M,100.00,M,M,M,BR,M,M,M,M,M,M,44.53,EHBK 271055Z AUTO 04007KT 010V080 1200 R03/1400N BR OVC001 09/09 Q1031 BECMG 4000 BKN004,M
EHBK,2022-03-27 11:25,50.00,48.20,93.50,60.00,6.00,0.00,30.42,M,1.12,M,BKN,OVC,M,M,200.00,300.00,M,M,BR,M,M,M,M,M,M,50.00,EHBK 271125Z AUTO 06006KT 020V090 1800 BR BKN002 OVC003 10/09 Q1030 BECMG 6000 NSW BKN008,M
EHBK,2022-03-27 11:55,50.00,48.20,93.50,40.00,7.00,0.00,30.42,M,1.43,M,OVC,M,M,M,400.00,M,M,M,BR,M,M,M,M,M,M,50.00,COR EHBK 271155Z AUTO 04007KT 360V070 2300 BR OVC004/// 10/09 Q1030 BECMG CAVOK,M
EHBK,2022-03-27 12:25,51.80,46.40,81.74,70.00,8.00,0.00,30.42,M,1.86,M,FEW,OVC,M,M,400.00,500.00,M,M,BR,M,M,M,M,M,M,51.80,EHBK 271225Z AUTO 07008KT 040V100 3000 BR FEW004 OVC005 11/08 Q1030 BECMG CAVOK,M
EHBK,2022-03-27 12:55,53.60,48.20,81.87,40.00,8.00,0.00,30.42,M,2.42,M,SCT,BKN,M,M,700.00,2000.00,M,M,BR,M,M,M,M,M,M,53.60,EHBK 271255Z AUTO 04008KT 010V080 3900 BR SCT007 BKN020 12/09 Q1030 BECMG CAVOK,M
EHBK,2022-03-27 13:25,55.40,48.20,76.66,30.00,6.00,0.00,30.39,M,3.11,M,FEW,M,M,M,1700.00,M,M,M,HZ,M,M,M,M,M,M,55.40,EHBK 271325Z AUTO 03006KT 330V060 5000 HZ FEW017 13/09 Q1029 BECMG CAVOK,M
EHBK,2022-03-27 13:55,57.20,48.20,71.83,20.00,7.00,0.00,30.39,M,3.11,M,NCD,M,M,M,M,M,M,M,M,M,M,M,M,M,M,57.20,EHBK 271355Z AUTO 02007KT 350V060 5000 NCD 14/09 Q1029 BECMG CAVOK,M
EHBK,2022-03-27 14:25,59.00,48.20,67.33,20.00,7.00,0.00,30.39,M,4.35,M,NCD,M,M,M,M,M,M,M,M,M,M,M,M,M,M,59.00,EHBK 271425Z AUTO 02007KT 340V060 7000 NCD 15/09 Q1029 NOSIG,M
EHBK,2022-03-27 14:55,59.00,48.20,67.33,30.00,6.00,0.00,30.36,M,4.97,M,FEW,M,M,M,2000.00,M,M,M,M,M,M,M,M,M,M,59.00,EHBK 271455Z AUTO 03006KT 340V060 8000 FEW020 15/09 Q1028 NOSIG,M
EHBK,2022-03-27 15:25,59.00,48.20,67.33,30.00,7.00,0.00,30.36,M,5.59,M,FEW,M,M,M,3400.00,M,M,M,M,M,M,M,M,M,M,59.00,EHBK 271525Z AUTO 03007KT 9000 FEW034 15/09 Q1028 NOSIG,M
EHBK,2022-03-27 15:55,59.00,48.20,67.33,40.00,7.00,0.00,30.36,M,5.59,M,FEW,SCT,M,M,1800.00,3900.00,M,M,M,M,M,M,M,M,M,59.00,EHBK 271555Z AUTO 04007KT 9000 FEW018 SCT039 15/09 Q1028 NOSIG,M
EHBK,2022-03-27 16:25,59.00,48.20,67.33,40.00,6.00,0.00,30.36,M,4.97,M,FEW,SCT,M,M,1900.00,3600.00,M,M,M,M,M,M,M,M,M,59.00,EHBK 271625Z AUTO 04006KT 010V080 8000 FEW019 SCT036 15/09 Q1028 NOSIG,M
EHBK,2022-03-27 16:55,59.00,46.40,62.92,50.00,6.00,0.00,30.33,M,4.97,M,FEW,M,M,M,3500.00,M,M,M,M,M,M,M,M,M,M,59.00,EHBK 271655Z AUTO 05006KT 8000 FEW035 15/08 Q1027 NOSIG,M
EHBK,2022-03-27 17:25,57.20,46.40,67.12,40.00,6.00,0.00,30.33,M,4.97,M,FEW,M,M,M,4100.00,M,M,M,M,M,M,M,M,M,M,57.20,EHBK 271725Z AUTO 04006KT 8000 FEW041/// 14/08 Q1027 BECMG 4000 BR,M
EHBK,2022-03-27 17:55,53.60,44.60,71.45,40.00,5.00,0.00,30.33,M,6.21,M,NCD,M,M,M,M,M,M,M,M,M,M,M,M,M,M,53.60,EHBK 271755Z AUTO 04005KT 9999 NCD 12/07 Q1027 BECMG 4000 BR,M
EHBK,2022-03-27 18:25,50.00,42.80,76.18,30.00,6.00,0.00,30.33,M,6.21,M,NCD,M,M,M,M,M,M,M,M,M,M,M,M,M,M,50.00,EHBK 271825Z AUTO 03006KT 9999 NCD 10/06 Q1027 BECMG 4000 BR,M
EHBK,2022-03-27 18:55,50.00,41.00,71.07,40.00,8.00,0.00,30.33,M,6.21,M,NCD,M,M,M,M,M,M,M,M,M,M,M,M,M,M,50.00,EHBK 271855Z AUTO 04008KT 9999 NCD 10/05 Q1027 BECMG 4000 BR,M
EHBK,2022-03-27 19:25,48.20,41.00,76.01,40.00,6.00,0.00,30.36,M,6.21,M,NSC,M,M,M,M,M,M,M,M,M,M,M,M,M,M,45.04,EHBK 271925Z AUTO 04006KT 9999 NSC 09/05 Q1028 BECMG 4000 BR,M
EHBK,2022-03-27 19:55,48.20,39.20,70.88,50.00,6.00,0.00,30.33,M,6.21,M,NCD,M,M,M,M,M,M,M,M,M,M,M,M,M,M,45.04,EHBK 271955Z AUTO 05006KT 9999 NCD 09/04 Q1027 NOSIG,M
EHBK,2022-03-27 20:25,48.20,39.20,70.88,40.00,6.00,0.00,30.36,M,6.21,M,NCD,M,M,M,M,M,M,M,M,M,M,M,M,M,M,45.04,EHBK 272025Z AUTO 04006KT 9999 NCD 09/04 Q1028 NOSIG,M
EHBK,2022-03-27 20:55,46.40,39.20,75.84,50.00,6.00,0.00,30.36,M,6.21,M,NCD,M,M,M,M,M,M,M,M,M,M,M,M,M,M,42.87,EHBK 272055Z AUTO 05006KT 9999 NCD 08/04 Q1028,M
EHBK,2022-03-27 21:25,46.40,39.20,75.84,50.00,5.00,0.00,30.33,M,6.21,M,NCD,M,M,M,M,M,M,M,M,M,M,M,M,M,M,43.50,EHBK 272125Z AUTO 05005KT 9999 NCD 08/04 Q1027,M
EHBK,2022-03-27 21:55,44.60,39.20,81.20,70.00,5.00,0.00,30.33,M,6.21,M,NCD,M,M,M,M,M,M,M,M,M,M,M,M,M,M,41.36,EHBK 272155Z AUTO 07005KT 9999 NCD 07/04 Q1027,M
EHBK,2022-03-27 22:25,48.20,39.20,70.88,80.00,5.00,0.00,30.33,M,6.21,M,NCD,M,M,M,M,M,M,M,M,M,M,M,M,M,M,45.63,EHBK 272225Z AUTO 08005KT 060V130 9999 NCD 09/04 Q1027,M
EHBK,2022-03-27 22:55,44.60,39.20,81.20,80.00,4.00,0.00,30.33,M,6.21,M,NCD,M,M,M,M,M,M,M,M,M,M,M,M,M,M,42.13,EHBK 272255Z AUTO 08004KT 9999 NCD 07/04 Q1027,M
EHBK,2022-03-27 23:25,46.40,39.20,75.84,90.00,4.00,0.00,30.33,M,6.21,M,NCD,M,M,M,M,M,M,M,M,M,M,M,M,M,M,44.24,EHBK 272325Z AUTO 09004KT 9999 NCD 08/04 Q1027,M
EHBK,2022-03-27 23:55,46.40,39.20,75.84,M,1.00,0.00,30.30,M,6.21,M,NSC,M,M,M,M,M,M,M,M,M,M,M,M,M,M,46.40,EHBK 272355Z AUTO VRB01KT 9999 NSC 08/04 Q1026,M
EHBK,2022-03-28 00:25,44.60,39.20,81.20,350.00,2.00,0.00,30.30,M,6.21,M,NCD,M,M,M,M,M,M,M,M,M,M,M,M,M,M,44.60,EHBK 280025Z AUTO 35002KT 9999 NCD 07/04 Q1026,M
EHBK,2022-03-28 00:55,42.80,37.40,81.07,60.00,3.00,0.00,30.30,M,6.21,M,NCD,M,M,M,M,M,M,M,M,M,M,M,M,M,M,41.03,EHBK 280055Z AUTO 06003KT 9999 NCD 06/03 Q1026,M
EHBK,2022-03-28 01:25,44.60,39.20,81.20,60.00,2.00,0.00,30.27,M,6.21,M,NCD,M,M,M,M,M,M,M,M,M,M,M,M,M,M,44.60,EHBK 280125Z AUTO 06002KT 9999 NCD 07/04 Q1025,M
EHBK,2022-03-28 01:55,42.80,37.40,81.07,M,2.00,0.00,30.27,M,6.21,M,NSC,M,M,M,M,M,M,M,M,M,M,M,M,M,M,42.80,EHBK 280155Z AUTO VRB02KT 9999 NSC 06/03 Q1025,M
EHBK,2022-03-28 02:25,42.80,37.40,81.07,60.00,3.00,0.00,30.27,M,6.21,M,NCD,M,M,M,M,M,M,M,M,M,M,M,M,M,M,41.03,EHBK 280225Z AUTO 06003KT 9999 NCD 06/03 Q1025,M
EHBK,2022-03-28 02:55,41.00,35.60,80.93,70.00,3.00,0.00,30.27,M,6.21,M,NCD,M,M,M,M,M,M,M,M,M,M,M,M,M,M,38.98,EHBK 280255Z AUTO 07003KT 9999 NCD 05/02 Q1025,M
EHBK,2022-03-28 03:25,41.00,35.60,80.93,70.00,2.00,0.00,30.24,M,6.21,M,NCD,M,M,M,M,M,M,M,M,M,M,M,M,M,M,41.00,EHBK 280325Z AUTO 07002KT 9999 NCD 05/02 Q1024,M
EHBK,2022-03-28 03:55,42.80,37.40,81.07,100.00,3.00,0.00,30.24,M,6.21,M,NCD,M,M,M,M,M,M,M,M,M,M,M,M,M,M,41.03,EHBK 280355Z AUTO 10003KT 9999 NCD 06/03 Q1024 NOSIG,M
EHBK,2022-03-28 04:25,41.00,37.40,86.89,170.00,3.00,0.00,30.24,M,6.21,M,NCD,M,M,M,M,M,M,M,M,M,M,M,M,M,M,38.98,EHBK 280425Z AUTO 17003KT 9999 NCD 05/03 Q1024 NOSIG,M
EHBK,2022-03-28 04:55,39.20,37.40,93.19,170.00,3.00,0.00,30.24,M,4.35,M,NCD,M,M,M,M,M,M,M,M,M,M,M,M,M,M,36.92,EHBK 280455Z AUTO 17003KT 7000 NCD 04/03 Q1024 NOSIG,M
EHBK,2022-03-28 05:25,39.20,39.20,100.00,M,1.00,0.00,30.24,M,3.73,M,NCD,M,M,M,M,M,M,M,M,M,M,M,M,M,M,39.20,EHBK 280525Z AUTO VRB01KT 6000 NCD 04/04 Q1024 NOSIG,M
EHBK,2022-03-28 05:55,41.00,39.20,93.24,280.00,1.00,0.00,30.24,M,4.35,M,NCD,M,M,M,M,M,M,M,M,M,M,M,M,M,M,41.00,EHBK 280555Z AUTO 28001KT 7000 NCD 05/04 Q1024 BECMG CAVOK,M
EHBK,2022-03-28 06:25,41.00,39.20,93.24,200.00,1.00,0.00,30.24,M,3.73,M,NCD,M,M,M,M,M,M,M,M,M,M,M,M,M,M,41.00,EHBK 280625Z AUTO 20001KT 6000 NCD 05/04 Q1024 BECMG CAVOK,M
EHBK,2022-03-28 06:55,44.60,42.80,93.35,210.00,4.00,0.00,30.24,M,3.11,M,NCD,M,M,M,M,M,M,M,M,M,M,M,M,M,M,42.13,EHBK 280655Z AUTO 21004KT 5000 NCD 07/06 Q1024 BECMG CAVOK,M
EHBK,2022-03-28 07:25,46.40,44.60,93.40,220.00,5.00,0.00,30.24,M,3.11,M,NCD,M,M,M,M,M,M,M,M,M,M,M,M,M,M,43.50,EHBK 280725Z AUTO 22005KT 5000 NCD 08/07 Q1024 BECMG CAVOK,M
EHBK,2022-03-28 07:55,48.20,42.80,81.47,210.00,5.00,0.00,30.21,M,3.73,M,NCD,M,M,M,M,M,M,M,M,M,M,M,M,M,M,45.63,EHBK 280755Z AUTO 21005KT 6000 NCD 09/06 Q1023 BECMG CAVOK,M
EHBK,2022-03-28 08:25,50.00,44.60,81.61,220.00,6.00,0.00,30.21,M,4.97,M,NCD,M,M,M,M,M,M,M,M,M,M,M,M,M,M,50.00,EHBK 280825Z AUTO 22006KT 190V250 8000 NCD 10/07 Q1023 NOSIG,M
EHBK,2022-03-28 08:55,53.60,46.40,76.50,240.00,4.00,0.00,30.21,M,5.59,M,NCD,M,M,M,M,M,M,M,M,M,M,M,M,M,M,53.60,EHBK 280855Z AUTO 24004KT 210V290 9000 NCD 12/08 Q1023 NOSIG,M
EHBK,2022-03-28 09:25,55.40,46.40,71.64,230.00,6.00,0.00,30.21,M,5.59,M,NCD,M,M,M,M,M,M,M,M,M,M,M,M,M,M,55.40,EHBK 280925Z AUTO 23006KT 190V280 9000 NCD 13/08 Q1023 NOSIG,M
EHBK,2022-03-28 09:55,57.20,46.40,67.12,240.00,6.00,0.00,30.21,M,5.59,M,NSC,M,M,M,M,M,M,M,M,M,M,M,M,M,M,57.20,EHBK 280955Z AUTO 24006KT 210V280 9000 NSC 14/08 Q1023 NOSIG,M
EHBK,2022-03-28 10:25,59.00,46.40,62.92,240.00,5.00,0.00,30.18,M,4.97,M,NCD,M,M,M,M,M,M,M,M,M,M,M,M,M,M,59.00,EHBK 281025Z AUTO 24005KT 200V290 8000 NCD 15/08 Q1022 NOSIG,M
EHBK,2022-03-28 10:55,60.80,48.20,63.15,270.00,3.00,0.00,30.18,M,4.97,M,NCD,M,M,M,M,M,M,M,M,M,M,M,M,M,M,60.80,EHBK 281055Z AUTO 27003KT 190V360 8000 NCD 16/09 Q1022 NOSIG,M
EHBK,2022-03-28 11:25,60.80,48.20,63.15,250.00,5.00,0.00,30.18,M,4.35,M,NCD,M,M,M,M,M,M,M,M,M,M,M,M,M,M,60.80,EHBK 281125Z AUTO 25005KT 200V290 7000 NCD 16/09 Q1022 NOSIG,M
EHBK,2022-03-28 11:55,62.60,48.20,59.26,M,4.00,0.00,30.15,M,4.97,M,NSC,M,M,M,M,M,M,M,M,M,M,M,M,M,M,62.60,EHBK 281155Z AUTO VRB04KT 8000 NSC 17/09 Q1021 NOSIG,M
EHBK,2022-03-28 12:25,62.60,44.60,51.72,230.00,4.00,0.00,30.15,M,5.59,M,NCD,M,M,M,M,M,M,M,M,M,M,M,M,M,M,62.60,EHBK 281225Z AUTO 23004KT 150V290 9000 NCD 17/07 Q1021 NOSIG,M
EHBK,2022-03-28 12:55,64.40,41.00,42.28,M,4.00,0.00,30.15,M,6.21,M,NCD,M,M,M,M,M,M,M,M,M,M,M,M,M,M,64.40,EHBK 281255Z AUTO VRB04KT 9999 NCD 18/05 Q1021 NOSIG,M
EHBK,2022-03-28 13:25,64.40,41.00,42.28,M,5.00,0.00,30.12,M,6.21,M,NCD,M,M,M,M,M,M,M,M,M,M,M,M,M,M,64.40,EHBK 281325Z AUTO VRB05KT 9999 NCD 18/05 Q1020 NOSIG,M
EHBK,2022-03-28 13:55,64.40,39.20,39.43,230.00,8.00,0.00,30.12,M,6.21,M,NCD,M,M,M,M,M,M,M,M,M,M,M,M,M,M,64.40,EHBK 281355Z AUTO 23008KT 190V270 9999 NCD 18/04 Q1020 NOSIG,M
EHBK,2022-03-28 14:25,64.40,39.20,39.43,270.00,7.00,0.00,30.09,M,6.21,M,NSC,M,M,M,M,M,M,M,M,M,M,M,M,M,M,64.40,EHBK 281425Z AUTO 27007KT 230V320 9999 NSC 18/04 Q1019 NOSIG,M
EHBK,2022-03-28 14:55,62.60,41.00,45.04,260.00,8.00,0.00,30.09,M,6.21,M,NSC,M,M,M,M,M,M,M,M,M,M,M,M,M,M,62.60,EHBK 281455Z AUTO 26008KT 210V320 9999 NSC 17/05 Q1019 NOSIG,M
EHBK,2022-03-28 15:25,62.60,37.40,39.14,250.00,8.00,0.00,30.09,M,6.21,M,NSC,M,M,M,M,M,M,M,M,M,M,M,M,M,M,62.60,EHBK 281525Z AUTO 25008KT 210V300 9999 NSC 17/03 Q1019 NOSIG,M
EHBK,2022-03-28 15:55,62.60,37.40,39.14,260.00,7.00,0.00,30.09,M,6.21,M,NSC,M,M,M,M,M,M,M,M,M,M,M,M,M,M,62.60,EHBK 281555Z AUTO 26007KT 220V310 9999 NSC 17/03 Q1019 NOSIG,M
EHBK,2022-03-28 16:25,60.80,37.40,41.71,260.00,5.00,0.00,30.06,M,6.21,M,NSC,M,M,M,M,M,M,M,M,M,M,M,M,M,M,60.80,EHBK 281625Z AUTO 26005KT 220V330 9999 NSC 16/03 Q1018 NOSIG,M
EHBK,2022-03-28 16:55,59.00,37.40,44.47,270.00,4.00,0.00,30.06,M,6.21,M,NSC,M,M,M,M,M,M,M,M,M,M,M,M,M,M,59.00,EHBK 281655Z AUTO 27004KT 230V330 9999 NSC 15/03 Q1018 NOSIG,M
EHBK,2022-03-28 17:25,59.00,37.40,44.47,310.00,3.00,0.00,30.06,M,6.21,M,NSC,M,M,M,M,M,M,M,M,M,M,M,M,M,M,59.00,EHBK 281725Z AUTO 31003KT 270V350 9999 NSC 15/03 Q1018 NOSIG,M
EHBK,2022-03-28 17:55,57.20,39.20,50.91,320.00,3.00,0.00,30.06,M,6.21,M,NSC,M,M,M,M,M,M,M,M,M,M,M,M,M,M,57.20,EHBK 281755Z AUTO 32003KT 9999 NSC 14/04 Q1018 NOSIG,M
EHBK,2022-03-28 18:25,55.40,39.20,54.34,330.00,3.00,0.00,30.06,M,6.21,M,NSC,M,M,M,M,M,M,M,M,M,M,M,M,M,M,55.40,EHBK 281825Z AUTO 33003KT 9999 NSC 13/04 Q1018 NOSIG,M
EHBK,2022-03-28 18:55,55.40,42.80,62.46,360.00,6.00,0.00,30.06,M,6.21,M,NSC,M,M,M,M,M,M,M,M,M,M,M,M,M,M,55.40,EHBK 281855Z AUTO 36006KT 330V030 9999 NSC 13/06 Q1018 NOSIG,M
EHBK,2022-03-28 19:25,53.60,42.80,66.70,20.00,6.00,0.00,30.06,M,6.21,M,NSC,M,M,M,M,M,M,M,M,M,M,M,M,M,M,53.60,EHBK 281925Z AUTO 02006KT 9999 NSC 12/06 Q1018 NOSIG,M
EHBK,2022-03-28 19:55,53.60,42.80,66.70,20.00,7.00,0.00,30.06,M,6.21,M,NSC,M,M,M,M,M,M,M,M,M,M,M,M,M,M,53.60,EHBK 281955Z AUTO 02007KT 9999 NSC 12/06 Q1018 NOSIG,M
EHBK,2022-03-28 20:25,51.80,42.80,71.26,30.00,5.00,0.00,30.03,M,6.21,M,NSC,M,M,M,M,M,M,M,M,M,M,M,M,M,M,51.80,EHBK 282025Z AUTO 03005KT 9999 NSC 11/06 Q1017 NOSIG,M
EHBK,2022-03-28 20:55,51.80,41.00,66.48,50.00,6.00,0.00,30.03,M,6.21,M,NSC,M,M,M,M,M,M,M,M,M,M,M,M,M,M,51.80,EHBK 282055Z AUTO 05006KT 9999 NSC 11/05 Q1017,M
EHBK,2022-03-28 21:25,51.80,41.00,66.48,10.00,4.00,0.00,30.03,M,6.21,M,NSC,M,M,M,M,M,M,M,M,M,M,M,M,M,M,51.80,EHBK 282125Z AUTO 01004KT 9999 NSC 11/05 Q1017,M
EHBK,2022-03-28 21:55,50.00,41.00,71.07,10.00,3.00,0.00,30.03,M,6.21,M,NSC,M,M,M,M,M,M,M,M,M,M,M,M,M,M,50.00,EHBK 282155Z AUTO 01003KT 9999 NSC 10/05 Q1017,M
EHBK,2022-03-28 22:25,50.00,41.00,71.07,30.00,2.00,0.00,30.03,M,6.21,M,NSC,M,M,M,M,M,M,M,M,M,M,M,M,M,M,50.00,EHBK 282225Z AUTO 03002KT 9999 NSC 10/05 Q1017,M
EHBK,2022-03-28 22:55,50.00,41.00,71.07,20.00,2.00,0.00,30.03,M,6.21,M,NSC,M,M,M,M,M,M,M,M,M,M,M,M,M,M,50.00,EHBK 282255Z AUTO 02002KT 9999 NSC 10/05 Q1017,M
EHBK,2022-03-28 23:25,50.00,41.00,71.07,30.00,3.00,0.00,30.00,M,6.21,M,NSC,M,M,M,M,M,M,M,M,M,M,M,M,M,M,50.00,EHBK 282325Z AUTO 03003KT 9999 NSC 10/05 Q1016,M
EHBK,2022-03-28 23:55,48.20,41.00,76.01,60.00,2.00,0.00,30.00,M,6.21,M,NSC,M,M,M,M,M,M,M,M,M,M,M,M,M,M,48.20,EHBK 282355Z AUTO 06002KT 9999 NSC 09/05 Q1016,M
EHBK,2022-03-29 00:25,48.20,41.00,76.01,60.00,3.00,0.00,30.00,M,6.21,M,NSC,M,M,M,M,M,M,M,M,M,M,M,M,M,M,47.21,EHBK 290025Z AUTO 06003KT 9999 NSC 09/05 Q1016,M
EHBK,2022-03-29 00:55,46.40,41.00,81.34,40.00,4.00,0.00,30.00,M,6.21,M,NSC,M,M,M,M,M,M,M,M,M,M,M,M,M,M,44.24,EHBK 290055Z AUTO 04004KT 9999 NSC 08/05 Q1016,M
EHBK,2022-03-29 01:25,48.20,41.00,76.01,60.00,4.00,0.00,29.97,M,6.21,M,NSC,M,M,M,M,M,M,M,M,M,M,M,M,M,M,46.34,EHBK 290125Z AUTO 06004KT 9999 NSC 09/05 Q1015,M
EHBK,2022-03-29 01:55,48.20,42.80,81.47,50.00,5.00,0.00,29.97,M,6.21,M,NSC,M,M,M,M,M,M,M,M,M,M,M,M,M,M,45.63,EHBK 290155Z AUTO 05005KT 9999 NSC 09/06 Q1015,M
EHBK,2022-03-29 02:25,48.20,42.80,81.47,50.00,6.00,0.00,29.94,M,6.21,M,NSC,M,M,M,M,M,M,M,M,M,M,M,M,M,M,45.04,EHBK 290225Z AUTO 05006KT 9999 NSC 09/06 Q1014,M
EHBK,2022-03-29 02:55,48.20,41.00,76.01,70.00,4.00,0.00,29.94,M,5.59,M,NSC,M,M,M,M,M,M,M,M,M,M,M,M,M,M,46.34,EHBK 290255Z AUTO 07004KT 9000 NSC 09/05 Q1014,M
EHBK,2022-03-29 03:25,48.20,42.80,81.47,80.00,4.00,0.00,29.94,M,6.21,M,NSC,M,M,M,M,M,M,M,M,M,M,M,M,M,M,46.34,EHBK 290325Z AUTO 08004KT 9999 NSC 09/06 Q1014,M
EHBK,2022-03-29 03:55,46.40,42.80,87.19,60.00,4.00,0.00,29.94,M,5.59,M,NSC,M,M,M,M,M,M,M,M,M,M,M,M,M,M,44.24,COR EHBK 290355Z AUTO 06004KT 9000 NSC 08/06 Q1014 NOSIG,M
EHBK,2022-03-29 04:25,46.40,42.80,87.19,70.00,6.00,0.00,29.91,M,6.21,M,NSC,M,M,M,M,M,M,M,M,M,M,M,M,M,M,42.87,EHBK 290425Z AUTO 07006KT 050V110 9999 NSC 08/06 Q1013 NOSIG,M
EHBK,2022-03-29 04:55,46.40,41.00,81.34,90.00,1.00,0.00,29.91,M,6.21,M,NSC,M,M,M,M,M,M,M,M,M,M,M,M,M,M,46.40,EHBK 290455Z AUTO 09001KT 9999 NSC 08/05 Q1013 NOSIG,M
EHBK,2022-03-29 05:25,46.40,42.80,87.19,M,2.00,0.00,29.91,M,5.59,M,NSC,M,M,M,M,M,M,M,M,M,M,M,M,M,M,46.40,EHBK 290525Z AUTO VRB02KT 9000 NSC 08/06 Q1013 NOSIG,M
EHBK,2022-03-29 05:55,44.60,41.00,87.09,40.00,3.00,0.00,29.91,M,4.97,M,NSC,M,M,M,M,M,M,M,M,M,M,M,M,M,M,43.09,EHBK 290555Z AUTO 04003KT 8000 NSC 07/05 Q1013 TEMPO 6000,M
EHBK,2022-03-29 06:25,44.60,41.00,87.09,30.00,4.00,0.00,29.91,M,4.97,M,NSC,M,M,M,M,M,M,M,M,M,M,M,M,M,M,42.13,EHBK 290625Z AUTO 03004KT 8000 NSC 07/05 Q1013 TEMPO 6000,M
EHBK,2022-03-29 06:55,46.40,42.80,87.19,60.00,6.00,0.00,29.91,M,4.97,M,NSC,M,M,M,M,M,M,M,M,M,M,M,M,M,M,42.87,EHBK 290655Z AUTO 06006KT 030V090 8000 NSC 08/06 Q1013 NOSIG,M
EHBK,2022-03-29 07:25,46.40,42.80,87.19,60.00,5.00,0.00,29.91,M,5.59,M,NSC,M,M,M,M,M,M,M,M,M,M,M,M,M,M,43.50,EHBK 290725Z AUTO 06005KT 010V100 9000 NSC 08/06 Q1013 NOSIG,M
EHBK,2022-03-29 07:55,48.20,42.80,81.47,60.00,4.00,0.00,29.91,M,5.59,M,NSC,M,M,M,M,M,M,M,M,M,M,M,M,M,M,46.34,EHBK 290755Z AUTO 06004KT 020V090 9000 NSC 09/06 Q1013 NOSIG,M
EHBK,2022-03-29 08:25,50.00,42.80,76.18,M,5.00,0.00,29.91,M,6.21,M,NSC,M,M,M,M,M,M,M,M,M,M,M,M,M,M,50.00,EHBK 290825Z AUTO VRB05KT 9999 NSC 10/06 Q1013 NOSIG,M
EHBK,2022-03-29 08:55,51.80,44.60,76.34,40.00,4.00,0.00,29.91,M,6.21,M,NSC,M,M,M,M,M,M,M,M,M,M,M,M,M,M,51.80,EHBK 290855Z AUTO 04004KT 010V090 9999 NSC 11/07 Q1013 NOSIG,M
EHBK,2022-03-29 09:25,53.60,42.80,66.70,50.00,6.00,0.00,29.88,M,6.21,M,NSC,M,M,M,M,M,M,M,M,M,M,M,M,M,M,53.60,EHBK 290925Z AUTO 05006KT 010V090 9999 NSC 12/06 Q1012 NOSIG,M
EHBK,2022-03-29 09:55,53.60,42.80,66.70,40.00,8.00,0.00,29.88,M,6.21,M,NSC,M,M,M,M,M,M,M,M,M,M,M,M,M,M,53.60,EHBK 290955Z AUTO 04008KT 010V090 9999 NSC 12/06 Q1012 NOSIG,M
EHBK,2022-03-29 10:25,53.60,42.80,66.70,50.00,9.00,0.00,29.88,M,6.21,M,NSC,M,M,M,M,M,M,M,M,M,M,M,M,M,M,53.60,EHBK 291025Z AUTO 05009KT 010V070 9999 NSC 12/06 Q1012 NOSIG,M
EHBK,2022-03-29 10:55,55.40,44.60,66.91,40.00,10.00,0.00,29.85,M,6.21,M,NSC,M,M,M,M,M,M,M,M,M,M,M,M,M,M,55.40,EHBK 291055Z AUTO 04010KT 020V090 9999 NSC 13/07 Q1011 NOSIG,M
EHBK,2022-03-29 11:25,55.40,44.60,66.91,50.00,8.00,0.00,29.85,M,6.21,M,NSC,M,M,M,M,M,M,M,M,M,M,M,M,M,M,55.40,EHBK 291125Z AUTO 05008KT 020V080 9999 NSC 13/07 Q1011 NOSIG,M
EHBK,2022-03-29 11:55,57.20,42.80,58.52,60.00,9.00,0.00,29.85,M,6.21,M,NSC,M,M,M,M,M,M,M,M,M,M,M,M,M,M,57.20,EHBK 291155Z AUTO 06009KT 020V090 9999 NSC 14/06 Q1011 NOSIG,M
EHBK,2022-03-29 12:25,55.40,42.80,62.46,40.00,8.00,0.00,29.83,M,6.21,M,NSC,M,M,M,M,M,M,M,M,M,M,M,M,M,M,55.40,EHBK 291225Z AUTO 04008KT 010V070 9999 NSC 13/06 Q1010 NOSIG,M
EHBK,2022-03-29 12:55,57.20,46.40,67.12,30.00,10.00,0.00,29.83,M,3.11,M,NSC,M,M,M,M,M,M,M,M,M,M,M,M,M,M,57.20,EHBK 291255Z AUTO 03010KT 5000 NSC 14/08 Q1010 NOSIG,M
EHBK,2022-03-29 13:25,55.40,44.60,66.91,10.00,11.00,0.00,29.83,M,2.98,M,NSC,M,M,M,M,M,M,M,HZ,M,M,M,M,M,M,55.40,EHBK 291325Z AUTO 01011KT 340V040 4800 HZ NSC 13/07 Q1010 TEMPO 4000 HZ,M
EHBK,2022-03-29 13:55,55.40,44.60,66.91,30.00,9.00,0.00,29.80,M,3.11,M,NSC,M,M,M,M,M,M,M,M,M,M,M,M,M,M,55.40,EHBK 291355Z AUTO 03009KT 5000 NSC 13/07 Q1009 TEMPO 4000 HZ,M
EHBK,2022-03-29 14:25,55.40,44.60,66.91,50.00,10.00,0.00,29.80,M,3.11,M,NSC,M,M,M,M,M,M,M,M,M,M,M,M,M,M,55.40,EHBK 291425Z AUTO 05010KT 020V080 5000 NSC 13/07 Q1009 TEMPO 4000 HZ,M
EHBK,2022-03-29 14:55,55.40,42.80,62.46,50.00,9.00,0.00,29.80,M,3.11,M,NSC,M,M,M,M,M,M,M,M,M,M,M,M,M,M,55.40,EHBK 291455Z AUTO 05009KT 010V080 5000 NSC 13/06 Q1009 TEMPO 4000 HZ,M
EHBK,2022-03-29 15:25,55.40,42.80,62.46,40.00,10.00,0.00,29.80,M,5.59,M,NSC,M,M,M,M,M,M,M,M,M,M,M,M,M,M,55.40,EHBK 291525Z AUTO 04010KT 360V060 9000 NSC 13/06 Q1009 TEMPO 4000 HZ,M
EHBK,2022-03-29 15:55,53.60,41.00,62.23,40.00,9.00,0.00,29.77,M,6.21,M,NSC,M,M,M,M,M,M,M,M,M,M,M,M,M,M,53.60,EHBK 291555Z AUTO 04009KT 010V070 9999 NSC 12/05 Q1008 TEMPO 7000,M
EHBK,2022-03-29 16:25,53.60,39.20,58.02,40.00,9.00,0.00,29.77,M,6.21,M,NSC,M,M,M,M,M,M,M,M,M,M,M,M,M,M,53.60,EHBK 291625Z AUTO 04009KT 9999 NSC 12/04 Q1008 NOSIG,M
EHBK,2022-03-29 16:55,53.60,41.00,62.23,50.00,9.00,0.00,29.77,M,6.21,M,NSC,M,M,M,M,M,M,M,M,M,M,M,M,M,M,53.60,EHBK 291655Z AUTO 05009KT 9999 NSC 12/05 Q1008 NOSIG,M
EHBK,2022-03-29 17:25,51.80,39.20,61.99,60.00,10.00,0.00,29.77,M,6.21,M,NSC,M,M,M,M,M,M,M,M,M,M,M,M,M,M,51.80,EHBK 291725Z AUTO 06010KT 9999 NSC 11/04 Q1008 NOSIG,M
EHBK,2022-03-29 17:55,51.80,39.20,61.99,50.00,9.00,0.00,29.77,M,6.21,M,NSC,M,M,M,M,M,M,M,M,M,M,M,M,M,M,51.80,EHBK 291755Z AUTO 05009KT 9999 NSC 11/04 Q1008 NOSIG,M
EHBK,2022-03-29 18:25,50.00,39.20,66.27,40.00,7.00,0.00,29.77,M,6.21,M,NSC,M,M,M,M,M,M,M,M,M,M,M,M,M,M,50.00,EHBK 291825Z AUTO 04007KT 9999 NSC 10/04 Q1008 TEMPO 7000 -RA,M
EHBK,2022-03-29 18:55,51.80,37.40,57.77,40.00,8.00,0.00,29.77,M,6.21,M,NSC,M,M,M,M,M,M,M,M,M,M,M,M,M,M,51.80,EHBK 291855Z AUTO 04008KT 010V080 9999 NSC 11/03 Q1008 TEMPO 7000 -RA,M
EHBK,2022-03-29 19:25,50.00,37.40,61.76,50.00,7.00,0.00,29.77,M,6.21,M,SCT,M,M,M,4600.00,M,M,M,M,M,M,M,M,M,M,50.00,EHBK 291925Z AUTO 05007KT 020V080 9999 SCT046 10/03 Q1008 TEMPO 7000 -RA,M
EHBK,2022-03-29 19:55,50.00,39.20,66.27,60.00,6.00,0.00,29.77,M,6.21,M,FEW,M,M,M,2000.00,M,M,M,-RA,M,M,M,M,M,M,50.00,EHBK 291955Z AUTO 06006KT 9999 -RA FEW020CB 10/04 Q1008 REDZRA TEMPO 7000 -RA,M
EHBK,2022-03-29 20:25,48.20,41.00,76.01,70.00,5.00,0.00,29.77,M,6.21,M,FEW,M,M,M,1900.00,M,M,M,-DZ,M,M,M,M,M,M,45.63,EHBK 292025Z AUTO 07005KT 9999 -DZ FEW019CB 09/05 Q1008 TEMPO 7000 -RA,M
EHBK,2022-03-29 20:55,48.20,41.00,76.01,60.00,5.00,0.00,29.77,M,6.21,M,SCT,SCT,M,M,4200.00,4600.00,M,M,-DZ,M,M,M,M,M,M,45.63,EHBK 292055Z AUTO 06005KT 9999 -DZ SCT042/// SCT046/// 09/05 Q1008 TEMPO 7000 -RA,M
EHBK,2022-03-29 21:25,48.20,41.00,76.01,50.00,4.00,0.00,29.74,M,6.21,M,NSC,M,M,M,M,M,M,M,M,M,M,M,M,M,M,46.34,EHBK 292125Z AUTO 05004KT 9999 NSC 09/05 Q1007,M
EHBK,2022-03-29 21:55,48.20,41.00,76.01,50.00,5.00,0.00,29.74,M,6.21,M,OVC,M,M,M,3500.00,M,M,M,M,M,M,M,M,M,M,45.63,EHBK 292155Z AUTO 05005KT 9999 OVC035 09/05 Q1007,M
EHBK,2022-03-29 22:25,48.20,39.20,70.88,50.00,6.00,0.00,29.74,M,6.21,M,NSC,M,M,M,M,M,M,M,M,M,M,M,M,M,M,45.04,EHBK 292225Z AUTO 05006KT 9999 NSC 09/04 Q1007,M
EHBK,2022-03-29 22:55,48.20,41.00,76.01,40.00,6.00,0.00,29.74,M,6.21,M,FEW,M,M,M,4900.00,M,M,M,-DZ,M,M,M,M,M,M,45.04,EHBK 292255Z AUTO 04006KT 9999 -DZ FEW049 09/05 Q1007 REDZ,M
EHBK,2022-03-29 23:25,46.40,41.00,81.34,40.00,8.00,0.00,29.74,M,6.21,M,FEW,M,M,M,4100.00,M,M,M,DZ,M,M,M,M,M,M,41.85,EHBK 292325Z AUTO 04008KT 9999 DZ FEW041 08/05 Q1007,M
EHBK,2022-03-29 23:55,46.40,41.00,81.34,50.00,6.00,0.00,29.74,M,6.21,M,FEW,M,M,M,1500.00,M,M,M,-DZ,M,M,M,M,M,M,42.87,EHBK 292355Z AUTO 05006KT 9999 -DZ FEW015CB 08/05 Q1007 REDZ,M
EHBK,2022-03-30 00:25,46.40,39.20,75.84,50.00,6.00,0.00,29.71,M,6.21,M,FEW,BKN,M,M,1500.00,3600.00,M,M,-DZ,M,M,M,M,M,M,42.87,EHBK 300025Z AUTO 05006KT 9999 -DZ FEW015CB BKN036 08/04 Q1006,M
EHBK,2022-03-30 00:55,46.40,39.20,75.84,50.00,6.00,0.00,29.71,M,6.21,M,NSC,M,M,M,M,M,M,M,-RADZ,M,M,M,M,M,M,42.87,EHBK 300055Z AUTO 05006KT 9999 -RADZ NSC 08/04 Q1006 REDZRA,M
EHBK,2022-03-30 01:25,44.60,39.20,81.20,50.00,6.00,0.00,29.71,M,6.21,M,NSC,M,M,M,M,M,M,M,-DZ,M,M,M,M,M,M,40.71,EHBK 300125Z AUTO 05006KT 9999 -DZ NSC 07/04 Q1006,M
EHBK,2022-03-30 01:55,44.60,39.20,81.20,40.00,6.00,0.00,29.71,M,6.21,M,FEW,M,M,M,1500.00,M,M,M,M,M,M,M,M,M,M,40.71,EHBK 300155Z AUTO 04006KT 9999 FEW015CB 07/04 Q1006,M
EHBK,2022-03-30 02:25,44.60,37.40,75.68,50.00,8.00,0.00,29.68,M,6.21,M,FEW,M,M,M,1600.00,M,M,M,M,M,M,M,M,M,M,39.63,EHBK 300225Z AUTO 05008KT 9999 FEW016CB 07/03 Q1005,M
EHBK,2022-03-30 02:55,44.60,37.40,75.68,40.00,7.00,0.00,29.68,M,6.21,M,FEW,M,M,M,1500.00,M,M,M,M,M,M,M,M,M,M,40.14,EHBK 300255Z AUTO 04007KT 9999 FEW015CB 07/03 Q1005,M
EHBK,2022-03-30 03:25,44.60,37.40,75.68,40.00,7.00,0.00,29.68,M,6.21,M,NSC,M,M,M,M,M,M,M,M,M,M,M,M,M,M,40.14,EHBK 300325Z AUTO 04007KT 9999 NSC 07/03 Q1005,M
EHBK,2022-03-30 03:55,44.60,37.40,75.68,40.00,8.00,0.00,29.68,M,6.21,M,NSC,M,M,M,M,M,M,M,M,M,M,M,M,M,M,39.63,EHBK 300355Z AUTO 04008KT 9999 NSC 07/03 Q1005 NOSIG,M
EHBK,2022-03-30 04:25,42.80,37.40,81.07,30.00,8.00,0.00,29.68,M,6.21,M,NSC,M,M,M,M,M,M,M,M,M,M,M,M,M,M,37.42,EHBK 300425Z AUTO 03008KT 9999 NSC 06/03 Q1005 NOSIG,M
EHBK,2022-03-30 04:55,42.80,37.40,81.07,40.00,6.00,0.00,29.68,M,6.21,M,NSC,M,M,M,M,M,M,M,M,M,M,M,M,M,M,38.54,EHBK 300455Z AUTO 04006KT 9999 NSC 06/03 Q1005 NOSIG,M
EHBK,2022-03-30 05:25,41.00,35.60,80.93,30.00,7.00,0.00,29.65,M,6.21,M,NSC,M,M,M,M,M,M,M,M,M,M,M,M,M,M,35.75,EHBK 300525Z AUTO 03007KT 9999 NSC 05/02 Q1004 NOSIG,M
EHBK,2022-03-30 05:55,41.00,35.60,80.93,40.00,7.00,0.00,29.68,M,5.59,M,NSC,M,M,M,M,M,M,M,M,M,M,M,M,M,M,35.75,EHBK 300555Z AUTO 04007KT 9000 NSC 05/02 Q1005 NOSIG,M
EHBK,2022-03-30 06:25,41.00,37.40,86.89,40.00,7.00,0.00,29.68,M,5.59,M,NSC,M,M,M,M,M,M,M,M,M,M,M,M,M,M,35.75,EHBK 300625Z AUTO 04007KT 9000 NSC 05/03 Q1005 NOSIG,M
EHBK,2022-03-30 06:55,42.80,37.40,81.07,20.00,8.00,0.00,29.68,M,5.59,M,NSC,M,M,M,M,M,M,M,M,M,M,M,M,M,M,37.42,EHBK 300655Z AUTO 02008KT 360V060 9000 NSC 06/03 Q1005 NOSIG,M
EHBK,2022-03-30 07:25,42.80,37.40,81.07,40.00,6.00,0.00,29.68,M,5.59,M,NSC,M,M,M,M,M,M,M,M,M,M,M,M,M,M,38.54,EHBK 300725Z AUTO 04006KT 010V070 9000 NSC 06/03 Q1005 NOSIG,M
EHBK,2022-03-30 07:55,42.80,37.40,81.07,60.00,7.00,0.00,29.68,M,5.59,M,NSC,M,M,M,M,M,M,M,M,M,M,M,M,M,M,37.94,EHBK 300755Z AUTO 06007KT 9000 NSC 06/03 Q1005 NOSIG,M
EHBK,2022-03-30 08:25,44.60,37.40,75.68,40.00,9.00,0.00,29.68,M,5.59,M,NSC,M,M,M,M,M,M,M,M,M,M,M,M,M,M,39.18,EHBK 300825Z AUTO 04009KT 9000 NSC 07/03 Q1005 NOSIG,M
EHBK,2022-03-30 08:55,46.40,37.40,70.68,50.00,10.00,0.00,29.68,M,6.21,M,NSC,M,M,M,M,M,M,M,M,M,M,M,M,M,M,41.03,EHBK 300855Z AUTO 05010KT 9999 NSC 08/03 Q1005 NOSIG,M
EHBK,2022-03-30 09:25,48.20,37.40,66.05,50.00,10.00,0.00,29.68,M,6.21,M,NSC,M,M,M,M,M,M,M,M,M,M,M,M,M,M,43.28,EHBK 300925Z AUTO 05010KT 9999 NSC 09/03 Q1005 NOSIG,M
EHBK,2022-03-30 09:55,50.00,37.40,61.76,40.00,10.00,0.00,29.68,M,6.21,M,NSC,M,M,M,M,M,M,M,M,M,M,M,M,M,M,50.00,EHBK 300955Z AUTO 04010KT 360V070 9999 NSC 10/03 Q1005 NOSIG,M
EHBK,2022-03-30 10:25,51.80,37.40,57.77,40.00,9.00,0.00,29.65,M,6.21,M,NSC,M,M,M,M,M,M,M,M,M,M,M,M,M,M,51.80,EHBK 301025Z AUTO 04009KT 010V080 9999 NSC 11/03 Q1004 NOSIG,M
EHBK,2022-03-30 10:55,51.80,35.60,53.81,60.00,8.00,0.00,29.65,M,6.21,M,NSC,M,M,M,M,M,M,M,M,M,M,M,M,M,M,51.80,EHBK 301055Z AUTO 06008KT 020V100 9999 NSC 11/02 Q1004 NOSIG,M
EHBK,2022-03-30 11:25,51.80,35.60,53.81,60.00,9.00,0.00,29.65,M,6.21,M,NSC,M,M,M,M,M,M,M,M,M,M,M,M,M,M,51.80,EHBK 301125Z AUTO 06009KT 020V100 9999 NSC 11/02 Q1004 NOSIG,M
EHBK,2022-03-30 11:55,51.80,33.80,50.08,80.00,7.00,0.00,29.62,M,6.21,M,NSC,M,M,M,M,M,M,M,M,M,M,M,M,M,M,51.80,EHBK 301155Z AUTO 08007KT 020V130 9999 NSC 11/01 Q1003 NOSIG,M
EHBK,2022-03-30 12:25,53.60,35.60,50.36,40.00,8.00,0.00,29.62,M,6.21,M,NSC,M,M,M,M,M,M,M,M,M,M,M,M,M,M,53.60,EHBK 301225Z AUTO 04008KT 340V080 9999 NSC 12/02 Q1003 NOSIG,M
EHBK,2022-03-30 12:55,55.40,35.60,47.16,70.00,7.00,0.00,29.62,M,6.21,M,NSC,M,M,M,M,M,M,M,M,M,M,M,M,M,M,55.40,EHBK 301255Z AUTO 07007KT 030V130 9999 NSC 13/02 Q1003 NOSIG,M
EHBK,2022-03-30 13:25,55.40,35.60,47.16,40.00,8.00,0.00,29.62,M,6.21,M,FEW,M,M,M,4100.00,M,M,M,M,M,M,M,M,M,M,55.40,EHBK 301325Z AUTO 04008KT 9999 FEW041 13/02 Q1003 NOSIG,M
EHBK,2022-03-30 13:55,53.60,37.40,54.07,40.00,8.00,0.00,29.59,M,6.21,M,BKN,OVC,M,M,4000.00,4700.00,M,M,M,M,M,M,M,M,M,53.60,EHBK 301355Z AUTO 04008KT 9999 BKN040 OVC047 12/03 Q1002 NOSIG,M
EHBK,2022-03-30 14:25,53.60,35.60,50.36,30.00,7.00,0.00,29.59,M,6.21,M,BKN,M,M,M,4100.00,M,M,M,M,M,M,M,M,M,M,53.60,EHBK 301425Z AUTO 03007KT 360V060 9999 BKN041 12/02 Q1002 NOSIG,M
EHBK,2022-03-30 14:55,53.60,35.60,50.36,30.00,6.00,0.00,29.59,M,6.21,M,NSC,M,M,M,M,M,M,M,M,M,M,M,M,M,M,53.60,EHBK 301455Z AUTO 03006KT 340V080 9999 NSC 12/02 Q1002 NOSIG,M
EHBK,2022-03-30 15:25,53.60,33.80,46.88,30.00,8.00,0.00,29.56,M,6.21,M,BKN,M,M,M,4500.00,M,M,M,M,M,M,M,M,M,M,53.60,EHBK 301525Z AUTO 03008KT 330V080 9999 BKN045 12/01 Q1001 NOSIG,M
EHBK,2022-03-30 15:55,51.80,33.80,50.08,40.00,7.00,0.00,29.56,M,6.21,M,FEW,M,M,M,4600.00,M,M,M,M,M,M,M,M,M,M,51.80,EHBK 301555Z AUTO 04007KT 9999 FEW046 11/01 Q1001 NOSIG,M
EHBK,2022-03-30 16:25,51.80,35.60,53.81,40.00,8.00,0.00,29.56,M,6.21,M,FEW,BKN,BKN,M,4000.00,4400.00,4900.00,M,M,M,M,M,M,M,M,51.80,EHBK 301625Z AUTO 04008KT 010V080 9999 FEW040 BKN044 BKN049 11/02 Q1001 NOSIG,M
EHBK,2022-03-30 16:55,51.80,33.80,50.08,30.00,8.00,0.00,29.56,M,6.21,M,BKN,M,M,M,4300.00,M,M,M,M,M,M,M,M,M,M,51.80,EHBK 301655Z AUTO 03008KT 9999 BKN043 11/01 Q1001 NOSIG,M
EHBK,2022-03-30 17:25,50.00,33.80,53.54,20.00,10.00,0.00,29.56,M,6.21,M,FEW,M,M,M,4400.00,M,M,M,M,M,M,M,M,M,M,50.00,EHBK 301725Z AUTO 02010KT 9999 FEW044 10/01 Q1001 NOSIG,M
EHBK,2022-03-30 17:55,50.00,33.80,53.54,40.00,10.00,0.00,29.56,M,6.21,M,BKN,OVC,M,M,4300.00,4700.00,M,M,M,M,M,M,M,M,M,50.00,EHBK 301755Z AUTO 04010KT 9999 BKN043 OVC047 10/01 Q1001 NOSIG,M
EHBK,2022-03-30 18:25,50.00,35.60,57.52,40.00,8.00,0.00,29.56,M,6.21,M,BKN,BKN,M,M,4200.00,4800.00,M,M,M,M,M,M,M,M,M,50.00,EHBK 301825Z AUTO 04008KT 010V070 9999 BKN042 BKN048 10/02 Q1001 NOSIG,M
EHBK,2022-03-30 18:55,48.20,35.60,61.52,30.00,10.00,0.00,29.56,M,6.21,M,NSC,M,M,M,M,M,M,M,M,M,M,M,M,M,M,43.28,EHBK 301855Z AUTO 03010KT 9999 NSC 09/02 Q1001 NOSIG,M
EHBK,2022-03-30 19:25,48.20,35.60,61.52,40.00,11.00,0.00,29.56,M,6.21,M,SCT,M,M,M,4200.00,M,M,M,M,M,M,M,M,M,M,42.94,EHBK 301925Z AUTO 04011KT 010V070 9999 SCT042 09/02 Q1001 NOSIG,M
EHBK,2022-03-30 19:55,46.40,35.60,65.83,50.00,11.00,0.00,29.56,M,6.21,M,FEW,SCT,BKN,M,3500.00,4100.00,4600.00,M,M,M,M,M,M,M,M,40.66,EHBK 301955Z AUTO 05011KT 9999 FEW035 SCT041 BKN046 08/02 Q1001 NOSIG,M
EHBK,2022-03-30 20:25,46.40,35.60,65.83,60.00,9.00,0.00,29.56,M,6.21,M,FEW,M,M,M,4500.00,M,M,M,M,M,M,M,M,M,M,41.42,EHBK 302025Z AUTO 06009KT 9999 FEW045 08/02 Q1001 NOSIG,M
EHBK,2022-03-30 20:55,46.40,35.60,65.83,60.00,8.00,0.00,29.56,M,6.21,M,SCT,BKN,M,M,3800.00,4200.00,M,M,M,M,M,M,M,M,M,41.85,EHBK 302055Z AUTO 06008KT 9999 SCT038 BKN042 08/02 Q1001,M
EHBK,2022-03-30 21:25,44.60,35.60,70.48,60.00,8.00,0.00,29.56,M,6.21,M,FEW,BKN,BKN,M,3400.00,4400.00,4800.00,M,M,M,M,M,M,M,M,39.63,EHBK 302125Z AUTO 06008KT 9999 FEW034 BKN044 BKN048 07/02 Q1001,M
EHBK,2022-03-30 21:55,44.60,35.60,70.48,40.00,7.00,0.00,29.56,M,6.21,M,FEW,OVC,M,M,3100.00,4400.00,M,M,-DZ,M,M,M,M,M,M,40.14,EHBK 302155Z AUTO 04007KT 9999 -DZ FEW031 OVC044 07/02 Q1001,M
EHBK,2022-03-30 22:25,44.60,37.40,75.68,50.00,5.00,0.00,29.56,M,6.21,M,SCT,OVC,M,M,3700.00,4100.00,M,M,-RA,M,M,M,M,M,M,41.36,EHBK 302225Z AUTO 05005KT 9999 -RA SCT037 OVC041 07/03 Q1001,M
EHBK,2022-03-30 22:55,42.80,37.40,81.07,50.00,5.00,0.00,29.56,M,6.21,M,FEW,BKN,OVC,M,1800.00,3800.00,4700.00,M,-RA,M,M,M,M,M,M,39.22,EHBK 302255Z AUTO 05005KT 9999 -RA FEW018 BKN038 OVC047 06/03 Q1001,M
EHBK,2022-03-30 23:25,42.80,37.40,81.07,50.00,4.00,0.00,29.56,M,6.21,M,FEW,SCT,M,M,3600.00,4900.00,M,M,+DZ,M,M,M,M,M,M,40.03,EHBK 302325Z AUTO 05004KT 9999 +DZ FEW036 SCT049 06/03 Q1001,M
EHBK,2022-03-30 23:55,42.80,37.40,81.07,40.00,3.00,0.00,29.56,M,6.21,M,SCT,SCT,M,M,3300.00,3800.00,M,M,M,M,M,M,M,M,M,41.03,EHBK 302355Z AUTO 04003KT 9999 SCT033 SCT038 06/03 Q1001,M
EHBK,2022-03-31 00:25,42.80,37.40,81.07,50.00,4.00,0.00,29.53,M,6.21,M,FEW,BKN,M,M,2800.00,4600.00,M,M,-RADZ,M,M,M,M,M,M,40.03,EHBK 310025Z AUTO 05004KT 9999 -RADZ FEW028/// BKN046/// 06/03 Q1000,M
EHBK,2022-03-31 00:55,42.80,37.40,81.07,50.00,4.00,0.00,29.53,M,6.21,M,SCT,M,M,M,4400.00,M,M,M,DZ,M,M,M,M,M,M,40.03,EHBK 310055Z AUTO 05004KT 9999 DZ SCT044 06/03 Q1000,M
EHBK,2022-03-31 01:25,42.80,37.40,81.07,100.00,4.00,0.00,29.53,M,6.21,M,SCT,SCT,M,M,4200.00,4700.00,M,M,DZ,M,M,M,M,M,M,40.03,EHBK 310125Z AUTO 10004KT 060V120 9999 DZ SCT042 SCT047 06/03 Q1000,M
EHBK,2022-03-31 01:55,42.80,37.40,81.07,100.00,4.00,0.00,29.50,M,6.21,M,OVC,M,M,M,4500.00,M,M,M,DZ,M,M,M,M,M,M,40.03,EHBK 310155Z AUTO 10004KT 9999 DZ OVC045 06/03 Q0999,M
EHBK,2022-03-31 02:25,41.00,37.40,86.89,10.00,3.00,0.00,29.50,M,6.21,M,BKN,M,M,M,4800.00,M,M,M,DZ,M,M,M,M,M,M,38.98,EHBK 310225Z AUTO 01003KT 330V040 9999 DZ BKN048 05/03 Q0999,M
EHBK,2022-03-31 02:55,41.00,37.40,86.89,50.00,4.00,0.00,29.50,M,6.21,M,BKN,M,M,M,4500.00,M,M,M,-DZ,M,M,M,M,M,M,37.93,EHBK 310255Z AUTO 05004KT 9999 -DZ BKN045 05/03 Q0999 REDZ,M
EHBK,2022-03-31 03:25,41.00,37.40,86.89,360.00,3.00,0.00,29.50,M,6.21,M,FEW,SCT,BKN,M,3200.00,4400.00,4900.00,M,-RA,M,M,M,M,M,M,38.98,EHBK 310325Z AUTO 36003KT 330V030 9999 -RA FEW032 SCT044 BKN049 05/03 Q0999 REDZRA,M
EHBK,2022-03-31 03:55,41.00,37.40,86.89,20.00,4.00,0.00,29.50,M,6.21,M,NSC,M,M,M,M,M,M,M,-DZ,M,M,M,M,M,M,37.93,COR EHBK 310355Z AUTO 02004KT 9999 -DZ NSC 05/03 Q0999 NOSIG,M
EHBK,2022-03-31 04:25,41.00,37.40,86.89,10.00,5.00,0.00,29.50,M,6.21,M,FEW,BKN,OVC,M,1200.00,2400.00,4300.00,M,-RA,M,M,M,M,M,M,37.08,EHBK 310425Z AUTO 01005KT 320V030 9999 -RA FEW012 BKN024 OVC043 05/03 Q0999 NOSIG,M
EHBK,2022-03-31 04:55,41.00,37.40,86.89,20.00,5.00,0.00,29.50,M,6.21,M,FEW,BKN,M,M,2400.00,2800.00,M,M,-RADZ,M,M,M,M,M,M,37.08,EHBK 310455Z AUTO 02005KT 350V050 9999 -RADZ FEW024 BKN028 05/03 Q0999 REDZRA NOSIG,M
EHBK,2022-03-31 05:25,41.00,37.40,86.89,20.00,6.00,0.00,29.50,M,6.21,M,OVC,M,M,M,3800.00,M,M,M,-DZ,M,M,M,M,M,M,36.37,EHBK 310525Z AUTO 02006KT 9999 -DZ OVC038 05/03 Q0999 NOSIG,M
EHBK,2022-03-31 05:55,41.00,37.40,86.89,10.00,6.00,0.00,29.50,M,6.21,M,BKN,OVC,M,M,2500.00,3000.00,M,M,M,M,M,M,M,M,M,36.37,EHBK 310555Z AUTO 01006KT 9999 BKN025 OVC030 05/03 Q0999 NOSIG,M
EHBK,2022-03-31 06:25,39.20,37.40,93.19,350.00,7.00,0.00,29.50,M,5.59,M,FEW,BKN,BKN,M,700.00,900.00,1000.00,M,M,M,M,M,M,M,M,33.56,EHBK 310625Z AUTO 35007KT 310V030 9000 FEW007 BKN009 BKN010 04/03 Q0999 NOSIG,M
EHBK,2022-03-31 06:55,39.20,35.60,86.79,350.00,9.00,0.00,29.50,M,3.73,M,BKN,OVC,M,M,700.00,800.00,M,M,M,M,M,M,M,M,M,32.47,EHBK 310655Z AUTO 35009KT 320V030 6000 BKN007 OVC008 04/02 Q0999 TEMPO 9000,M
EHBK,2022-03-31 07:25,39.20,35.60,86.79,350.00,8.00,0.00,29.50,M,4.35,M,OVC,M,M,M,700.00,M,M,M,M,M,M,M,M,M,M,32.98,EHBK 310725Z AUTO 35008KT 320V020 7000 OVC007 04/02 Q0999 TEMPO 9000,M
EHBK,2022-03-31 07:55,39.20,35.60,86.79,360.00,8.00,0.00,29.50,M,4.35,M,BKN,OVC,M,M,700.00,800.00,M,M,M,M,M,M,M,M,M,32.98,EHBK 310755Z AUTO 36008KT 330V040 7000 BKN007 OVC008 04/02 Q0999 TEMPO 9000,M
EHBK,2022-03-31 08:25,39.20,35.60,86.79,360.00,9.00,0.00,29.50,M,4.35,M,OVC,M,M,M,700.00,M,M,M,M,M,M,M,M,M,M,32.47,EHBK 310825Z AUTO 36009KT 320V030 7000 OVC007 04/02 Q0999 TEMPO 9000,M
EHBK,2022-03-31 08:55,39.20,35.60,86.79,340.00,8.00,0.00,29.50,M,4.35,M,BKN,OVC,M,M,600.00,700.00,M,M,M,M,M,M,M,M,M,32.98,EHBK 310855Z AUTO 34008KT 310V010 7000 BKN006 OVC007 04/02 Q0999 NOSIG,M
EHBK,2022-03-31 09:25,37.40,35.60,93.14,340.00,9.00,0.00,29.50,M,3.73,M,OVC,M,M,M,400.00,M,M,M,-DZ,M,M,M,M,M,M,30.23,EHBK 310925Z AUTO 34009KT 310V010 6000 -DZ OVC004 03/02 Q0999 TEMPO BKN006,M
EHBK,2022-03-31 09:55,37.40,35.60,93.14,340.00,10.00,0.00,29.50,M,4.97,M,SCT,BKN,OVC,M,300.00,400.00,500.00,M,-RADZ,M,M,M,M,M,M,29.74,EHBK 310955Z AUTO 34010KT 310V010 8000 -RADZ SCT003 BKN004 OVC005 03/02 Q0999 TEMPO BKN006,M
EHBK,2022-03-31 10:25,35.60,33.80,93.08,340.00,9.00,0.00,29.50,M,5.59,M,FEW,BKN,OVC,M,300.00,400.00,500.00,M,DZ,M,M,M,M,M,M,27.99,EHBK 311025Z AUTO 34009KT 310V010 9000 DZ FEW003 BKN004 OVC005 02/01 Q0999 TEMPO -RADZ BKN006,M
EHBK,2022-03-31 10:55,35.60,33.80,93.08,340.00,7.00,0.00,29.53,M,4.35,M,BKN,OVC,M,M,300.00,400.00,M,M,-RA,M,M,M,M,M,M,29.17,EHBK 311055Z AUTO 34007KT 300V010 7000 -RA BKN003 OVC004 02/01 Q1000 REDZRA NOSIG,M
EHBK,2022-03-31 11:25,35.60,33.80,93.08,330.00,8.00,0.00,29.50,M,5.59,M,BKN,OVC,M,M,300.00,400.00,M,M,-RA,M,M,M,M,M,M,28.55,EHBK 311125Z AUTO 33008KT 300V010 9000 -RA BKN003 OVC004 02/01 Q0999 NOSIG,M
EHBK,2022-03-31 11:55,37.40,35.60,93.14,340.00,8.00,0.00,29.50,M,6.21,M,BKN,OVC,M,M,300.00,400.00,M,M,-RA,M,M,M,M,M,M,30.76,EHBK 311155Z AUTO 34008KT 310V010 9999 -RA BKN003 OVC004 03/02 Q0999 REDZRA NOSIG,M
EHBK,2022-03-31 12:25,37.40,35.60,93.14,330.00,6.00,0.00,29.50,M,6.21,M,BKN,OVC,M,M,400.00,500.00,M,M,-DZ,M,M,M,M,M,M,32.03,EHBK 311225Z AUTO 33006KT 280V360 9999 -DZ BKN004/// OVC005/// 03/02 Q0999 REDZ NOSIG,M
EHBK,2022-03-31 12:55,37.40,35.60,93.14,310.00,6.00,0.00,29.50,M,6.21,M,SCT,BKN,OVC,M,600.00,700.00,900.00,M,DZRA,M,M,M,M,M,M,32.03,EHBK 311255Z AUTO 31006KT 270V340 9999 DZRA SCT006 BKN007 OVC009 03/02 Q0999 NOSIG,M
EHBK,2022-03-31 13:25,37.40,35.60,93.14,320.00,6.00,0.00,29.50,M,6.21,M,SCT,BKN,BKN,M,600.00,700.00,800.00,M,-RA,M,M,M,M,M,M,32.03,EHBK 311325Z AUTO 32006KT 290V010 9999 -RA SCT006 BKN007 BKN008 03/02 Q0999 REDZRA TEMPO BKN004,M
EHBK,2022-03-31 13:55,37.40,35.60,93.14,320.00,7.00,0.00,29.50,M,6.21,M,FEW,BKN,OVC,M,600.00,700.00,800.00,M,DZ,M,M,M,M,M,M,31.36,EHBK 311355Z AUTO 32007KT 280V010 9999 DZ FEW006 BKN007 OVC008 03/02 Q0999 NOSIG,M
EHBK,2022-03-31 14:25,37.40,35.60,93.14,320.00,5.00,0.00,29.50,M,6.21,M,FEW,BKN,OVC,M,200.00,1000.00,1300.00,M,DZ,M,M,M,M,M,M,32.81,EHBK 311425Z AUTO 32005KT 280V360 9999 DZ FEW002 BKN010 OVC013 03/02 Q0999 NOSIG,M
EHBK,2022-03-31 14:55,39.20,35.60,86.79,330.00,6.00,0.00,29.50,M,6.21,M,FEW,SCT,BKN,M,700.00,800.00,900.00,M,-RA,M,M,M,M,M,M,34.20,EHBK 311455Z AUTO 33006KT 9999 -RA FEW007/// SCT008/// BKN009/// 04/02 Q0999 REDZRA NOSIG,M
EHBK,2022-03-31 15:25,39.20,35.60,86.79,320.00,6.00,0.00,29.50,M,6.21,M,SCT,BKN,OVC,M,700.00,800.00,1100.00,M,-RA,M,M,M,M,M,M,34.20,EHBK 311525Z AUTO 32006KT 290V360 9999 -RA SCT007 BKN008 OVC011 04/02 Q0999 REDZRA NOSIG,M
EHBK,2022-03-31 15:55,37.40,35.60,93.14,310.00,7.00,0.00,29.50,M,6.21,M,FEW,BKN,BKN,M,700.00,800.00,1000.00,M,-RA,M,M,M,M,M,M,31.36,EHBK 311555Z AUTO 31007KT 280V350 9999 -RA FEW007/// BKN008/// BKN010/// 03/02 Q0999 REDZRA NOSIG,M
EHBK,2022-03-31 16:25,37.40,35.60,93.14,300.00,4.00,0.00,29.50,M,4.97,M,FEW,SCT,OVC,M,700.00,900.00,1200.00,M,DZ,M,M,M,M,M,M,33.73,EHBK 311625Z AUTO 30004KT 240V350 8000 DZ FEW007 SCT009 OVC012 03/02 Q0999 NOSIG,M
EHBK,2022-03-31 16:55,37.40,35.60,93.14,310.00,5.00,0.00,29.50,M,6.21,M,FEW,SCT,OVC,M,800.00,900.00,1000.00,M,-RA,M,M,M,M,M,M,32.81,EHBK 311655Z AUTO 31005KT 270V340 9999 -RA FEW008 SCT009 OVC010 03/02 Q0999 REDZRA NOSIG,M
EHBK,2022-03-31 17:25,37.40,35.60,93.14,320.00,4.00,0.00,29.50,M,6.21,M,FEW,SCT,BKN,M,200.00,3500.00,3900.00,M,-RA,M,M,M,M,M,M,33.73,EHBK 311725Z AUTO 32004KT 260V350 9999 -RA FEW002 SCT035 BKN039 03/02 Q0999 NOSIG,M
EHBK,2022-03-31 17:55,37.40,35.60,93.14,340.00,5.00,0.00,29.50,M,6.21,M,BKN,M,M,M,4400.00,M,M,M,M,M,M,M,M,M,M,32.81,EHBK 311755Z AUTO 34005KT 9999 BKN044 03/02 Q0999 NOSIG,M
EHBK,2022-03-31 18:25,37.40,35.60,93.14,320.00,3.00,0.00,29.53,M,6.21,M,FEW,BKN,OVC,M,600.00,2200.00,2700.00,M,M,M,M,M,M,M,M,34.86,EHBK 311825Z AUTO 32003KT 280V360 9999 FEW006 BKN022 OVC027 03/02 Q1000 NOSIG,M
EHBK,2022-03-31 18:55,37.40,35.60,93.14,320.00,3.00,0.00,29.53,M,6.21,M,OVC,M,M,M,1600.00,M,M,M,M,M,M,M,M,M,M,34.86,EHBK 311855Z AUTO 32003KT 280V340 9999 OVC016 03/02 Q1000 NOSIG,M
EHBK,2022-03-31 19:25,37.40,35.60,93.14,330.00,3.00,0.00,29.53,M,6.21,M,SCT,BKN,OVC,M,700.00,800.00,900.00,M,M,M,M,M,M,M,M,34.86,EHBK 311925Z AUTO 33003KT 9999 SCT007 BKN008 OVC009 03/02 Q1000 NOSIG,M
EHBK,2022-03-31 19:55,37.40,35.60,93.14,340.00,4.00,0.00,29.53,M,6.21,M,SCT,BKN,OVC,M,700.00,900.00,1500.00,M,M,M,M,M,M,M,M,33.73,EHBK 311955Z AUTO 34004KT 300V010 9999 SCT007 BKN009 OVC015 03/02 Q1000 NOSIG,M
EHBK,2022-03-31 20:25,37.40,33.80,86.69,10.00,6.00,0.00,29.53,M,6.21,M,FEW,BKN,M,M,2000.00,3100.00,M,M,M,M,M,M,M,M,M,32.03,EHBK 312025Z AUTO 01006KT 9999 FEW020 BKN031 03/01 Q1000 NOSIG,M
EHBK,2022-03-31 20:55,37.40,35.60,93.14,10.00,5.00,0.00,29.53,M,6.21,M,FEW,SCT,OVC,M,500.00,1000.00,2100.00,M,M,M,M,M,M,M,M,32.81,EHBK 312055Z AUTO 01005KT 320V050 9999 FEW005/// SCT010/// OVC021/// 03/02 Q1000,M
EHBK,2022-03-31 21:25,37.40,35.60,93.14,20.00,5.00,0.00,29.53,M,6.21,M,FEW,BKN,OVC,M,400.00,500.00,1000.00,M,M,M,M,M,M,M,M,32.81,EHBK 312125Z AUTO 02005KT 330V050 9999 FEW004 BKN005 OVC010 03/02 Q1000,M
EHBK,2022-03-31 21:55,35.60,33.80,93.08,M,M,0.00,29.53,M,6.21,M,FEW,SCT,BKN,M,300.00,500.00,800.00,M,M,M,M,M,M,M,M,M,EHBK 312155Z AUTO /////KT 9999 FEW003 SCT005 BKN008 02/01 Q1000,M
EHBK,2022-03-31 22:25,35.60,33.80,93.08,20.00,7.00,0.00,29.53,M,6.21,M,FEW,BKN,BKN,M,400.00,600.00,700.00,M,M,M,M,M,M,M,M,29.17,EHBK 312225Z AUTO 02007KT 9999 FEW004 BKN006 BKN007 02/01 Q1000,M
EHBK,2022-03-31 22:55,35.60,33.80,93.08,10.00,9.00,0.00,29.53,M,6.21,M,BKN,OVC,M,M,600.00,700.00,M,M,DZ,M,M,M,M,M,M,27.99,EHBK 312255Z AUTO 01009KT 340V040 9999 DZ BKN006 OVC007 02/01 Q1000,M
EHBK,2022-03-31 23:25,35.60,33.80,93.08,350.00,5.00,0.00,29.53,M,6.21,M,FEW,SCT,BKN,FEW,300.00,400.00,700.00,1500.00,M,M,M,M,M,M,M,30.67,EHBK 312325Z AUTO 35005KT 320V030 9999 FEW003 SCT004 BKN007 FEW015CB 02/01 Q1000,M
EHBK,2022-03-31 23:55,33.80,33.80,100.00,350.00,4.00,0.00,29.53,M,3.11,M,BKN,FEW,M,M,200.00,1500.00,M,M,M,M,M,M,M,M,M,29.52,EHBK 312355Z AUTO 35004KT 330V030 5000 BKN002 FEW015CB 01/01 Q1000,M